{
"type": "FeatureCollection",
"name": "11_clusters",
"crs": { "type": "name", "properties": { "name": "urn:ogc:def:crs:OGC:1.3:CRS84" } },
"features": [
{ "type": "Feature", "properties": { "cluster_id": 1, "cohesion": 11.471786368065768, "distances": { "2": 25.688251932781313, "3": 27.10282063073931, "4": 33.57350844653656, "5": 38.816634086354156, "6": 30.59963965669218, "7": 38.7516356902551, "8": 24.0913532330572, "9": 27.56418967301811, "10": 35.056622658687566, "11": 33.10294201634302 } }, "geometry": { "type": "Polygon", "coordinates": [ [ [ 142.125, -10.625 ], [ 142.125, -10.875 ], [ 141.875, -10.875 ], [ 141.875, -11.125 ], [ 141.625, -11.125 ], [ 141.625, -12.125 ], [ 141.375, -12.125 ], [ 141.375, -12.875 ], [ 141.125, -12.875 ], [ 141.125, -15.125 ], [ 141.375, -15.125 ], [ 141.375, -15.625 ], [ 141.625, -15.625 ], [ 141.625, -16.125 ], [ 141.875, -16.125 ], [ 141.875, -17.625 ], [ 142.125, -17.625 ], [ 142.125, -18.375 ], [ 142.375, -18.375 ], [ 142.375, -18.875 ], [ 142.625, -18.875 ], [ 142.625, -19.625 ], [ 142.875, -19.625 ], [ 142.875, -19.875 ], [ 143.125, -19.875 ], [ 143.125, -20.125 ], [ 143.375, -20.125 ], [ 143.375, -20.625 ], [ 143.625, -20.625 ], [ 143.625, -21.375 ], [ 143.375, -21.375 ], [ 143.375, -21.625 ], [ 143.125, -21.625 ], [ 143.125, -22.125 ], [ 143.375, -22.125 ], [ 143.375, -22.375 ], [ 143.625, -22.375 ], [ 143.625, -21.625 ], [ 143.875, -21.625 ], [ 143.875, -21.375 ], [ 144.375, -21.375 ], [ 144.375, -20.875 ], [ 144.125, -20.875 ], [ 144.125, -20.625 ], [ 143.875, -20.625 ], [ 143.875, -20.375 ], [ 143.625, -20.375 ], [ 143.625, -19.625 ], [ 144.125, -19.625 ], [ 144.125, -19.875 ], [ 145.875, -19.875 ], [ 145.875, -19.625 ], [ 145.625, -19.625 ], [ 145.625, -19.375 ], [ 145.375, -19.375 ], [ 145.375, -19.125 ], [ 145.125, -19.125 ], [ 145.125, -18.375 ], [ 145.375, -18.375 ], [ 145.375, -18.625 ], [ 145.875, -18.625 ], [ 145.875, -18.875 ], [ 146.125, -18.875 ], [ 146.125, -19.125 ], [ 146.875, -19.125 ], [ 146.875, -19.375 ], [ 147.125, -19.375 ], [ 147.125, -19.625 ], [ 147.375, -19.625 ], [ 147.375, -20.125 ], [ 147.625, -20.125 ], [ 147.625, -20.375 ], [ 148.125, -20.375 ], [ 148.125, -20.625 ], [ 148.375, -20.625 ], [ 148.375, -20.375 ], [ 148.625, -20.375 ], [ 148.625, -20.625 ], [ 148.875, -20.625 ], [ 148.875, -20.875 ], [ 149.125, -20.875 ], [ 149.125, -20.375 ], [ 148.875, -20.375 ], [ 148.875, -20.125 ], [ 148.625, -20.125 ], [ 148.625, -19.875 ], [ 148.375, -19.875 ], [ 148.375, -19.625 ], [ 147.875, -19.625 ], [ 147.875, -19.375 ], [ 147.625, -19.375 ], [ 147.625, -19.125 ], [ 147.375, -19.125 ], [ 147.375, -18.875 ], [ 146.625, -18.875 ], [ 146.625, -18.125 ], [ 146.375, -18.125 ], [ 146.375, -17.875 ], [ 146.625, -17.875 ], [ 146.625, -17.375 ], [ 146.375, -17.375 ], [ 146.375, -17.125 ], [ 146.125, -17.125 ], [ 146.125, -16.875 ], [ 145.875, -16.875 ], [ 145.875, -16.125 ], [ 145.625, -16.125 ], [ 145.625, -14.875 ], [ 145.375, -14.875 ], [ 145.375, -14.625 ], [ 145.125, -14.625 ], [ 145.125, -14.375 ], [ 144.875, -14.375 ], [ 144.875, -14.125 ], [ 144.625, -14.125 ], [ 144.625, -13.875 ], [ 143.875, -13.875 ], [ 143.875, -12.875 ], [ 143.625, -12.875 ], [ 143.625, -12.375 ], [ 143.375, -12.375 ], [ 143.375, -11.875 ], [ 143.125, -11.875 ], [ 143.125, -11.125 ], [ 142.875, -11.125 ], [ 142.875, -10.875 ], [ 142.625, -10.875 ], [ 142.625, -10.625 ], [ 142.125, -10.625 ] ] ] } },
{ "type": "Feature", "properties": { "cluster_id": 2, "cohesion": 10.822280141435474, "distances": { "1": 25.68825193278131, "3": 20.179566920669103, "4": 44.04679558453689, "5": 48.40497221397787, "6": 38.937939263007685, "7": 47.53294153356559, "8": 34.18929292987654, "9": 32.666378488365716, "10": 42.463495142656924, "11": 34.26357417137335 } }, "geometry": { "type": "Polygon", "coordinates": [ [ [ 133.125, -11.875 ], [ 133.125, -12.375 ], [ 132.625, -12.375 ], [ 132.625, -12.625 ], [ 132.125, -12.625 ], [ 132.125, -12.875 ], [ 131.125, -12.875 ], [ 131.125, -13.125 ], [ 130.625, -13.125 ], [ 130.625, -13.375 ], [ 130.375, -13.375 ], [ 130.375, -13.625 ], [ 130.125, -13.625 ], [ 130.125, -13.875 ], [ 129.875, -13.875 ], [ 129.875, -14.125 ], [ 129.625, -14.125 ], [ 129.625, -14.875 ], [ 128.625, -14.875 ], [ 128.625, -15.125 ], [ 128.375, -15.125 ], [ 128.375, -15.875 ], [ 128.875, -15.875 ], [ 128.875, -16.625 ], [ 128.625, -16.625 ], [ 128.625, -17.625 ], [ 128.375, -17.625 ], [ 128.375, -18.625 ], [ 128.625, -18.625 ], [ 128.625, -19.125 ], [ 130.125, -19.125 ], [ 130.125, -18.875 ], [ 130.875, -18.875 ], [ 130.875, -19.125 ], [ 132.875, -19.125 ], [ 132.875, -19.375 ], [ 134.875, -19.375 ], [ 134.875, -19.125 ], [ 135.875, -19.125 ], [ 135.875, -19.375 ], [ 137.125, -19.375 ], [ 137.125, -19.875 ], [ 137.625, -19.875 ], [ 137.625, -20.125 ], [ 138.125, -20.125 ], [ 138.125, -19.875 ], [ 138.375, -19.875 ], [ 138.375, -20.125 ], [ 138.625, -20.125 ], [ 138.625, -20.375 ], [ 138.875, -20.375 ], [ 138.875, -20.625 ], [ 139.125, -20.625 ], [ 139.125, -20.875 ], [ 140.375, -20.875 ], [ 140.375, -21.125 ], [ 141.375, -21.125 ], [ 141.375, -20.625 ], [ 141.625, -20.625 ], [ 141.625, -20.125 ], [ 142.875, -20.125 ], [ 142.875, -19.625 ], [ 142.625, -19.625 ], [ 142.625, -18.875 ], [ 142.375, -18.875 ], [ 142.375, -18.375 ], [ 142.125, -18.375 ], [ 142.125, -17.625 ], [ 141.875, -17.625 ], [ 141.875, -16.125 ], [ 141.625, -16.125 ], [ 141.625, -15.625 ], [ 141.375, -15.625 ], [ 141.375, -15.125 ], [ 141.125, -15.125 ], [ 141.125, -15.875 ], [ 140.875, -15.875 ], [ 140.875, -16.875 ], [ 140.625, -16.875 ], [ 140.625, -17.375 ], [ 139.625, -17.375 ], [ 139.625, -17.125 ], [ 139.375, -17.125 ], [ 139.375, -16.875 ], [ 139.125, -16.875 ], [ 139.125, -16.625 ], [ 138.875, -16.625 ], [ 138.875, -16.375 ], [ 138.125, -16.375 ], [ 138.125, -16.125 ], [ 137.875, -16.125 ], [ 137.875, -15.875 ], [ 137.375, -15.875 ], [ 137.375, -15.625 ], [ 136.625, -15.625 ], [ 136.625, -15.375 ], [ 136.375, -15.375 ], [ 136.375, -15.125 ], [ 135.375, -15.125 ], [ 135.375, -14.875 ], [ 134.625, -14.875 ], [ 134.625, -15.125 ], [ 134.375, -15.125 ], [ 134.375, -15.375 ], [ 134.125, -15.375 ], [ 134.125, -15.625 ], [ 133.875, -15.625 ], [ 133.875, -15.375 ], [ 132.875, -15.375 ], [ 132.875, -15.125 ], [ 132.625, -15.125 ], [ 132.625, -14.625 ], [ 132.875, -14.625 ], [ 132.875, -14.375 ], [ 133.125, -14.375 ], [ 133.125, -14.125 ], [ 133.375, -14.125 ], [ 133.375, -13.625 ], [ 133.625, -13.625 ], [ 133.625, -13.375 ], [ 133.875, -13.375 ], [ 133.875, -13.125 ], [ 134.375, -13.125 ], [ 134.375, -14.125 ], [ 134.875, -14.125 ], [ 134.875, -13.875 ], [ 135.125, -13.875 ], [ 135.125, -13.625 ], [ 135.375, -13.625 ], [ 135.375, -13.125 ], [ 135.625, -13.125 ], [ 135.625, -12.875 ], [ 135.875, -12.875 ], [ 135.875, -12.375 ], [ 135.625, -12.375 ], [ 135.625, -12.125 ], [ 133.875, -12.125 ], [ 133.875, -11.875 ], [ 133.125, -11.875 ] ] ] } },
{ "type": "Feature", "properties": { "cluster_id": 3, "cohesion": 17.766222611171386, "distances": { "1": 27.102820630739316, "2": 20.179566920669114, "4": 37.8441469632846, "5": 39.99068203173854, "6": 34.624023614769456, "7": 38.78966579313843, "8": 29.167557184076827, "9": 28.685216752887094, "10": 34.28686897408871, "11": 25.41073072688994 } }, "geometry": { "type": "Polygon", "coordinates": [ [ [ 130.375, -10.875 ], [ 130.375, -11.125 ], [ 130.125, -11.125 ], [ 130.125, -11.375 ], [ 129.875, -11.375 ], [ 129.875, -11.625 ], [ 130.125, -11.625 ], [ 130.125, -11.875 ], [ 130.375, -11.875 ], [ 130.375, -12.375 ], [ 130.125, -12.375 ], [ 130.125, -12.625 ], [ 129.875, -12.625 ], [ 129.875, -13.375 ], [ 129.625, -13.375 ], [ 129.625, -13.625 ], [ 129.375, -13.625 ], [ 129.375, -14.125 ], [ 129.125, -14.125 ], [ 129.125, -14.375 ], [ 129.375, -14.375 ], [ 129.375, -14.625 ], [ 128.375, -14.625 ], [ 128.375, -14.375 ], [ 128.125, -14.375 ], [ 128.125, -14.125 ], [ 127.875, -14.125 ], [ 127.875, -13.875 ], [ 127.625, -13.875 ], [ 127.625, -13.625 ], [ 126.625, -13.625 ], [ 126.625, -13.875 ], [ 126.125, -13.875 ], [ 126.125, -14.125 ], [ 125.375, -14.125 ], [ 125.375, -14.375 ], [ 125.125, -14.375 ], [ 125.125, -14.625 ], [ 124.875, -14.625 ], [ 124.875, -15.125 ], [ 124.625, -15.125 ], [ 124.625, -15.375 ], [ 124.375, -15.375 ], [ 124.375, -15.625 ], [ 124.125, -15.625 ], [ 124.125, -15.875 ], [ 123.625, -15.875 ], [ 123.625, -16.125 ], [ 123.375, -16.125 ], [ 123.375, -16.375 ], [ 122.625, -16.375 ], [ 122.625, -16.625 ], [ 122.375, -16.625 ], [ 122.375, -16.875 ], [ 122.125, -16.875 ], [ 122.125, -17.125 ], [ 121.875, -17.125 ], [ 121.875, -17.875 ], [ 122.125, -17.875 ], [ 122.125, -18.125 ], [ 121.875, -18.125 ], [ 121.875, -18.375 ], [ 121.625, -18.375 ], [ 121.625, -18.625 ], [ 121.375, -18.625 ], [ 121.375, -18.875 ], [ 121.125, -18.875 ], [ 121.125, -19.125 ], [ 120.875, -19.125 ], [ 120.875, -19.375 ], [ 120.625, -19.375 ], [ 120.625, -19.625 ], [ 120.375, -19.625 ], [ 120.375, -19.875 ], [ 119.625, -19.875 ], [ 119.625, -20.125 ], [ 119.125, -20.125 ], [ 119.125, -20.375 ], [ 118.625, -20.375 ], [ 118.625, -21.375 ], [ 119.125, -21.375 ], [ 119.125, -21.125 ], [ 119.625, -21.125 ], [ 119.625, -21.375 ], [ 120.375, -21.375 ], [ 120.375, -21.125 ], [ 120.625, -21.125 ], [ 120.625, -20.875 ], [ 121.125, -20.875 ], [ 121.125, -20.625 ], [ 122.375, -20.625 ], [ 122.375, -20.875 ], [ 122.625, -20.875 ], [ 122.625, -21.125 ], [ 123.125, -21.125 ], [ 123.125, -21.375 ], [ 124.125, -21.375 ], [ 124.125, -21.125 ], [ 125.375, -21.125 ], [ 125.375, -21.375 ], [ 126.375, -21.375 ], [ 126.375, -21.625 ], [ 126.875, -21.625 ], [ 126.875, -21.375 ], [ 127.625, -21.375 ], [ 127.625, -21.625 ], [ 127.875, -21.625 ], [ 127.875, -21.375 ], [ 128.125, -21.375 ], [ 128.125, -21.125 ], [ 128.375, -21.125 ], [ 128.375, -20.875 ], [ 128.875, -20.875 ], [ 128.875, -21.625 ], [ 129.875, -21.625 ], [ 129.875, -21.875 ], [ 130.125, -21.875 ], [ 130.125, -22.125 ], [ 130.875, -22.125 ], [ 130.875, -22.375 ], [ 131.625, -22.375 ], [ 131.625, -22.125 ], [ 132.875, -22.125 ], [ 132.875, -21.875 ], [ 136.125, -21.875 ], [ 136.125, -22.125 ], [ 136.625, -22.125 ], [ 136.625, -21.875 ], [ 137.625, -21.875 ], [ 137.625, -22.125 ], [ 138.125, -22.125 ], [ 138.125, -22.375 ], [ 138.375, -22.375 ], [ 138.375, -22.625 ], [ 140.125, -22.625 ], [ 140.125, -22.375 ], [ 140.625, -22.375 ], [ 140.625, -22.625 ], [ 141.125, -22.625 ], [ 141.125, -22.375 ], [ 141.625, -22.375 ], [ 141.625, -22.625 ], [ 141.875, -22.625 ], [ 141.875, -23.125 ], [ 142.125, -23.125 ], [ 142.125, -23.375 ], [ 142.875, -23.375 ], [ 142.875, -23.125 ], [ 143.125, -23.125 ], [ 143.125, -22.875 ], [ 143.375, -22.875 ], [ 143.375, -22.125 ], [ 143.125, -22.125 ], [ 143.125, -21.625 ], [ 143.375, -21.625 ], [ 143.375, -21.375 ], [ 143.625, -21.375 ], [ 143.625, -20.625 ], [ 143.375, -20.625 ], [ 143.375, -20.125 ], [ 143.125, -20.125 ], [ 143.125, -19.875 ], [ 142.875, -19.875 ], [ 142.875, -20.125 ], [ 141.625, -20.125 ], [ 141.625, -20.625 ], [ 141.375, -20.625 ], [ 141.375, -21.125 ], [ 140.375, -21.125 ], [ 140.375, -20.875 ], [ 139.125, -20.875 ], [ 139.125, -20.625 ], [ 138.875, -20.625 ], [ 138.875, -20.375 ], [ 138.625, -20.375 ], [ 138.625, -20.125 ], [ 138.375, -20.125 ], [ 138.375, -19.875 ], [ 138.125, -19.875 ], [ 138.125, -20.125 ], [ 137.625, -20.125 ], [ 137.625, -19.875 ], [ 137.125, -19.875 ], [ 137.125, -19.375 ], [ 135.875, -19.375 ], [ 135.875, -19.125 ], [ 134.875, -19.125 ], [ 134.875, -19.375 ], [ 132.875, -19.375 ], [ 132.875, -19.125 ], [ 130.875, -19.125 ], [ 130.875, -18.875 ], [ 130.125, -18.875 ], [ 130.125, -19.125 ], [ 128.625, -19.125 ], [ 128.625, -18.625 ], [ 128.375, -18.625 ], [ 128.375, -17.625 ], [ 128.625, -17.625 ], [ 128.625, -16.625 ], [ 128.875, -16.625 ], [ 128.875, -15.875 ], [ 128.375, -15.875 ], [ 128.375, -15.125 ], [ 128.625, -15.125 ], [ 128.625, -14.875 ], [ 129.625, -14.875 ], [ 129.625, -14.125 ], [ 129.875, -14.125 ], [ 129.875, -13.875 ], [ 130.125, -13.875 ], [ 130.125, -13.625 ], [ 130.375, -13.625 ], [ 130.375, -13.375 ], [ 130.625, -13.375 ], [ 130.625, -13.125 ], [ 131.125, -13.125 ], [ 131.125, -12.875 ], [ 132.125, -12.875 ], [ 132.125, -12.625 ], [ 132.625, -12.625 ], [ 132.625, -12.375 ], [ 133.125, -12.375 ], [ 133.125, -11.875 ], [ 133.875, -11.875 ], [ 133.875, -12.125 ], [ 135.625, -12.125 ], [ 135.625, -12.375 ], [ 135.875, -12.375 ], [ 135.875, -12.875 ], [ 135.625, -12.875 ], [ 135.625, -13.125 ], [ 135.375, -13.125 ], [ 135.375, -13.625 ], [ 135.125, -13.625 ], [ 135.125, -13.875 ], [ 134.875, -13.875 ], [ 134.875, -14.125 ], [ 134.375, -14.125 ], [ 134.375, -13.125 ], [ 133.875, -13.125 ], [ 133.875, -13.375 ], [ 133.625, -13.375 ], [ 133.625, -13.625 ], [ 133.375, -13.625 ], [ 133.375, -14.125 ], [ 133.125, -14.125 ], [ 133.125, -14.375 ], [ 132.875, -14.375 ], [ 132.875, -14.625 ], [ 132.625, -14.625 ], [ 132.625, -15.125 ], [ 132.875, -15.125 ], [ 132.875, -15.375 ], [ 133.875, -15.375 ], [ 133.875, -15.625 ], [ 134.125, -15.625 ], [ 134.125, -15.375 ], [ 134.375, -15.375 ], [ 134.375, -15.125 ], [ 134.625, -15.125 ], [ 134.625, -14.875 ], [ 135.375, -14.875 ], [ 135.375, -15.125 ], [ 136.125, -15.125 ], [ 136.125, -14.875 ], [ 135.875, -14.875 ], [ 135.875, -14.375 ], [ 136.125, -14.375 ], [ 136.125, -14.125 ], [ 136.375, -14.125 ], [ 136.375, -13.875 ], [ 136.125, -13.875 ], [ 136.125, -13.625 ], [ 136.375, -13.625 ], [ 136.375, -13.375 ], [ 136.625, -13.375 ], [ 136.625, -13.125 ], [ 136.875, -13.125 ], [ 136.875, -12.625 ], [ 137.125, -12.625 ], [ 137.125, -12.375 ], [ 136.875, -12.375 ], [ 136.875, -12.125 ], [ 136.625, -12.125 ], [ 136.625, -11.875 ], [ 135.625, -11.875 ], [ 135.625, -11.625 ], [ 135.375, -11.625 ], [ 135.375, -11.875 ], [ 134.875, -11.875 ], [ 134.875, -11.625 ], [ 133.875, -11.625 ], [ 133.875, -11.375 ], [ 133.125, -11.375 ], [ 133.125, -11.125 ], [ 132.625, -11.125 ], [ 132.625, -11.375 ], [ 132.375, -11.375 ], [ 132.375, -11.625 ], [ 132.125, -11.625 ], [ 132.125, -11.875 ], [ 131.625, -11.875 ], [ 131.625, -11.625 ], [ 131.875, -11.625 ], [ 131.875, -11.375 ], [ 131.625, -11.375 ], [ 131.625, -11.125 ], [ 131.375, -11.125 ], [ 131.375, -10.875 ], [ 131.125, -10.875 ], [ 131.125, -11.125 ], [ 130.625, -11.125 ], [ 130.625, -10.875 ], [ 130.375, -10.875 ] ], [ [ 130.625, -11.875 ], [ 130.875, -11.875 ], [ 130.875, -12.125 ], [ 130.625, -12.125 ], [ 130.625, -11.875 ] ] ] } },
{ "type": "Feature", "properties": { "cluster_id": 4, "cohesion": 10.942474926362591, "distances": { "1": 33.57350844653655, "2": 44.04679558453687, "3": 37.84414696328461, "5": 19.874163309571, "6": 33.57977506403668, "7": 31.122368225145987, "8": 29.55905904499675, "9": 22.15498048235503, "10": 28.80311726710667, "11": 32.88970647133333 } }, "geometry": { "type": "MultiPolygon", "coordinates": [ [ [ [ 149.125, -36.375 ], [ 149.125, -36.625 ], [ 148.875, -36.625 ], [ 148.875, -36.375 ], [ 149.125, -36.375 ] ] ], [ [ [ 138.375, -32.375 ], [ 138.375, -32.875 ], [ 139.875, -32.875 ], [ 139.875, -33.375 ], [ 139.625, -33.375 ], [ 139.625, -34.875 ], [ 140.125, -34.875 ], [ 140.125, -35.125 ], [ 141.125, -35.125 ], [ 141.125, -34.875 ], [ 141.375, -34.875 ], [ 141.375, -35.125 ], [ 141.625, -35.125 ], [ 141.625, -34.625 ], [ 141.875, -34.625 ], [ 141.875, -35.125 ], [ 142.375, -35.125 ], [ 142.375, -34.125 ], [ 142.875, -34.125 ], [ 142.875, -34.875 ], [ 143.375, -34.875 ], [ 143.375, -35.125 ], [ 144.375, -35.125 ], [ 144.375, -35.375 ], [ 144.875, -35.375 ], [ 144.875, -35.625 ], [ 145.375, -35.625 ], [ 145.375, -35.875 ], [ 146.125, -35.875 ], [ 146.125, -36.375 ], [ 146.375, -36.375 ], [ 146.375, -36.125 ], [ 146.625, -36.125 ], [ 146.625, -35.875 ], [ 147.375, -35.875 ], [ 147.375, -35.625 ], [ 147.625, -35.625 ], [ 147.625, -35.375 ], [ 148.375, -35.375 ], [ 148.375, -36.375 ], [ 148.125, -36.375 ], [ 148.125, -36.625 ], [ 147.625, -36.625 ], [ 147.625, -36.875 ], [ 146.875, -36.875 ], [ 146.875, -37.125 ], [ 146.375, -37.125 ], [ 146.375, -37.375 ], [ 146.125, -37.375 ], [ 146.125, -37.625 ], [ 144.875, -37.625 ], [ 144.875, -37.375 ], [ 144.125, -37.375 ], [ 144.125, -37.625 ], [ 142.125, -37.625 ], [ 142.125, -37.875 ], [ 141.625, -37.875 ], [ 141.625, -38.125 ], [ 140.125, -38.125 ], [ 140.125, -37.875 ], [ 139.875, -37.875 ], [ 139.875, -37.625 ], [ 139.625, -37.625 ], [ 139.625, -37.375 ], [ 139.375, -37.375 ], [ 139.375, -36.125 ], [ 139.125, -36.125 ], [ 139.125, -35.875 ], [ 138.625, -35.875 ], [ 138.625, -35.625 ], [ 138.375, -35.625 ], [ 138.375, -35.375 ], [ 138.125, -35.375 ], [ 138.125, -34.625 ], [ 137.875, -34.625 ], [ 137.875, -34.875 ], [ 137.625, -34.875 ], [ 137.625, -34.625 ], [ 137.375, -34.625 ], [ 137.375, -34.375 ], [ 137.125, -34.375 ], [ 137.125, -34.125 ], [ 136.625, -34.125 ], [ 136.625, -34.375 ], [ 136.375, -34.375 ], [ 136.375, -34.625 ], [ 136.125, -34.625 ], [ 136.125, -34.875 ], [ 135.875, -34.875 ], [ 135.875, -34.375 ], [ 136.125, -34.375 ], [ 136.125, -34.125 ], [ 136.375, -34.125 ], [ 136.375, -33.875 ], [ 136.625, -33.875 ], [ 136.625, -33.125 ], [ 137.125, -33.125 ], [ 137.125, -33.625 ], [ 137.375, -33.625 ], [ 137.375, -33.875 ], [ 137.625, -33.875 ], [ 137.625, -33.625 ], [ 137.875, -33.625 ], [ 137.875, -33.125 ], [ 138.125, -33.125 ], [ 138.125, -32.375 ], [ 138.375, -32.375 ] ] ] ] } },
{ "type": "Feature", "properties": { "cluster_id": 5, "cohesion": 16.557055785543699, "distances": { "1": 38.81663408635416, "2": 48.40497221397787, "3": 39.990682031738494, "4": 19.874163309570996, "6": 34.48785401240902, "7": 26.86219780803735, "8": 29.144194007668823, "9": 28.105084296032455, "10": 22.98157241537196, "11": 30.518338790369658 } }, "geometry": { "type": "Polygon", "coordinates": [ [ [ 134.625, -27.375 ], [ 134.625, -27.875 ], [ 134.375, -27.875 ], [ 134.375, -28.625 ], [ 134.125, -28.625 ], [ 134.125, -29.375 ], [ 133.875, -29.375 ], [ 133.875, -30.125 ], [ 133.375, -30.125 ], [ 133.375, -30.375 ], [ 133.125, -30.375 ], [ 133.125, -30.625 ], [ 132.875, -30.625 ], [ 132.875, -30.875 ], [ 133.125, -30.875 ], [ 133.125, -31.125 ], [ 133.625, -31.125 ], [ 133.625, -31.875 ], [ 132.125, -31.875 ], [ 132.125, -32.375 ], [ 133.625, -32.375 ], [ 133.625, -32.625 ], [ 133.875, -32.625 ], [ 133.875, -33.125 ], [ 134.125, -33.125 ], [ 134.125, -33.375 ], [ 134.375, -33.375 ], [ 134.375, -33.625 ], [ 134.625, -33.625 ], [ 134.625, -33.875 ], [ 134.875, -33.875 ], [ 134.875, -34.375 ], [ 135.125, -34.375 ], [ 135.125, -34.625 ], [ 135.375, -34.625 ], [ 135.375, -34.875 ], [ 135.875, -34.875 ], [ 135.875, -34.375 ], [ 136.125, -34.375 ], [ 136.125, -34.125 ], [ 136.375, -34.125 ], [ 136.375, -33.875 ], [ 136.625, -33.875 ], [ 136.625, -33.125 ], [ 137.125, -33.125 ], [ 137.125, -33.625 ], [ 137.375, -33.625 ], [ 137.375, -33.875 ], [ 137.625, -33.875 ], [ 137.625, -33.625 ], [ 137.875, -33.625 ], [ 137.875, -33.125 ], [ 138.125, -33.125 ], [ 138.125, -32.375 ], [ 138.375, -32.375 ], [ 138.375, -32.875 ], [ 139.875, -32.875 ], [ 139.875, -33.375 ], [ 139.625, -33.375 ], [ 139.625, -34.875 ], [ 140.125, -34.875 ], [ 140.125, -35.125 ], [ 141.125, -35.125 ], [ 141.125, -34.875 ], [ 141.375, -34.875 ], [ 141.375, -35.125 ], [ 141.625, -35.125 ], [ 141.625, -34.625 ], [ 141.875, -34.625 ], [ 141.875, -35.125 ], [ 142.375, -35.125 ], [ 142.375, -34.125 ], [ 142.875, -34.125 ], [ 142.875, -34.875 ], [ 143.375, -34.875 ], [ 143.375, -35.125 ], [ 144.375, -35.125 ], [ 144.375, -35.375 ], [ 144.875, -35.375 ], [ 144.875, -35.625 ], [ 145.375, -35.625 ], [ 145.375, -35.875 ], [ 146.125, -35.875 ], [ 146.125, -36.375 ], [ 146.375, -36.375 ], [ 146.375, -36.125 ], [ 146.625, -36.125 ], [ 146.625, -35.875 ], [ 147.375, -35.875 ], [ 147.375, -35.625 ], [ 147.625, -35.625 ], [ 147.625, -35.375 ], [ 148.125, -35.375 ], [ 148.125, -35.125 ], [ 147.875, -35.125 ], [ 147.875, -34.875 ], [ 148.625, -34.875 ], [ 148.625, -34.625 ], [ 148.875, -34.625 ], [ 148.875, -34.375 ], [ 149.125, -34.375 ], [ 149.125, -33.375 ], [ 148.875, -33.375 ], [ 148.875, -33.125 ], [ 148.625, -33.125 ], [ 148.625, -32.875 ], [ 148.375, -32.875 ], [ 148.375, -31.625 ], [ 148.625, -31.625 ], [ 148.625, -31.375 ], [ 148.125, -31.375 ], [ 148.125, -30.875 ], [ 147.875, -30.875 ], [ 147.875, -30.375 ], [ 147.625, -30.375 ], [ 147.625, -29.875 ], [ 147.125, -29.875 ], [ 147.125, -29.625 ], [ 146.875, -29.625 ], [ 146.875, -29.375 ], [ 146.625, -29.375 ], [ 146.625, -29.125 ], [ 145.125, -29.125 ], [ 145.125, -28.875 ], [ 144.875, -28.875 ], [ 144.875, -28.375 ], [ 144.375, -28.375 ], [ 144.375, -28.625 ], [ 143.625, -28.625 ], [ 143.625, -28.875 ], [ 143.375, -28.875 ], [ 143.375, -28.625 ], [ 143.125, -28.625 ], [ 143.125, -28.125 ], [ 142.625, -28.125 ], [ 142.625, -28.375 ], [ 142.125, -28.375 ], [ 142.125, -28.625 ], [ 141.625, -28.625 ], [ 141.625, -28.375 ], [ 140.375, -28.375 ], [ 140.375, -29.125 ], [ 140.625, -29.125 ], [ 140.625, -29.375 ], [ 141.125, -29.375 ], [ 141.125, -29.625 ], [ 140.375, -29.625 ], [ 140.375, -29.375 ], [ 140.125, -29.375 ], [ 140.125, -29.125 ], [ 139.375, -29.125 ], [ 139.375, -29.375 ], [ 138.625, -29.375 ], [ 138.625, -29.125 ], [ 138.375, -29.125 ], [ 138.375, -28.875 ], [ 137.875, -28.875 ], [ 137.875, -28.625 ], [ 137.625, -28.625 ], [ 137.625, -29.125 ], [ 137.875, -29.125 ], [ 137.875, -29.375 ], [ 138.125, -29.375 ], [ 138.125, -29.625 ], [ 138.375, -29.625 ], [ 138.375, -29.875 ], [ 137.625, -29.875 ], [ 137.625, -29.625 ], [ 137.375, -29.625 ], [ 137.375, -28.875 ], [ 137.125, -28.875 ], [ 137.125, -28.625 ], [ 136.875, -28.625 ], [ 136.875, -28.375 ], [ 136.625, -28.375 ], [ 136.625, -28.125 ], [ 135.875, -28.125 ], [ 135.875, -27.625 ], [ 135.375, -27.625 ], [ 135.375, -27.375 ], [ 134.625, -27.375 ] ] ] } },
{ "type": "Feature", "properties": { "cluster_id": 6, "cohesion": 13.173986602218351, "distances": { "1": 30.599639656692187, "2": 38.9379392630077, "3": 34.62402361476947, "4": 33.579775064036674, "5": 34.48785401240901, "7": 26.155063787792994, "8": 27.943367302940917, "9": 30.463650034929554, "10": 32.352047991522866, "11": 32.5488804745093 } }, "geometry": { "type": "Polygon", "coordinates": [ [ [ 118.375, -30.125 ], [ 118.375, -30.375 ], [ 118.125, -30.375 ], [ 118.125, -30.625 ], [ 117.875, -30.625 ], [ 117.875, -30.875 ], [ 116.375, -30.875 ], [ 116.375, -30.625 ], [ 115.625, -30.625 ], [ 115.625, -30.375 ], [ 115.375, -30.375 ], [ 115.375, -30.625 ], [ 115.125, -30.625 ], [ 115.125, -30.875 ], [ 114.875, -30.875 ], [ 114.875, -31.125 ], [ 115.125, -31.125 ], [ 115.125, -31.375 ], [ 115.375, -31.375 ], [ 115.375, -33.375 ], [ 115.125, -33.375 ], [ 115.125, -33.625 ], [ 114.875, -33.625 ], [ 114.875, -33.875 ], [ 114.625, -33.875 ], [ 114.625, -34.125 ], [ 114.875, -34.125 ], [ 114.875, -34.375 ], [ 115.125, -34.375 ], [ 115.125, -34.625 ], [ 115.625, -34.625 ], [ 115.625, -34.875 ], [ 115.875, -34.875 ], [ 115.875, -35.125 ], [ 116.125, -35.125 ], [ 116.125, -35.375 ], [ 118.375, -35.375 ], [ 118.375, -35.125 ], [ 118.625, -35.125 ], [ 118.625, -34.875 ], [ 119.375, -34.875 ], [ 119.375, -34.625 ], [ 119.625, -34.625 ], [ 119.625, -34.375 ], [ 120.875, -34.375 ], [ 120.875, -34.125 ], [ 122.125, -34.125 ], [ 122.125, -34.375 ], [ 123.625, -34.375 ], [ 123.625, -34.125 ], [ 123.875, -34.125 ], [ 123.875, -33.875 ], [ 124.125, -33.875 ], [ 124.125, -33.625 ], [ 124.375, -33.625 ], [ 124.375, -33.375 ], [ 124.875, -33.375 ], [ 124.875, -33.125 ], [ 125.375, -33.125 ], [ 125.375, -32.625 ], [ 125.625, -32.625 ], [ 125.625, -32.375 ], [ 125.875, -32.375 ], [ 125.875, -32.125 ], [ 126.375, -32.125 ], [ 126.375, -31.875 ], [ 126.875, -31.875 ], [ 126.875, -31.625 ], [ 125.125, -31.625 ], [ 125.125, -31.875 ], [ 123.625, -31.875 ], [ 123.625, -31.625 ], [ 123.125, -31.625 ], [ 123.125, -31.375 ], [ 121.625, -31.375 ], [ 121.625, -30.875 ], [ 121.125, -30.875 ], [ 121.125, -30.625 ], [ 120.375, -30.625 ], [ 120.375, -30.375 ], [ 119.625, -30.375 ], [ 119.625, -30.125 ], [ 118.375, -30.125 ] ] ] } },
{ "type": "Feature", "properties": { "cluster_id": 7, "cohesion": 19.151744428067687, "distances": { "1": 38.751635690255135, "2": 47.53294153356558, "3": 38.789665793138425, "4": 31.12236822514598, "5": 26.862197808037397, "6": 26.155063787792976, "8": 29.24104420647437, "9": 32.94914780168886, "10": 26.950599449593522, "11": 28.929728926821085 } }, "geometry": { "type": "MultiPolygon", "coordinates": [ [ [ [ 137.625, -28.875 ], [ 137.625, -29.125 ], [ 137.875, -29.125 ], [ 137.875, -29.375 ], [ 138.125, -29.375 ], [ 138.125, -29.625 ], [ 138.375, -29.625 ], [ 138.375, -29.875 ], [ 137.625, -29.875 ], [ 137.625, -29.625 ], [ 137.375, -29.625 ], [ 137.375, -28.875 ], [ 137.625, -28.875 ] ] ], [ [ [ 116.375, -20.625 ], [ 116.375, -21.125 ], [ 116.125, -21.125 ], [ 116.125, -22.125 ], [ 116.375, -22.125 ], [ 116.375, -22.375 ], [ 116.625, -22.375 ], [ 116.625, -22.625 ], [ 117.125, -22.625 ], [ 117.125, -22.875 ], [ 117.375, -22.875 ], [ 117.375, -23.375 ], [ 117.625, -23.375 ], [ 117.625, -23.625 ], [ 117.875, -23.625 ], [ 117.875, -23.875 ], [ 118.125, -23.875 ], [ 118.125, -24.125 ], [ 119.125, -24.125 ], [ 119.125, -23.125 ], [ 120.125, -23.125 ], [ 120.125, -23.625 ], [ 121.125, -23.625 ], [ 121.125, -23.375 ], [ 121.625, -23.375 ], [ 121.625, -23.625 ], [ 121.875, -23.625 ], [ 121.875, -23.875 ], [ 123.125, -23.875 ], [ 123.125, -24.375 ], [ 124.625, -24.375 ], [ 124.625, -24.625 ], [ 126.875, -24.625 ], [ 126.875, -24.375 ], [ 128.875, -24.375 ], [ 128.875, -24.625 ], [ 130.125, -24.625 ], [ 130.125, -24.125 ], [ 130.375, -24.125 ], [ 130.375, -23.875 ], [ 131.375, -23.875 ], [ 131.375, -24.125 ], [ 131.875, -24.125 ], [ 131.875, -23.875 ], [ 133.875, -23.875 ], [ 133.875, -23.625 ], [ 134.625, -23.625 ], [ 134.625, -23.875 ], [ 134.375, -23.875 ], [ 134.375, -24.125 ], [ 134.125, -24.125 ], [ 134.125, -24.375 ], [ 134.375, -24.375 ], [ 134.375, -24.625 ], [ 134.625, -24.625 ], [ 134.625, -24.875 ], [ 135.625, -24.875 ], [ 135.625, -25.125 ], [ 135.875, -25.125 ], [ 135.875, -25.375 ], [ 136.125, -25.375 ], [ 136.125, -25.625 ], [ 136.625, -25.625 ], [ 136.625, -25.875 ], [ 136.875, -25.875 ], [ 136.875, -26.125 ], [ 137.125, -26.125 ], [ 137.125, -26.625 ], [ 137.375, -26.625 ], [ 137.375, -26.875 ], [ 137.625, -26.875 ], [ 137.625, -27.125 ], [ 137.875, -27.125 ], [ 137.875, -27.375 ], [ 138.375, -27.375 ], [ 138.375, -27.125 ], [ 138.625, -27.125 ], [ 138.625, -27.375 ], [ 139.375, -27.375 ], [ 139.375, -27.125 ], [ 139.875, -27.125 ], [ 139.875, -27.375 ], [ 140.125, -27.375 ], [ 140.125, -27.625 ], [ 140.375, -27.625 ], [ 140.375, -29.125 ], [ 140.625, -29.125 ], [ 140.625, -29.375 ], [ 141.125, -29.375 ], [ 141.125, -29.625 ], [ 140.375, -29.625 ], [ 140.375, -29.375 ], [ 140.125, -29.375 ], [ 140.125, -29.125 ], [ 139.375, -29.125 ], [ 139.375, -29.375 ], [ 138.625, -29.375 ], [ 138.625, -29.125 ], [ 138.375, -29.125 ], [ 138.375, -28.875 ], [ 137.875, -28.875 ], [ 137.875, -28.625 ], [ 137.375, -28.625 ], [ 137.375, -28.375 ], [ 137.125, -28.375 ], [ 137.125, -28.625 ], [ 136.875, -28.625 ], [ 136.875, -28.375 ], [ 136.625, -28.375 ], [ 136.625, -28.125 ], [ 135.875, -28.125 ], [ 135.875, -27.625 ], [ 135.375, -27.625 ], [ 135.375, -27.375 ], [ 134.625, -27.375 ], [ 134.625, -27.875 ], [ 134.375, -27.875 ], [ 134.375, -28.625 ], [ 134.125, -28.625 ], [ 134.125, -29.375 ], [ 133.875, -29.375 ], [ 133.875, -30.125 ], [ 133.375, -30.125 ], [ 133.375, -30.375 ], [ 133.125, -30.375 ], [ 133.125, -30.625 ], [ 132.875, -30.625 ], [ 132.875, -30.875 ], [ 133.125, -30.875 ], [ 133.125, -31.125 ], [ 133.625, -31.125 ], [ 133.625, -31.875 ], [ 132.125, -31.875 ], [ 132.125, -32.125 ], [ 131.625, -32.125 ], [ 131.625, -31.875 ], [ 129.375, -31.875 ], [ 129.375, -32.125 ], [ 128.375, -32.125 ], [ 128.375, -32.375 ], [ 127.375, -32.375 ], [ 127.375, -32.625 ], [ 125.875, -32.625 ], [ 125.875, -32.875 ], [ 125.375, -32.875 ], [ 125.375, -32.625 ], [ 125.625, -32.625 ], [ 125.625, -32.375 ], [ 125.875, -32.375 ], [ 125.875, -32.125 ], [ 126.375, -32.125 ], [ 126.375, -31.875 ], [ 126.875, -31.875 ], [ 126.875, -31.625 ], [ 125.125, -31.625 ], [ 125.125, -31.875 ], [ 123.625, -31.875 ], [ 123.625, -31.625 ], [ 123.125, -31.625 ], [ 123.125, -31.375 ], [ 121.625, -31.375 ], [ 121.625, -30.875 ], [ 121.125, -30.875 ], [ 121.125, -30.625 ], [ 120.375, -30.625 ], [ 120.375, -30.375 ], [ 119.625, -30.375 ], [ 119.625, -30.125 ], [ 118.375, -30.125 ], [ 118.375, -30.375 ], [ 118.125, -30.375 ], [ 118.125, -30.625 ], [ 117.875, -30.625 ], [ 117.875, -30.875 ], [ 116.375, -30.875 ], [ 116.375, -30.625 ], [ 115.625, -30.625 ], [ 115.625, -30.375 ], [ 115.375, -30.375 ], [ 115.375, -30.625 ], [ 115.125, -30.625 ], [ 115.125, -30.875 ], [ 114.875, -30.875 ], [ 114.875, -30.625 ], [ 114.625, -30.625 ], [ 114.625, -29.125 ], [ 114.375, -29.125 ], [ 114.375, -28.625 ], [ 114.125, -28.625 ], [ 114.125, -28.125 ], [ 113.875, -28.125 ], [ 113.875, -27.875 ], [ 113.625, -27.875 ], [ 113.625, -27.125 ], [ 113.375, -27.125 ], [ 113.375, -26.375 ], [ 113.625, -26.375 ], [ 113.625, -26.125 ], [ 113.875, -26.125 ], [ 113.875, -25.875 ], [ 113.625, -25.875 ], [ 113.625, -25.375 ], [ 113.375, -25.375 ], [ 113.375, -24.875 ], [ 113.125, -24.875 ], [ 113.125, -23.625 ], [ 113.375, -23.625 ], [ 113.375, -22.375 ], [ 113.625, -22.375 ], [ 113.625, -22.125 ], [ 113.875, -22.125 ], [ 113.875, -21.875 ], [ 114.375, -21.875 ], [ 114.375, -21.625 ], [ 114.625, -21.625 ], [ 114.625, -21.375 ], [ 115.125, -21.375 ], [ 115.125, -21.125 ], [ 115.625, -21.125 ], [ 115.625, -20.875 ], [ 115.875, -20.875 ], [ 115.875, -20.625 ], [ 116.375, -20.625 ] ] ] ] } },
{ "type": "Feature", "properties": { "cluster_id": 8, "cohesion": 12.627979004786473, "distances": { "1": 24.0913532330572, "2": 34.18929292987654, "3": 29.167557184076816, "4": 29.559059044996747, "5": 29.144194007668826, "6": 27.94336730294093, "7": 29.241044206474374, "9": 25.379265151929555, "10": 21.752092468121035, "11": 26.887021106682756 } }, "geometry": { "type": "Polygon", "coordinates": [ [ [ 145.125, -18.375 ], [ 145.125, -19.125 ], [ 145.375, -19.125 ], [ 145.375, -19.375 ], [ 145.625, -19.375 ], [ 145.625, -19.625 ], [ 145.875, -19.625 ], [ 145.875, -19.875 ], [ 144.125, -19.875 ], [ 144.125, -19.625 ], [ 143.625, -19.625 ], [ 143.625, -20.375 ], [ 143.875, -20.375 ], [ 143.875, -20.625 ], [ 144.125, -20.625 ], [ 144.125, -20.875 ], [ 144.375, -20.875 ], [ 144.375, -21.375 ], [ 143.875, -21.375 ], [ 143.875, -21.625 ], [ 143.625, -21.625 ], [ 143.625, -22.375 ], [ 143.375, -22.375 ], [ 143.375, -22.875 ], [ 143.125, -22.875 ], [ 143.125, -23.125 ], [ 142.875, -23.125 ], [ 142.875, -23.375 ], [ 143.125, -23.375 ], [ 143.125, -23.625 ], [ 143.375, -23.625 ], [ 143.375, -23.875 ], [ 143.625, -23.875 ], [ 143.625, -24.125 ], [ 143.875, -24.125 ], [ 143.875, -24.625 ], [ 144.125, -24.625 ], [ 144.125, -25.125 ], [ 146.125, -25.125 ], [ 146.125, -25.375 ], [ 146.375, -25.375 ], [ 146.375, -25.125 ], [ 148.125, -25.125 ], [ 148.125, -25.375 ], [ 148.375, -25.375 ], [ 148.375, -25.625 ], [ 149.125, -25.625 ], [ 149.125, -25.875 ], [ 148.875, -25.875 ], [ 148.875, -26.125 ], [ 149.125, -26.125 ], [ 149.125, -26.375 ], [ 151.125, -26.375 ], [ 151.125, -26.625 ], [ 151.875, -26.625 ], [ 151.875, -26.375 ], [ 152.875, -26.375 ], [ 152.875, -26.625 ], [ 153.125, -26.625 ], [ 153.125, -28.125 ], [ 153.375, -28.125 ], [ 153.375, -27.625 ], [ 153.625, -27.625 ], [ 153.625, -26.375 ], [ 153.375, -26.375 ], [ 153.375, -26.125 ], [ 153.625, -26.125 ], [ 153.625, -25.875 ], [ 153.375, -25.875 ], [ 153.375, -25.375 ], [ 153.125, -25.375 ], [ 153.125, -25.125 ], [ 152.875, -25.125 ], [ 152.875, -24.875 ], [ 152.625, -24.875 ], [ 152.625, -24.625 ], [ 152.375, -24.625 ], [ 152.375, -24.125 ], [ 152.125, -24.125 ], [ 152.125, -23.875 ], [ 151.875, -23.875 ], [ 151.875, -23.625 ], [ 151.375, -23.625 ], [ 151.375, -23.375 ], [ 151.125, -23.375 ], [ 151.125, -22.625 ], [ 150.875, -22.625 ], [ 150.875, -22.375 ], [ 150.625, -22.375 ], [ 150.625, -22.125 ], [ 149.875, -22.125 ], [ 149.875, -21.625 ], [ 149.625, -21.625 ], [ 149.625, -21.125 ], [ 149.375, -21.125 ], [ 149.375, -20.875 ], [ 148.875, -20.875 ], [ 148.875, -20.625 ], [ 148.625, -20.625 ], [ 148.625, -20.375 ], [ 148.375, -20.375 ], [ 148.375, -20.625 ], [ 148.125, -20.625 ], [ 148.125, -20.375 ], [ 147.625, -20.375 ], [ 147.625, -20.125 ], [ 147.375, -20.125 ], [ 147.375, -19.625 ], [ 147.125, -19.625 ], [ 147.125, -19.375 ], [ 146.875, -19.375 ], [ 146.875, -19.125 ], [ 146.125, -19.125 ], [ 146.125, -18.875 ], [ 145.875, -18.875 ], [ 145.875, -18.625 ], [ 145.375, -18.625 ], [ 145.375, -18.375 ], [ 145.125, -18.375 ] ] ] } },
{ "type": "Feature", "properties": { "cluster_id": 9, "cohesion": 15.613889171739389, "distances": { "1": 27.5641896730181, "2": 32.66637848836573, "3": 28.68521675288709, "4": 22.154980482355022, "5": 28.105084296032484, "6": 30.46365003492956, "7": 32.94914780168883, "8": 25.37926515192954, "10": 27.258692528022063, "11": 28.008248476369005 } }, "geometry": { "type": "MultiPolygon", "coordinates": [ [ [ [ 145.125, -40.375 ], [ 145.125, -40.625 ], [ 146.125, -40.625 ], [ 146.125, -40.875 ], [ 146.625, -40.875 ], [ 146.625, -40.625 ], [ 147.875, -40.625 ], [ 147.875, -40.375 ], [ 148.125, -40.375 ], [ 148.125, -40.625 ], [ 148.375, -40.625 ], [ 148.375, -40.875 ], [ 148.625, -40.875 ], [ 148.625, -42.125 ], [ 148.375, -42.125 ], [ 148.375, -42.625 ], [ 148.125, -42.625 ], [ 148.125, -42.875 ], [ 147.875, -42.875 ], [ 147.875, -43.125 ], [ 147.375, -43.125 ], [ 147.375, -43.375 ], [ 147.125, -43.375 ], [ 147.125, -43.625 ], [ 145.875, -43.625 ], [ 145.875, -43.375 ], [ 145.625, -43.375 ], [ 145.625, -43.125 ], [ 145.375, -43.125 ], [ 145.375, -42.875 ], [ 145.125, -42.875 ], [ 145.125, -42.625 ], [ 144.875, -42.625 ], [ 144.875, -42.375 ], [ 145.125, -42.375 ], [ 145.125, -42.125 ], [ 144.875, -42.125 ], [ 144.875, -41.875 ], [ 144.625, -41.875 ], [ 144.625, -41.375 ], [ 144.375, -41.375 ], [ 144.375, -40.875 ], [ 144.625, -40.875 ], [ 144.625, -40.625 ], [ 144.875, -40.625 ], [ 144.875, -40.375 ], [ 145.125, -40.375 ] ] ], [ [ [ 152.875, -26.375 ], [ 152.875, -26.625 ], [ 153.125, -26.625 ], [ 153.125, -28.125 ], [ 153.375, -28.125 ], [ 153.375, -27.625 ], [ 153.875, -27.625 ], [ 153.875, -29.125 ], [ 153.625, -29.125 ], [ 153.625, -30.125 ], [ 153.375, -30.125 ], [ 153.375, -31.375 ], [ 153.125, -31.375 ], [ 153.125, -31.875 ], [ 152.875, -31.875 ], [ 152.875, -32.375 ], [ 152.625, -32.375 ], [ 152.625, -32.625 ], [ 152.375, -32.625 ], [ 152.375, -32.875 ], [ 152.125, -32.875 ], [ 152.125, -33.125 ], [ 151.875, -33.125 ], [ 151.875, -33.375 ], [ 151.625, -33.375 ], [ 151.625, -34.125 ], [ 151.375, -34.125 ], [ 151.375, -34.375 ], [ 151.125, -34.375 ], [ 151.125, -35.125 ], [ 150.875, -35.125 ], [ 150.875, -35.375 ], [ 150.625, -35.375 ], [ 150.625, -36.375 ], [ 150.375, -36.375 ], [ 150.375, -37.375 ], [ 150.125, -37.375 ], [ 150.125, -37.625 ], [ 149.875, -37.625 ], [ 149.875, -37.875 ], [ 149.625, -37.875 ], [ 149.625, -38.125 ], [ 148.125, -38.125 ], [ 148.125, -38.375 ], [ 147.375, -38.375 ], [ 147.375, -38.625 ], [ 147.125, -38.625 ], [ 147.125, -38.875 ], [ 146.625, -38.875 ], [ 146.625, -39.125 ], [ 145.875, -39.125 ], [ 145.875, -38.875 ], [ 145.375, -38.875 ], [ 145.375, -38.625 ], [ 145.125, -38.625 ], [ 145.125, -38.375 ], [ 144.375, -38.375 ], [ 144.375, -38.625 ], [ 144.125, -38.625 ], [ 144.125, -38.875 ], [ 143.875, -38.875 ], [ 143.875, -39.125 ], [ 143.125, -39.125 ], [ 143.125, -38.875 ], [ 142.625, -38.875 ], [ 142.625, -38.625 ], [ 141.125, -38.625 ], [ 141.125, -38.375 ], [ 140.625, -38.375 ], [ 140.625, -38.125 ], [ 141.625, -38.125 ], [ 141.625, -37.875 ], [ 142.125, -37.875 ], [ 142.125, -37.625 ], [ 144.125, -37.625 ], [ 144.125, -37.375 ], [ 144.875, -37.375 ], [ 144.875, -37.625 ], [ 146.125, -37.625 ], [ 146.125, -37.375 ], [ 146.375, -37.375 ], [ 146.375, -37.125 ], [ 146.875, -37.125 ], [ 146.875, -36.875 ], [ 147.625, -36.875 ], [ 147.625, -36.625 ], [ 148.125, -36.625 ], [ 148.125, -36.375 ], [ 148.375, -36.375 ], [ 148.375, -35.375 ], [ 148.125, -35.375 ], [ 148.125, -35.125 ], [ 147.875, -35.125 ], [ 147.875, -34.875 ], [ 148.625, -34.875 ], [ 148.625, -34.625 ], [ 148.875, -34.625 ], [ 148.875, -34.375 ], [ 149.125, -34.375 ], [ 149.125, -33.375 ], [ 148.875, -33.375 ], [ 148.875, -33.125 ], [ 149.375, -33.125 ], [ 149.375, -32.875 ], [ 149.625, -32.875 ], [ 149.625, -32.375 ], [ 149.875, -32.375 ], [ 149.875, -31.875 ], [ 150.625, -31.875 ], [ 150.625, -31.625 ], [ 150.875, -31.625 ], [ 150.875, -31.375 ], [ 151.375, -31.375 ], [ 151.375, -30.625 ], [ 151.625, -30.625 ], [ 151.625, -30.125 ], [ 151.375, -30.125 ], [ 151.375, -29.875 ], [ 151.625, -29.875 ], [ 151.625, -29.375 ], [ 151.875, -29.375 ], [ 151.875, -26.875 ], [ 151.625, -26.875 ], [ 151.625, -26.625 ], [ 151.875, -26.625 ], [ 151.875, -26.375 ], [ 152.875, -26.375 ] ], [ [ 148.875, -36.625 ], [ 149.125, -36.625 ], [ 149.125, -36.375 ], [ 148.875, -36.375 ], [ 148.875, -36.625 ] ] ] ] } },
{ "type": "Feature", "properties": { "cluster_id": 10, "cohesion": 14.938403521176696, "distances": { "1": 35.05662265868758, "2": 42.46349514265689, "3": 34.28686897408874, "4": 28.803117267106675, "5": 22.981572415371947, "6": 32.35204799152286, "7": 26.950599449593568, "8": 21.752092468121038, "9": 27.258692528022067, "11": 24.720212553138413 } }, "geometry": { "type": "MultiPolygon", "coordinates": [ [ [ [ 135.875, -23.375 ], [ 135.875, -23.625 ], [ 136.375, -23.625 ], [ 136.375, -23.875 ], [ 136.625, -23.875 ], [ 136.625, -24.125 ], [ 137.125, -24.125 ], [ 137.125, -24.375 ], [ 137.375, -24.375 ], [ 137.375, -24.625 ], [ 137.875, -24.625 ], [ 137.875, -24.875 ], [ 138.625, -24.875 ], [ 138.625, -25.125 ], [ 138.875, -25.125 ], [ 138.875, -25.375 ], [ 139.625, -25.375 ], [ 139.625, -25.875 ], [ 140.125, -25.875 ], [ 140.125, -25.625 ], [ 140.375, -25.625 ], [ 140.375, -25.375 ], [ 140.125, -25.375 ], [ 140.125, -25.125 ], [ 139.875, -25.125 ], [ 139.875, -24.625 ], [ 140.625, -24.625 ], [ 140.625, -24.875 ], [ 140.875, -24.875 ], [ 140.875, -25.125 ], [ 141.375, -25.125 ], [ 141.375, -25.375 ], [ 141.625, -25.375 ], [ 141.625, -25.625 ], [ 141.875, -25.625 ], [ 141.875, -25.375 ], [ 142.125, -25.375 ], [ 142.125, -25.625 ], [ 142.375, -25.625 ], [ 142.375, -26.125 ], [ 142.625, -26.125 ], [ 142.625, -26.375 ], [ 143.125, -26.375 ], [ 143.125, -26.125 ], [ 143.625, -26.125 ], [ 143.625, -26.375 ], [ 143.875, -26.375 ], [ 143.875, -26.625 ], [ 144.375, -26.625 ], [ 144.375, -26.875 ], [ 144.875, -26.875 ], [ 144.875, -26.625 ], [ 145.125, -26.625 ], [ 145.125, -25.875 ], [ 145.625, -25.875 ], [ 145.625, -25.625 ], [ 145.875, -25.625 ], [ 145.875, -25.375 ], [ 146.375, -25.375 ], [ 146.375, -25.125 ], [ 148.125, -25.125 ], [ 148.125, -25.375 ], [ 148.375, -25.375 ], [ 148.375, -25.625 ], [ 149.125, -25.625 ], [ 149.125, -25.875 ], [ 148.875, -25.875 ], [ 148.875, -26.125 ], [ 149.125, -26.125 ], [ 149.125, -26.375 ], [ 151.125, -26.375 ], [ 151.125, -26.625 ], [ 151.625, -26.625 ], [ 151.625, -26.875 ], [ 151.875, -26.875 ], [ 151.875, -29.375 ], [ 151.625, -29.375 ], [ 151.625, -29.875 ], [ 151.375, -29.875 ], [ 151.375, -30.125 ], [ 151.625, -30.125 ], [ 151.625, -30.625 ], [ 151.375, -30.625 ], [ 151.375, -31.375 ], [ 150.875, -31.375 ], [ 150.875, -31.625 ], [ 150.625, -31.625 ], [ 150.625, -31.875 ], [ 149.875, -31.875 ], [ 149.875, -32.375 ], [ 149.625, -32.375 ], [ 149.625, -32.875 ], [ 149.375, -32.875 ], [ 149.375, -33.125 ], [ 148.625, -33.125 ], [ 148.625, -32.875 ], [ 148.375, -32.875 ], [ 148.375, -31.625 ], [ 148.625, -31.625 ], [ 148.625, -31.375 ], [ 148.125, -31.375 ], [ 148.125, -30.875 ], [ 147.875, -30.875 ], [ 147.875, -30.375 ], [ 147.625, -30.375 ], [ 147.625, -29.875 ], [ 147.125, -29.875 ], [ 147.125, -29.625 ], [ 146.875, -29.625 ], [ 146.875, -29.375 ], [ 146.625, -29.375 ], [ 146.625, -29.125 ], [ 145.125, -29.125 ], [ 145.125, -28.875 ], [ 144.875, -28.875 ], [ 144.875, -28.375 ], [ 144.375, -28.375 ], [ 144.375, -28.625 ], [ 143.625, -28.625 ], [ 143.625, -28.875 ], [ 143.375, -28.875 ], [ 143.375, -28.625 ], [ 143.125, -28.625 ], [ 143.125, -28.125 ], [ 142.625, -28.125 ], [ 142.625, -28.375 ], [ 142.125, -28.375 ], [ 142.125, -28.625 ], [ 141.625, -28.625 ], [ 141.625, -28.375 ], [ 140.375, -28.375 ], [ 140.375, -27.625 ], [ 140.125, -27.625 ], [ 140.125, -27.375 ], [ 139.875, -27.375 ], [ 139.875, -27.125 ], [ 139.375, -27.125 ], [ 139.375, -27.375 ], [ 138.625, -27.375 ], [ 138.625, -27.125 ], [ 138.375, -27.125 ], [ 138.375, -27.375 ], [ 137.875, -27.375 ], [ 137.875, -27.125 ], [ 137.625, -27.125 ], [ 137.625, -26.875 ], [ 137.375, -26.875 ], [ 137.375, -26.625 ], [ 137.125, -26.625 ], [ 137.125, -26.125 ], [ 136.875, -26.125 ], [ 136.875, -25.875 ], [ 136.625, -25.875 ], [ 136.625, -25.625 ], [ 136.125, -25.625 ], [ 136.125, -25.375 ], [ 135.875, -25.375 ], [ 135.875, -25.125 ], [ 135.625, -25.125 ], [ 135.625, -24.875 ], [ 134.625, -24.875 ], [ 134.625, -24.625 ], [ 134.375, -24.625 ], [ 134.375, -24.375 ], [ 134.125, -24.375 ], [ 134.125, -24.125 ], [ 134.375, -24.125 ], [ 134.375, -23.875 ], [ 134.625, -23.875 ], [ 134.625, -23.625 ], [ 134.375, -23.625 ], [ 134.375, -23.375 ], [ 135.875, -23.375 ] ] ], [ [ [ 133.875, -23.625 ], [ 133.875, -23.875 ], [ 133.625, -23.875 ], [ 133.625, -23.625 ], [ 133.875, -23.625 ] ] ] ] } },
{ "type": "Feature", "properties": { "cluster_id": 11, "cohesion": 18.203290128803403, "distances": { "1": 33.10294201634304, "2": 34.26357417137338, "3": 25.410730726889945, "4": 32.88970647133334, "5": 30.518338790369683, "6": 32.5488804745093, "7": 28.92972892682103, "8": 26.887021106682752, "9": 28.008248476368983, "10": 24.720212553138424 } }, "geometry": { "type": "MultiPolygon", "coordinates": [ [ [ [ 120.375, -19.875 ], [ 119.625, -19.875 ], [ 119.625, -20.125 ], [ 119.125, -20.125 ], [ 119.125, -20.375 ], [ 118.625, -20.375 ], [ 118.625, -21.375 ], [ 119.125, -21.375 ], [ 119.125, -21.125 ], [ 119.625, -21.125 ], [ 119.625, -21.375 ], [ 120.375, -21.375 ], [ 120.375, -21.125 ], [ 120.625, -21.125 ], [ 120.625, -20.875 ], [ 121.125, -20.875 ], [ 121.125, -20.625 ], [ 122.375, -20.625 ], [ 122.375, -20.875 ], [ 122.625, -20.875 ], [ 122.625, -21.125 ], [ 123.125, -21.125 ], [ 123.125, -21.375 ], [ 124.125, -21.375 ], [ 124.125, -21.125 ], [ 125.375, -21.125 ], [ 125.375, -21.375 ], [ 126.375, -21.375 ], [ 126.375, -21.625 ], [ 126.875, -21.625 ], [ 126.875, -21.375 ], [ 127.625, -21.375 ], [ 127.625, -21.625 ], [ 127.875, -21.625 ], [ 127.875, -21.375 ], [ 128.125, -21.375 ], [ 128.125, -21.125 ], [ 128.375, -21.125 ], [ 128.375, -20.875 ], [ 128.875, -20.875 ], [ 128.875, -21.625 ], [ 129.875, -21.625 ], [ 129.875, -21.875 ], [ 130.125, -21.875 ], [ 130.125, -22.125 ], [ 130.875, -22.125 ], [ 130.875, -22.375 ], [ 131.625, -22.375 ], [ 131.625, -22.125 ], [ 132.875, -22.125 ], [ 132.875, -21.875 ], [ 136.125, -21.875 ], [ 136.125, -22.125 ], [ 136.625, -22.125 ], [ 136.625, -21.875 ], [ 137.625, -21.875 ], [ 137.625, -22.125 ], [ 138.125, -22.125 ], [ 138.125, -22.375 ], [ 138.375, -22.375 ], [ 138.375, -22.625 ], [ 140.125, -22.625 ], [ 140.125, -22.375 ], [ 140.625, -22.375 ], [ 140.625, -22.625 ], [ 141.125, -22.625 ], [ 141.125, -22.375 ], [ 141.625, -22.375 ], [ 141.625, -22.625 ], [ 141.875, -22.625 ], [ 141.875, -23.125 ], [ 142.125, -23.125 ], [ 142.125, -23.375 ], [ 143.125, -23.375 ], [ 143.125, -23.625 ], [ 143.375, -23.625 ], [ 143.375, -23.875 ], [ 143.625, -23.875 ], [ 143.625, -24.125 ], [ 143.875, -24.125 ], [ 143.875, -24.625 ], [ 144.125, -24.625 ], [ 144.125, -25.125 ], [ 146.125, -25.125 ], [ 146.125, -25.375 ], [ 145.875, -25.375 ], [ 145.875, -25.625 ], [ 145.625, -25.625 ], [ 145.625, -25.875 ], [ 145.125, -25.875 ], [ 145.125, -26.625 ], [ 144.875, -26.625 ], [ 144.875, -26.875 ], [ 144.375, -26.875 ], [ 144.375, -26.625 ], [ 143.875, -26.625 ], [ 143.875, -26.375 ], [ 143.625, -26.375 ], [ 143.625, -26.125 ], [ 143.125, -26.125 ], [ 143.125, -26.375 ], [ 142.625, -26.375 ], [ 142.625, -26.125 ], [ 142.375, -26.125 ], [ 142.375, -25.625 ], [ 142.125, -25.625 ], [ 142.125, -25.375 ], [ 141.875, -25.375 ], [ 141.875, -25.625 ], [ 141.625, -25.625 ], [ 141.625, -25.375 ], [ 141.375, -25.375 ], [ 141.375, -25.125 ], [ 140.875, -25.125 ], [ 140.875, -24.875 ], [ 140.625, -24.875 ], [ 140.625, -24.625 ], [ 139.875, -24.625 ], [ 139.875, -25.125 ], [ 140.125, -25.125 ], [ 140.125, -25.375 ], [ 140.375, -25.375 ], [ 140.375, -25.625 ], [ 140.125, -25.625 ], [ 140.125, -25.875 ], [ 139.625, -25.875 ], [ 139.625, -25.375 ], [ 138.875, -25.375 ], [ 138.875, -25.125 ], [ 138.625, -25.125 ], [ 138.625, -24.875 ], [ 137.875, -24.875 ], [ 137.875, -24.625 ], [ 137.375, -24.625 ], [ 137.375, -24.375 ], [ 137.125, -24.375 ], [ 137.125, -24.125 ], [ 136.625, -24.125 ], [ 136.625, -23.875 ], [ 136.375, -23.875 ], [ 136.375, -23.625 ], [ 135.875, -23.625 ], [ 135.875, -23.375 ], [ 134.375, -23.375 ], [ 134.375, -23.625 ], [ 133.625, -23.625 ], [ 133.625, -23.875 ], [ 131.875, -23.875 ], [ 131.875, -24.125 ], [ 131.375, -24.125 ], [ 131.375, -23.875 ], [ 130.375, -23.875 ], [ 130.375, -24.125 ], [ 130.125, -24.125 ], [ 130.125, -24.625 ], [ 128.875, -24.625 ], [ 128.875, -24.375 ], [ 126.875, -24.375 ], [ 126.875, -24.625 ], [ 124.625, -24.625 ], [ 124.625, -24.375 ], [ 123.125, -24.375 ], [ 123.125, -23.875 ], [ 121.875, -23.875 ], [ 121.875, -23.625 ], [ 121.625, -23.625 ], [ 121.625, -23.375 ], [ 121.125, -23.375 ], [ 121.125, -23.625 ], [ 120.125, -23.625 ], [ 120.125, -23.125 ], [ 119.125, -23.125 ], [ 119.125, -24.125 ], [ 118.125, -24.125 ], [ 118.125, -23.875 ], [ 117.875, -23.875 ], [ 117.875, -23.625 ], [ 117.625, -23.625 ], [ 117.625, -23.375 ], [ 117.375, -23.375 ], [ 117.375, -22.875 ], [ 117.125, -22.875 ], [ 117.125, -22.625 ], [ 116.625, -22.625 ], [ 116.625, -22.375 ], [ 116.375, -22.375 ], [ 116.375, -22.125 ], [ 116.125, -22.125 ], [ 116.125, -21.125 ], [ 116.375, -21.125 ], [ 116.375, -20.375 ], [ 117.875, -20.375 ], [ 117.875, -20.125 ], [ 118.625, -20.125 ], [ 118.625, -19.875 ], [ 119.125, -19.875 ], [ 119.125, -19.625 ], [ 120.375, -19.625 ], [ 120.375, -19.875 ] ] ], [ [ [ 120.375, -19.375 ], [ 120.625, -19.375 ], [ 120.625, -19.625 ], [ 120.375, -19.625 ], [ 120.375, -19.375 ] ] ] ] } }
]
}
