{
"type": "FeatureCollection",
"name": "27_clusters",
"crs": { "type": "name", "properties": { "name": "urn:ogc:def:crs:OGC:1.3:CRS84" } },
"features": [
{ "type": "Feature", "properties": { "cluster_id": 1, "cohesion": 11.471786368065768, "distances": { "2": 25.688251932781313, "3": 22.477385465361973, "4": 31.090292202445458, "5": 29.33825759394485, "6": 28.8495186257641, "7": 22.94567417478827, "8": 33.57350844653656, "9": 36.38685763831376, "10": 38.50551450522546, "11": 40.031720607699846, "12": 25.43778275066345, "13": 33.148225647889326, "14": 39.96436960263783, "15": 37.53045082364647, "16": 40.05862931636651, "17": 41.00298595067577, "18": 33.62139148131837, "19": 39.12513232274221, "20": 24.0913532330572, "21": 29.01342187110479, "22": 26.406278960042993, "23": 37.45237689571014, "24": 33.45800907195823, "25": 32.953274733163646, "26": 30.880573824077015, "27": 35.15718899262282 } }, "geometry": { "type": "Polygon", "coordinates": [ [ [ 142.125, -10.625 ], [ 142.125, -10.875 ], [ 141.875, -10.875 ], [ 141.875, -11.125 ], [ 141.625, -11.125 ], [ 141.625, -12.125 ], [ 141.375, -12.125 ], [ 141.375, -12.875 ], [ 141.125, -12.875 ], [ 141.125, -15.125 ], [ 141.375, -15.125 ], [ 141.375, -15.625 ], [ 141.625, -15.625 ], [ 141.625, -16.125 ], [ 141.875, -16.125 ], [ 141.875, -17.625 ], [ 142.125, -17.625 ], [ 142.125, -18.375 ], [ 142.375, -18.375 ], [ 142.375, -18.875 ], [ 142.625, -18.875 ], [ 142.625, -19.625 ], [ 142.875, -19.625 ], [ 142.875, -19.875 ], [ 143.125, -19.875 ], [ 143.125, -20.125 ], [ 143.375, -20.125 ], [ 143.375, -20.625 ], [ 143.625, -20.625 ], [ 143.625, -21.375 ], [ 143.375, -21.375 ], [ 143.375, -21.625 ], [ 143.125, -21.625 ], [ 143.125, -22.125 ], [ 143.375, -22.125 ], [ 143.375, -22.375 ], [ 143.625, -22.375 ], [ 143.625, -21.625 ], [ 143.875, -21.625 ], [ 143.875, -21.375 ], [ 144.375, -21.375 ], [ 144.375, -20.875 ], [ 144.125, -20.875 ], [ 144.125, -20.625 ], [ 143.875, -20.625 ], [ 143.875, -20.375 ], [ 143.625, -20.375 ], [ 143.625, -19.625 ], [ 144.125, -19.625 ], [ 144.125, -19.875 ], [ 145.875, -19.875 ], [ 145.875, -19.625 ], [ 145.625, -19.625 ], [ 145.625, -19.375 ], [ 145.375, -19.375 ], [ 145.375, -19.125 ], [ 145.125, -19.125 ], [ 145.125, -18.375 ], [ 145.375, -18.375 ], [ 145.375, -18.625 ], [ 145.875, -18.625 ], [ 145.875, -18.875 ], [ 146.125, -18.875 ], [ 146.125, -19.125 ], [ 146.875, -19.125 ], [ 146.875, -19.375 ], [ 147.125, -19.375 ], [ 147.125, -19.625 ], [ 147.375, -19.625 ], [ 147.375, -20.125 ], [ 147.625, -20.125 ], [ 147.625, -20.375 ], [ 148.125, -20.375 ], [ 148.125, -20.625 ], [ 148.375, -20.625 ], [ 148.375, -20.375 ], [ 148.625, -20.375 ], [ 148.625, -20.625 ], [ 148.875, -20.625 ], [ 148.875, -20.875 ], [ 149.125, -20.875 ], [ 149.125, -20.375 ], [ 148.875, -20.375 ], [ 148.875, -20.125 ], [ 148.625, -20.125 ], [ 148.625, -19.875 ], [ 148.375, -19.875 ], [ 148.375, -19.625 ], [ 147.875, -19.625 ], [ 147.875, -19.375 ], [ 147.625, -19.375 ], [ 147.625, -19.125 ], [ 147.375, -19.125 ], [ 147.375, -18.875 ], [ 146.625, -18.875 ], [ 146.625, -18.125 ], [ 146.375, -18.125 ], [ 146.375, -17.875 ], [ 146.625, -17.875 ], [ 146.625, -17.375 ], [ 146.375, -17.375 ], [ 146.375, -17.125 ], [ 146.125, -17.125 ], [ 146.125, -16.875 ], [ 145.875, -16.875 ], [ 145.875, -16.125 ], [ 145.625, -16.125 ], [ 145.625, -14.875 ], [ 145.375, -14.875 ], [ 145.375, -14.625 ], [ 145.125, -14.625 ], [ 145.125, -14.375 ], [ 144.875, -14.375 ], [ 144.875, -14.125 ], [ 144.625, -14.125 ], [ 144.625, -13.875 ], [ 143.875, -13.875 ], [ 143.875, -12.875 ], [ 143.625, -12.875 ], [ 143.625, -12.375 ], [ 143.375, -12.375 ], [ 143.375, -11.875 ], [ 143.125, -11.875 ], [ 143.125, -11.125 ], [ 142.875, -11.125 ], [ 142.875, -10.875 ], [ 142.625, -10.875 ], [ 142.625, -10.625 ], [ 142.125, -10.625 ] ] ] } },
{ "type": "Feature", "properties": { "cluster_id": 2, "cohesion": 10.822280141435474, "distances": { "1": 25.68825193278131, "3": 20.266846080556153, "4": 23.917104688820928, "5": 16.25162981550174, "6": 22.989346229693076, "7": 19.650061674544492, "8": 44.04679558453689, "9": 49.313713666338444, "10": 46.11637933845635, "11": 49.69114862631803, "12": 34.06541761402389, "13": 41.343670503232765, "14": 48.890581008321746, "15": 49.19466070811671, "16": 47.59643871538974, "17": 51.022951071196836, "18": 42.545109156271344, "19": 45.4586975553285, "20": 34.18929292987654, "21": 32.2279189102471, "22": 33.016699881569906, "23": 43.919486145510696, "24": 41.49195684238015, "25": 34.31907356935899, "26": 33.416845040334756, "27": 34.8926697832035 } }, "geometry": { "type": "Polygon", "coordinates": [ [ [ 133.125, -11.875 ], [ 133.125, -12.375 ], [ 132.625, -12.375 ], [ 132.625, -12.625 ], [ 132.125, -12.625 ], [ 132.125, -12.875 ], [ 131.125, -12.875 ], [ 131.125, -13.125 ], [ 130.625, -13.125 ], [ 130.625, -13.375 ], [ 130.375, -13.375 ], [ 130.375, -13.625 ], [ 130.125, -13.625 ], [ 130.125, -13.875 ], [ 129.875, -13.875 ], [ 129.875, -14.125 ], [ 129.625, -14.125 ], [ 129.625, -14.875 ], [ 128.625, -14.875 ], [ 128.625, -15.125 ], [ 128.375, -15.125 ], [ 128.375, -15.875 ], [ 128.875, -15.875 ], [ 128.875, -16.625 ], [ 128.625, -16.625 ], [ 128.625, -17.625 ], [ 128.375, -17.625 ], [ 128.375, -18.625 ], [ 128.625, -18.625 ], [ 128.625, -19.125 ], [ 130.125, -19.125 ], [ 130.125, -18.875 ], [ 130.875, -18.875 ], [ 130.875, -19.125 ], [ 132.875, -19.125 ], [ 132.875, -19.375 ], [ 134.875, -19.375 ], [ 134.875, -19.125 ], [ 135.875, -19.125 ], [ 135.875, -19.375 ], [ 137.125, -19.375 ], [ 137.125, -19.875 ], [ 137.625, -19.875 ], [ 137.625, -20.125 ], [ 138.125, -20.125 ], [ 138.125, -19.875 ], [ 138.375, -19.875 ], [ 138.375, -20.125 ], [ 138.625, -20.125 ], [ 138.625, -20.375 ], [ 138.875, -20.375 ], [ 138.875, -20.625 ], [ 139.125, -20.625 ], [ 139.125, -20.875 ], [ 140.375, -20.875 ], [ 140.375, -21.125 ], [ 141.375, -21.125 ], [ 141.375, -20.625 ], [ 141.625, -20.625 ], [ 141.625, -20.125 ], [ 142.875, -20.125 ], [ 142.875, -19.625 ], [ 142.625, -19.625 ], [ 142.625, -18.875 ], [ 142.375, -18.875 ], [ 142.375, -18.375 ], [ 142.125, -18.375 ], [ 142.125, -17.625 ], [ 141.875, -17.625 ], [ 141.875, -16.125 ], [ 141.625, -16.125 ], [ 141.625, -15.625 ], [ 141.375, -15.625 ], [ 141.375, -15.125 ], [ 141.125, -15.125 ], [ 141.125, -15.875 ], [ 140.875, -15.875 ], [ 140.875, -16.875 ], [ 140.625, -16.875 ], [ 140.625, -17.375 ], [ 139.625, -17.375 ], [ 139.625, -17.125 ], [ 139.375, -17.125 ], [ 139.375, -16.875 ], [ 139.125, -16.875 ], [ 139.125, -16.625 ], [ 138.875, -16.625 ], [ 138.875, -16.375 ], [ 138.125, -16.375 ], [ 138.125, -16.125 ], [ 137.875, -16.125 ], [ 137.875, -15.875 ], [ 137.375, -15.875 ], [ 137.375, -15.625 ], [ 136.625, -15.625 ], [ 136.625, -15.375 ], [ 136.375, -15.375 ], [ 136.375, -15.125 ], [ 135.375, -15.125 ], [ 135.375, -14.875 ], [ 134.625, -14.875 ], [ 134.625, -15.125 ], [ 134.375, -15.125 ], [ 134.375, -15.375 ], [ 134.125, -15.375 ], [ 134.125, -15.625 ], [ 133.875, -15.625 ], [ 133.875, -15.375 ], [ 132.875, -15.375 ], [ 132.875, -15.125 ], [ 132.625, -15.125 ], [ 132.625, -14.625 ], [ 132.875, -14.625 ], [ 132.875, -14.375 ], [ 133.125, -14.375 ], [ 133.125, -14.125 ], [ 133.375, -14.125 ], [ 133.375, -13.625 ], [ 133.625, -13.625 ], [ 133.625, -13.375 ], [ 133.875, -13.375 ], [ 133.875, -13.125 ], [ 134.375, -13.125 ], [ 134.375, -14.125 ], [ 134.875, -14.125 ], [ 134.875, -13.875 ], [ 135.125, -13.875 ], [ 135.125, -13.625 ], [ 135.375, -13.625 ], [ 135.375, -13.125 ], [ 135.625, -13.125 ], [ 135.625, -12.875 ], [ 135.875, -12.875 ], [ 135.875, -12.375 ], [ 135.625, -12.375 ], [ 135.625, -12.125 ], [ 133.875, -12.125 ], [ 133.875, -11.875 ], [ 133.125, -11.875 ] ] ] } },
{ "type": "Feature", "properties": { "cluster_id": 3, "cohesion": 11.264010193430238, "distances": { "1": 22.477385465361976, "2": 20.266846080556146, "4": 18.87916357434534, "5": 19.614659732384393, "6": 24.255064307185112, "7": 21.81344148813039, "8": 38.63891224394213, "9": 41.21997741439625, "10": 36.856262015448195, "11": 41.65594064489605, "12": 29.34012820504651, "13": 34.12051069058597, "14": 40.024522800148176, "15": 39.661403769706894, "16": 37.63912995484114, "17": 41.18361676561109, "18": 34.24295352056059, "19": 37.33424308342413, "20": 23.262121570761302, "21": 26.984783743424092, "22": 30.545731054653864, "23": 32.7027241990205, "24": 31.132751115924222, "25": 23.343181128789244, "26": 29.366347432792406, "27": 28.85440343729342 } }, "geometry": { "type": "Polygon", "coordinates": [ [ [ 142.875, -19.875 ], [ 142.875, -20.125 ], [ 141.625, -20.125 ], [ 141.625, -20.625 ], [ 141.375, -20.625 ], [ 141.375, -21.125 ], [ 140.375, -21.125 ], [ 140.375, -20.875 ], [ 139.125, -20.875 ], [ 139.125, -20.625 ], [ 138.875, -20.625 ], [ 138.875, -20.375 ], [ 138.375, -20.375 ], [ 138.375, -20.625 ], [ 138.625, -20.625 ], [ 138.625, -21.375 ], [ 138.875, -21.375 ], [ 138.875, -21.875 ], [ 140.125, -21.875 ], [ 140.125, -22.125 ], [ 140.375, -22.125 ], [ 140.375, -22.375 ], [ 140.625, -22.375 ], [ 140.625, -22.625 ], [ 141.125, -22.625 ], [ 141.125, -22.375 ], [ 141.625, -22.375 ], [ 141.625, -22.625 ], [ 141.875, -22.625 ], [ 141.875, -23.125 ], [ 142.125, -23.125 ], [ 142.125, -23.375 ], [ 142.875, -23.375 ], [ 142.875, -23.125 ], [ 143.125, -23.125 ], [ 143.125, -22.875 ], [ 143.375, -22.875 ], [ 143.375, -22.125 ], [ 143.125, -22.125 ], [ 143.125, -21.625 ], [ 143.375, -21.625 ], [ 143.375, -21.375 ], [ 143.625, -21.375 ], [ 143.625, -20.625 ], [ 143.375, -20.625 ], [ 143.375, -20.125 ], [ 143.125, -20.125 ], [ 143.125, -19.875 ], [ 142.875, -19.875 ] ] ] } },
{ "type": "Feature", "properties": { "cluster_id": 4, "cohesion": 9.7282918018884281, "distances": { "1": 31.090292202445454, "2": 23.917104688820924, "3": 18.87916357434534, "5": 15.963660258100024, "6": 19.38682150259148, "7": 23.350628230295342, "8": 39.87166228003328, "9": 42.95213085784355, "10": 35.558161538921915, "11": 40.396667125933924, "12": 33.88549344450622, "13": 36.86182570268181, "14": 40.9027279557799, "15": 41.80969067471327, "16": 34.07081060563431, "17": 40.74748699358658, "18": 34.60185668968383, "19": 35.10825921013871, "20": 29.713711532034086, "21": 27.787720423841915, "22": 32.308478726141395, "23": 29.163556330668023, "24": 32.69973221935732, "25": 18.38886113233353, "26": 26.19922975472816, "27": 20.635705949279508 } }, "geometry": { "type": "Polygon", "coordinates": [ [ [ 129.875, -19.625 ], [ 129.875, -19.875 ], [ 128.875, -19.875 ], [ 128.875, -20.125 ], [ 128.125, -20.125 ], [ 128.125, -20.375 ], [ 128.625, -20.375 ], [ 128.625, -20.875 ], [ 128.875, -20.875 ], [ 128.875, -21.625 ], [ 129.875, -21.625 ], [ 129.875, -21.875 ], [ 130.125, -21.875 ], [ 130.125, -22.125 ], [ 130.875, -22.125 ], [ 130.875, -22.375 ], [ 131.625, -22.375 ], [ 131.625, -22.125 ], [ 132.875, -22.125 ], [ 132.875, -21.875 ], [ 136.125, -21.875 ], [ 136.125, -22.125 ], [ 136.625, -22.125 ], [ 136.625, -21.875 ], [ 137.625, -21.875 ], [ 137.625, -22.125 ], [ 138.125, -22.125 ], [ 138.125, -22.375 ], [ 138.375, -22.375 ], [ 138.375, -22.625 ], [ 140.125, -22.625 ], [ 140.125, -22.375 ], [ 140.375, -22.375 ], [ 140.375, -22.125 ], [ 140.125, -22.125 ], [ 140.125, -21.875 ], [ 138.875, -21.875 ], [ 138.875, -21.375 ], [ 138.625, -21.375 ], [ 138.625, -21.125 ], [ 137.625, -21.125 ], [ 137.625, -20.875 ], [ 136.125, -20.875 ], [ 136.125, -21.125 ], [ 134.875, -21.125 ], [ 134.875, -21.375 ], [ 133.625, -21.375 ], [ 133.625, -21.125 ], [ 132.125, -21.125 ], [ 132.125, -21.625 ], [ 131.375, -21.625 ], [ 131.375, -21.375 ], [ 131.125, -21.375 ], [ 131.125, -20.625 ], [ 130.875, -20.625 ], [ 130.875, -20.375 ], [ 130.625, -20.375 ], [ 130.625, -20.125 ], [ 130.375, -20.125 ], [ 130.375, -19.625 ], [ 129.875, -19.625 ] ] ] } },
{ "type": "Feature", "properties": { "cluster_id": 5, "cohesion": 11.901802474919235, "distances": { "1": 29.338257593944853, "2": 16.251629815501733, "3": 19.614659732384393, "4": 15.96366025810002, "6": 17.820427144186908, "7": 20.058256397543946, "8": 42.47461835996438, "9": 47.0301344778364, "10": 41.82024483418199, "11": 45.859766384148095, "12": 34.685906034027056, "13": 39.940439840879485, "14": 45.780611323265916, "15": 46.62739609537111, "16": 41.95355953106311, "17": 46.953667709486005, "18": 39.11705449781439, "19": 40.722326750586326, "20": 32.981728194832506, "21": 30.27186394890188, "22": 32.781147858713126, "23": 37.97075354165532, "24": 38.20800170544207, "25": 27.58206850111569, "26": 28.8313358965752, "27": 27.5655586718953 } }, "geometry": { "type": "Polygon", "coordinates": [ [ [ 128.125, -15.375 ], [ 128.125, -15.625 ], [ 127.875, -15.625 ], [ 127.875, -16.125 ], [ 128.125, -16.125 ], [ 128.125, -16.375 ], [ 127.875, -16.375 ], [ 127.875, -16.625 ], [ 127.625, -16.625 ], [ 127.625, -16.125 ], [ 127.125, -16.125 ], [ 127.125, -16.375 ], [ 126.875, -16.375 ], [ 126.875, -16.625 ], [ 126.625, -16.625 ], [ 126.625, -16.875 ], [ 126.375, -16.875 ], [ 126.375, -17.125 ], [ 126.125, -17.125 ], [ 126.125, -17.625 ], [ 125.875, -17.625 ], [ 125.875, -17.875 ], [ 125.375, -17.875 ], [ 125.375, -17.625 ], [ 125.625, -17.625 ], [ 125.625, -16.625 ], [ 125.875, -16.625 ], [ 125.875, -16.125 ], [ 125.625, -16.125 ], [ 125.625, -15.875 ], [ 125.375, -15.875 ], [ 125.375, -16.125 ], [ 125.125, -16.125 ], [ 125.125, -16.375 ], [ 124.625, -16.375 ], [ 124.625, -16.875 ], [ 124.875, -16.875 ], [ 124.875, -17.375 ], [ 124.625, -17.375 ], [ 124.625, -18.125 ], [ 124.875, -18.125 ], [ 124.875, -18.375 ], [ 125.625, -18.375 ], [ 125.625, -19.125 ], [ 125.875, -19.125 ], [ 125.875, -19.625 ], [ 127.125, -19.625 ], [ 127.125, -19.375 ], [ 127.375, -19.375 ], [ 127.375, -19.125 ], [ 127.625, -19.125 ], [ 127.625, -18.875 ], [ 128.125, -18.875 ], [ 128.125, -19.375 ], [ 128.375, -19.375 ], [ 128.375, -19.625 ], [ 129.125, -19.625 ], [ 129.125, -19.875 ], [ 129.875, -19.875 ], [ 129.875, -19.625 ], [ 130.375, -19.625 ], [ 130.375, -20.125 ], [ 130.625, -20.125 ], [ 130.625, -20.375 ], [ 130.875, -20.375 ], [ 130.875, -20.625 ], [ 131.125, -20.625 ], [ 131.125, -21.375 ], [ 131.375, -21.375 ], [ 131.375, -21.625 ], [ 132.125, -21.625 ], [ 132.125, -21.125 ], [ 133.625, -21.125 ], [ 133.625, -21.375 ], [ 134.875, -21.375 ], [ 134.875, -21.125 ], [ 136.125, -21.125 ], [ 136.125, -20.875 ], [ 137.625, -20.875 ], [ 137.625, -21.125 ], [ 138.625, -21.125 ], [ 138.625, -20.625 ], [ 138.375, -20.625 ], [ 138.375, -20.375 ], [ 138.625, -20.375 ], [ 138.625, -20.125 ], [ 138.375, -20.125 ], [ 138.375, -19.875 ], [ 138.125, -19.875 ], [ 138.125, -20.125 ], [ 137.625, -20.125 ], [ 137.625, -19.875 ], [ 137.125, -19.875 ], [ 137.125, -19.375 ], [ 135.875, -19.375 ], [ 135.875, -19.125 ], [ 134.875, -19.125 ], [ 134.875, -19.375 ], [ 132.875, -19.375 ], [ 132.875, -19.125 ], [ 130.875, -19.125 ], [ 130.875, -18.875 ], [ 130.125, -18.875 ], [ 130.125, -19.125 ], [ 128.625, -19.125 ], [ 128.625, -18.625 ], [ 128.375, -18.625 ], [ 128.375, -17.625 ], [ 128.625, -17.625 ], [ 128.625, -16.625 ], [ 128.875, -16.625 ], [ 128.875, -15.875 ], [ 128.375, -15.875 ], [ 128.375, -15.375 ], [ 128.125, -15.375 ] ] ] } },
{ "type": "Feature", "properties": { "cluster_id": 6, "cohesion": 9.8418411623220958, "distances": { "1": 28.84951862576411, "2": 22.989346229693076, "3": 24.255064307185112, "4": 19.38682150259148, "5": 17.820427144186908, "7": 18.682626319307087, "8": 35.14371631035836, "9": 39.6885699230454, "10": 35.94517047353937, "11": 38.44412375449269, "12": 32.553635506132736, "13": 37.19787097163814, "14": 40.870409986271135, "15": 41.52764230768313, "16": 36.023629835789265, "17": 40.88290960839886, "18": 30.951998065635564, "19": 33.322481378086245, "20": 30.102427926666163, "21": 26.26956325762438, "22": 27.588558806769992, "23": 34.18690740661263, "24": 33.486525100368, "25": 27.137029234914998, "26": 17.95427098915288, "27": 21.132024955125804 } }, "geometry": { "type": "Polygon", "coordinates": [ [ [ 124.375, -16.375 ], [ 124.375, -16.625 ], [ 123.875, -16.625 ], [ 123.875, -17.125 ], [ 123.625, -17.125 ], [ 123.625, -17.375 ], [ 123.375, -17.375 ], [ 123.375, -17.625 ], [ 123.125, -17.625 ], [ 123.125, -17.875 ], [ 122.625, -17.875 ], [ 122.625, -17.375 ], [ 122.875, -17.375 ], [ 122.875, -17.125 ], [ 123.125, -17.125 ], [ 123.125, -16.875 ], [ 122.625, -16.875 ], [ 122.625, -17.125 ], [ 122.375, -17.125 ], [ 122.375, -18.125 ], [ 121.875, -18.125 ], [ 121.875, -18.375 ], [ 121.625, -18.375 ], [ 121.625, -18.625 ], [ 121.375, -18.625 ], [ 121.375, -18.875 ], [ 121.125, -18.875 ], [ 121.125, -19.125 ], [ 120.875, -19.125 ], [ 120.875, -19.375 ], [ 120.625, -19.375 ], [ 120.625, -19.625 ], [ 120.375, -19.625 ], [ 120.375, -19.875 ], [ 119.625, -19.875 ], [ 119.625, -20.125 ], [ 119.125, -20.125 ], [ 119.125, -20.375 ], [ 118.625, -20.375 ], [ 118.625, -21.375 ], [ 119.125, -21.375 ], [ 119.125, -21.125 ], [ 119.625, -21.125 ], [ 119.625, -21.375 ], [ 120.375, -21.375 ], [ 120.375, -21.125 ], [ 120.625, -21.125 ], [ 120.625, -20.875 ], [ 121.125, -20.875 ], [ 121.125, -20.625 ], [ 122.375, -20.625 ], [ 122.375, -20.875 ], [ 122.625, -20.875 ], [ 122.625, -21.125 ], [ 123.125, -21.125 ], [ 123.125, -21.375 ], [ 124.125, -21.375 ], [ 124.125, -21.125 ], [ 125.375, -21.125 ], [ 125.375, -21.375 ], [ 126.375, -21.375 ], [ 126.375, -21.625 ], [ 126.875, -21.625 ], [ 126.875, -21.375 ], [ 127.625, -21.375 ], [ 127.625, -21.625 ], [ 127.875, -21.625 ], [ 127.875, -21.375 ], [ 128.125, -21.375 ], [ 128.125, -21.125 ], [ 128.375, -21.125 ], [ 128.375, -20.875 ], [ 128.625, -20.875 ], [ 128.625, -20.375 ], [ 128.125, -20.375 ], [ 128.125, -20.125 ], [ 128.875, -20.125 ], [ 128.875, -19.875 ], [ 129.125, -19.875 ], [ 129.125, -19.625 ], [ 128.375, -19.625 ], [ 128.375, -19.375 ], [ 128.125, -19.375 ], [ 128.125, -18.875 ], [ 127.625, -18.875 ], [ 127.625, -19.125 ], [ 127.375, -19.125 ], [ 127.375, -19.375 ], [ 127.125, -19.375 ], [ 127.125, -19.625 ], [ 125.875, -19.625 ], [ 125.875, -19.125 ], [ 125.625, -19.125 ], [ 125.625, -18.375 ], [ 124.875, -18.375 ], [ 124.875, -18.125 ], [ 124.625, -18.125 ], [ 124.625, -17.375 ], [ 124.875, -17.375 ], [ 124.875, -16.875 ], [ 124.625, -16.875 ], [ 124.625, -16.375 ], [ 124.375, -16.375 ] ] ] } },
{ "type": "Feature", "properties": { "cluster_id": 7, "cohesion": 12.995556370084538, "distances": { "1": 22.945674174788266, "2": 19.650061674544492, "3": 21.81344148813039, "4": 23.350628230295342, "5": 20.058256397543946, "6": 18.682626319307087, "8": 34.50442916192947, "9": 37.525896079476354, "10": 36.380624402457315, "11": 38.66107822725162, "12": 26.65662118181518, "13": 31.93942789409491, "14": 37.34532153293597, "15": 37.44469209439789, "16": 36.44003673311493, "17": 38.71826442678359, "18": 31.102087798950546, "19": 33.77328017911924, "20": 26.28846470207628, "21": 25.729802532272007, "22": 26.964416117590215, "23": 34.63306892713402, "24": 32.35632999443604, "25": 28.62714512329145, "26": 24.11227448871414, "27": 26.945578317587895 } }, "geometry": { "type": "Polygon", "coordinates": [ [ [ 130.375, -10.875 ], [ 130.375, -11.125 ], [ 130.125, -11.125 ], [ 130.125, -11.375 ], [ 129.875, -11.375 ], [ 129.875, -11.625 ], [ 130.125, -11.625 ], [ 130.125, -11.875 ], [ 130.375, -11.875 ], [ 130.375, -12.375 ], [ 130.125, -12.375 ], [ 130.125, -12.625 ], [ 129.875, -12.625 ], [ 129.875, -13.375 ], [ 129.625, -13.375 ], [ 129.625, -13.625 ], [ 129.375, -13.625 ], [ 129.375, -14.125 ], [ 129.125, -14.125 ], [ 129.125, -14.375 ], [ 129.375, -14.375 ], [ 129.375, -14.625 ], [ 128.375, -14.625 ], [ 128.375, -14.375 ], [ 128.125, -14.375 ], [ 128.125, -14.125 ], [ 127.875, -14.125 ], [ 127.875, -13.875 ], [ 127.625, -13.875 ], [ 127.625, -13.625 ], [ 126.625, -13.625 ], [ 126.625, -13.875 ], [ 126.125, -13.875 ], [ 126.125, -14.125 ], [ 125.375, -14.125 ], [ 125.375, -14.375 ], [ 125.125, -14.375 ], [ 125.125, -14.625 ], [ 124.875, -14.625 ], [ 124.875, -15.125 ], [ 124.625, -15.125 ], [ 124.625, -15.375 ], [ 124.375, -15.375 ], [ 124.375, -15.625 ], [ 124.125, -15.625 ], [ 124.125, -15.875 ], [ 123.625, -15.875 ], [ 123.625, -16.125 ], [ 123.375, -16.125 ], [ 123.375, -16.375 ], [ 122.625, -16.375 ], [ 122.625, -16.625 ], [ 122.375, -16.625 ], [ 122.375, -16.875 ], [ 122.125, -16.875 ], [ 122.125, -17.125 ], [ 121.875, -17.125 ], [ 121.875, -17.875 ], [ 122.125, -17.875 ], [ 122.125, -18.125 ], [ 122.375, -18.125 ], [ 122.375, -17.125 ], [ 122.625, -17.125 ], [ 122.625, -16.875 ], [ 123.125, -16.875 ], [ 123.125, -17.125 ], [ 122.875, -17.125 ], [ 122.875, -17.375 ], [ 122.625, -17.375 ], [ 122.625, -17.875 ], [ 123.125, -17.875 ], [ 123.125, -17.625 ], [ 123.375, -17.625 ], [ 123.375, -17.375 ], [ 123.625, -17.375 ], [ 123.625, -17.125 ], [ 123.875, -17.125 ], [ 123.875, -16.625 ], [ 124.375, -16.625 ], [ 124.375, -16.375 ], [ 125.125, -16.375 ], [ 125.125, -16.125 ], [ 125.375, -16.125 ], [ 125.375, -15.875 ], [ 125.625, -15.875 ], [ 125.625, -16.125 ], [ 125.875, -16.125 ], [ 125.875, -16.625 ], [ 125.625, -16.625 ], [ 125.625, -17.625 ], [ 125.375, -17.625 ], [ 125.375, -17.875 ], [ 125.875, -17.875 ], [ 125.875, -17.625 ], [ 126.125, -17.625 ], [ 126.125, -17.125 ], [ 126.375, -17.125 ], [ 126.375, -16.875 ], [ 126.625, -16.875 ], [ 126.625, -16.625 ], [ 126.875, -16.625 ], [ 126.875, -16.375 ], [ 127.125, -16.375 ], [ 127.125, -16.125 ], [ 127.625, -16.125 ], [ 127.625, -16.625 ], [ 127.875, -16.625 ], [ 127.875, -16.375 ], [ 128.125, -16.375 ], [ 128.125, -16.125 ], [ 127.875, -16.125 ], [ 127.875, -15.625 ], [ 128.125, -15.625 ], [ 128.125, -15.375 ], [ 128.375, -15.375 ], [ 128.375, -15.125 ], [ 128.625, -15.125 ], [ 128.625, -14.875 ], [ 129.625, -14.875 ], [ 129.625, -14.125 ], [ 129.875, -14.125 ], [ 129.875, -13.875 ], [ 130.125, -13.875 ], [ 130.125, -13.625 ], [ 130.375, -13.625 ], [ 130.375, -13.375 ], [ 130.625, -13.375 ], [ 130.625, -13.125 ], [ 131.125, -13.125 ], [ 131.125, -12.875 ], [ 132.125, -12.875 ], [ 132.125, -12.625 ], [ 132.625, -12.625 ], [ 132.625, -12.375 ], [ 133.125, -12.375 ], [ 133.125, -11.875 ], [ 133.875, -11.875 ], [ 133.875, -12.125 ], [ 135.625, -12.125 ], [ 135.625, -12.375 ], [ 135.875, -12.375 ], [ 135.875, -12.875 ], [ 135.625, -12.875 ], [ 135.625, -13.125 ], [ 135.375, -13.125 ], [ 135.375, -13.625 ], [ 135.125, -13.625 ], [ 135.125, -13.875 ], [ 134.875, -13.875 ], [ 134.875, -14.125 ], [ 134.375, -14.125 ], [ 134.375, -13.125 ], [ 133.875, -13.125 ], [ 133.875, -13.375 ], [ 133.625, -13.375 ], [ 133.625, -13.625 ], [ 133.375, -13.625 ], [ 133.375, -14.125 ], [ 133.125, -14.125 ], [ 133.125, -14.375 ], [ 132.875, -14.375 ], [ 132.875, -14.625 ], [ 132.625, -14.625 ], [ 132.625, -15.125 ], [ 132.875, -15.125 ], [ 132.875, -15.375 ], [ 133.875, -15.375 ], [ 133.875, -15.625 ], [ 134.125, -15.625 ], [ 134.125, -15.375 ], [ 134.375, -15.375 ], [ 134.375, -15.125 ], [ 134.625, -15.125 ], [ 134.625, -14.875 ], [ 135.375, -14.875 ], [ 135.375, -15.125 ], [ 136.125, -15.125 ], [ 136.125, -14.875 ], [ 135.875, -14.875 ], [ 135.875, -14.375 ], [ 136.125, -14.375 ], [ 136.125, -14.125 ], [ 136.375, -14.125 ], [ 136.375, -13.875 ], [ 136.125, -13.875 ], [ 136.125, -13.625 ], [ 136.375, -13.625 ], [ 136.375, -13.375 ], [ 136.625, -13.375 ], [ 136.625, -13.125 ], [ 136.875, -13.125 ], [ 136.875, -12.625 ], [ 137.125, -12.625 ], [ 137.125, -12.375 ], [ 136.875, -12.375 ], [ 136.875, -12.125 ], [ 136.625, -12.125 ], [ 136.625, -11.875 ], [ 135.625, -11.875 ], [ 135.625, -11.625 ], [ 135.375, -11.625 ], [ 135.375, -11.875 ], [ 134.875, -11.875 ], [ 134.875, -11.625 ], [ 133.875, -11.625 ], [ 133.875, -11.375 ], [ 133.125, -11.375 ], [ 133.125, -11.125 ], [ 132.625, -11.125 ], [ 132.625, -11.375 ], [ 132.375, -11.375 ], [ 132.375, -11.625 ], [ 132.125, -11.625 ], [ 132.125, -11.875 ], [ 131.625, -11.875 ], [ 131.625, -11.625 ], [ 131.875, -11.625 ], [ 131.875, -11.375 ], [ 131.625, -11.375 ], [ 131.625, -11.125 ], [ 131.375, -11.125 ], [ 131.375, -10.875 ], [ 131.125, -10.875 ], [ 131.125, -11.125 ], [ 130.625, -11.125 ], [ 130.625, -10.875 ], [ 130.375, -10.875 ] ], [ [ 130.625, -11.875 ], [ 130.875, -11.875 ], [ 130.875, -12.125 ], [ 130.625, -12.125 ], [ 130.625, -11.875 ] ] ] } },
{ "type": "Feature", "properties": { "cluster_id": 8, "cohesion": 10.942474926362591, "distances": { "1": 33.57350844653655, "2": 44.04679558453687, "3": 38.63891224394213, "4": 39.87166228003328, "5": 42.47461835996439, "6": 35.143716310358364, "7": 34.504429161929465, "9": 19.231267784627164, "10": 23.19514662780974, "11": 17.732470782304325, "12": 30.527106489616152, "13": 35.08698235516662, "14": 35.42323997930992, "15": 30.848692883134564, "16": 29.289145268148516, "17": 30.709952084997187, "18": 26.998668571156255, "19": 31.834909402675482, "20": 29.55905904499675, "21": 24.234954856882496, "22": 20.493118004997193, "23": 31.562588091995337, "24": 26.961806716683675, "25": 35.4595603988567, "26": 28.919014041120445, "27": 32.68753629594488 } }, "geometry": { "type": "MultiPolygon", "coordinates": [ [ [ [ 149.125, -36.375 ], [ 149.125, -36.625 ], [ 148.875, -36.625 ], [ 148.875, -36.375 ], [ 149.125, -36.375 ] ] ], [ [ [ 138.375, -32.375 ], [ 138.375, -32.875 ], [ 139.875, -32.875 ], [ 139.875, -33.375 ], [ 139.625, -33.375 ], [ 139.625, -34.875 ], [ 140.125, -34.875 ], [ 140.125, -35.125 ], [ 141.125, -35.125 ], [ 141.125, -34.875 ], [ 141.375, -34.875 ], [ 141.375, -35.125 ], [ 141.625, -35.125 ], [ 141.625, -34.625 ], [ 141.875, -34.625 ], [ 141.875, -35.125 ], [ 142.375, -35.125 ], [ 142.375, -34.125 ], [ 142.875, -34.125 ], [ 142.875, -34.875 ], [ 143.375, -34.875 ], [ 143.375, -35.125 ], [ 144.375, -35.125 ], [ 144.375, -35.375 ], [ 144.875, -35.375 ], [ 144.875, -35.625 ], [ 145.375, -35.625 ], [ 145.375, -35.875 ], [ 146.125, -35.875 ], [ 146.125, -36.375 ], [ 146.375, -36.375 ], [ 146.375, -36.125 ], [ 146.625, -36.125 ], [ 146.625, -35.875 ], [ 147.375, -35.875 ], [ 147.375, -35.625 ], [ 147.625, -35.625 ], [ 147.625, -35.375 ], [ 148.375, -35.375 ], [ 148.375, -36.375 ], [ 148.125, -36.375 ], [ 148.125, -36.625 ], [ 147.625, -36.625 ], [ 147.625, -36.875 ], [ 146.875, -36.875 ], [ 146.875, -37.125 ], [ 146.375, -37.125 ], [ 146.375, -37.375 ], [ 146.125, -37.375 ], [ 146.125, -37.625 ], [ 144.875, -37.625 ], [ 144.875, -37.375 ], [ 144.125, -37.375 ], [ 144.125, -37.625 ], [ 142.125, -37.625 ], [ 142.125, -37.875 ], [ 141.625, -37.875 ], [ 141.625, -38.125 ], [ 140.125, -38.125 ], [ 140.125, -37.875 ], [ 139.875, -37.875 ], [ 139.875, -37.625 ], [ 139.625, -37.625 ], [ 139.625, -37.375 ], [ 139.375, -37.375 ], [ 139.375, -36.125 ], [ 139.125, -36.125 ], [ 139.125, -35.875 ], [ 138.625, -35.875 ], [ 138.625, -35.625 ], [ 138.375, -35.625 ], [ 138.375, -35.375 ], [ 138.125, -35.375 ], [ 138.125, -34.625 ], [ 137.875, -34.625 ], [ 137.875, -34.875 ], [ 137.625, -34.875 ], [ 137.625, -34.625 ], [ 137.375, -34.625 ], [ 137.375, -34.375 ], [ 137.125, -34.375 ], [ 137.125, -34.125 ], [ 136.625, -34.125 ], [ 136.625, -34.375 ], [ 136.375, -34.375 ], [ 136.375, -34.625 ], [ 136.125, -34.625 ], [ 136.125, -34.875 ], [ 135.875, -34.875 ], [ 135.875, -34.375 ], [ 136.125, -34.375 ], [ 136.125, -34.125 ], [ 136.375, -34.125 ], [ 136.375, -33.875 ], [ 136.625, -33.875 ], [ 136.625, -33.125 ], [ 137.125, -33.125 ], [ 137.125, -33.625 ], [ 137.375, -33.625 ], [ 137.375, -33.875 ], [ 137.625, -33.875 ], [ 137.625, -33.625 ], [ 137.875, -33.625 ], [ 137.875, -33.125 ], [ 138.125, -33.125 ], [ 138.125, -32.375 ], [ 138.375, -32.375 ] ] ] ] } },
{ "type": "Feature", "properties": { "cluster_id": 9, "cohesion": 9.2010597997532475, "distances": { "1": 36.38685763831377, "2": 49.313713666338444, "3": 41.21997741439625, "4": 42.95213085784355, "5": 47.03013447783639, "6": 39.68856992304539, "7": 37.52589607947635, "8": 19.231267784627164, "10": 25.72696561021829, "11": 18.041185578502237, "12": 29.689371676218794, "13": 30.54428438073811, "14": 27.720473808884073, "15": 20.146739389328612, "16": 23.88452525345095, "17": 20.13900167982704, "18": 24.438911723951772, "19": 27.499050069626126, "20": 29.073346228702317, "21": 31.00637308312002, "22": 29.882831760786516, "23": 29.17275972378764, "24": 27.430008405159434, "25": 35.77699305833271, "26": 30.825476657302428, "27": 33.43134672491935 } }, "geometry": { "type": "Polygon", "coordinates": [ [ [ 134.125, -28.625 ], [ 134.125, -29.375 ], [ 133.875, -29.375 ], [ 133.875, -30.125 ], [ 133.375, -30.125 ], [ 133.375, -30.375 ], [ 133.125, -30.375 ], [ 133.125, -30.625 ], [ 132.875, -30.625 ], [ 132.875, -30.875 ], [ 133.125, -30.875 ], [ 133.125, -31.125 ], [ 133.625, -31.125 ], [ 133.625, -31.875 ], [ 132.125, -31.875 ], [ 132.125, -32.375 ], [ 133.625, -32.375 ], [ 133.625, -32.625 ], [ 133.875, -32.625 ], [ 133.875, -33.125 ], [ 134.125, -33.125 ], [ 134.125, -33.375 ], [ 134.375, -33.375 ], [ 134.375, -33.625 ], [ 134.625, -33.625 ], [ 134.625, -33.875 ], [ 134.875, -33.875 ], [ 134.875, -34.375 ], [ 135.125, -34.375 ], [ 135.125, -34.625 ], [ 135.375, -34.625 ], [ 135.375, -34.875 ], [ 135.875, -34.875 ], [ 135.875, -34.375 ], [ 136.125, -34.375 ], [ 136.125, -34.125 ], [ 136.375, -34.125 ], [ 136.375, -33.875 ], [ 136.625, -33.875 ], [ 136.625, -33.125 ], [ 137.125, -33.125 ], [ 137.125, -33.625 ], [ 137.375, -33.625 ], [ 137.375, -33.875 ], [ 137.625, -33.875 ], [ 137.625, -33.625 ], [ 137.875, -33.625 ], [ 137.875, -33.125 ], [ 138.125, -33.125 ], [ 138.125, -32.375 ], [ 138.375, -32.375 ], [ 138.375, -32.125 ], [ 138.125, -32.125 ], [ 138.125, -31.875 ], [ 137.625, -31.875 ], [ 137.625, -31.625 ], [ 137.375, -31.625 ], [ 137.375, -31.375 ], [ 137.125, -31.375 ], [ 137.125, -31.125 ], [ 136.125, -31.125 ], [ 136.125, -30.625 ], [ 135.875, -30.625 ], [ 135.875, -30.375 ], [ 135.625, -30.375 ], [ 135.625, -29.875 ], [ 135.125, -29.875 ], [ 135.125, -29.625 ], [ 134.875, -29.625 ], [ 134.875, -29.125 ], [ 134.625, -29.125 ], [ 134.625, -28.625 ], [ 134.125, -28.625 ] ] ] } },
{ "type": "Feature", "properties": { "cluster_id": 10, "cohesion": 10.83844561966878, "distances": { "1": 38.505514505225484, "2": 46.11637933845633, "3": 36.856262015448195, "4": 35.55816153892192, "5": 41.820244834181985, "6": 35.94517047353937, "7": 36.38062440245733, "8": 23.195146627809738, "9": 25.726965610218283, "11": 18.044337727248216, "12": 35.0076157058745, "13": 36.11183611230365, "14": 34.55429024208644, "15": 30.81410223176258, "16": 21.21647009745743, "17": 28.145832374216443, "18": 25.897153370351415, "19": 29.43317337689927, "20": 26.455642773669346, "21": 22.49718571098658, "22": 29.288860848209268, "23": 18.99968367563188, "24": 16.477228782255622, "25": 26.582339746958365, "26": 29.334833480197965, "27": 28.442809373882636 } }, "geometry": { "type": "Polygon", "coordinates": [ [ [ 142.625, -28.125 ], [ 142.625, -28.375 ], [ 142.125, -28.375 ], [ 142.125, -28.625 ], [ 141.625, -28.625 ], [ 141.625, -28.375 ], [ 140.375, -28.375 ], [ 140.375, -29.125 ], [ 140.625, -29.125 ], [ 140.625, -29.375 ], [ 141.125, -29.375 ], [ 141.125, -29.625 ], [ 141.375, -29.625 ], [ 141.375, -29.875 ], [ 141.875, -29.875 ], [ 141.875, -30.375 ], [ 142.375, -30.375 ], [ 142.375, -30.625 ], [ 142.625, -30.625 ], [ 142.625, -30.875 ], [ 143.625, -30.875 ], [ 143.625, -31.625 ], [ 144.125, -31.625 ], [ 144.125, -32.375 ], [ 144.625, -32.375 ], [ 144.625, -32.625 ], [ 144.875, -32.625 ], [ 144.875, -32.875 ], [ 145.125, -32.875 ], [ 145.125, -33.125 ], [ 145.375, -33.125 ], [ 145.375, -33.625 ], [ 145.625, -33.625 ], [ 145.625, -33.875 ], [ 146.125, -33.875 ], [ 146.125, -35.375 ], [ 146.375, -35.375 ], [ 146.375, -35.625 ], [ 146.625, -35.625 ], [ 146.625, -35.875 ], [ 147.375, -35.875 ], [ 147.375, -35.625 ], [ 147.625, -35.625 ], [ 147.625, -35.375 ], [ 148.125, -35.375 ], [ 148.125, -35.125 ], [ 147.875, -35.125 ], [ 147.875, -34.875 ], [ 148.625, -34.875 ], [ 148.625, -34.625 ], [ 148.875, -34.625 ], [ 148.875, -34.375 ], [ 149.125, -34.375 ], [ 149.125, -33.375 ], [ 148.875, -33.375 ], [ 148.875, -33.125 ], [ 148.625, -33.125 ], [ 148.625, -32.875 ], [ 148.375, -32.875 ], [ 148.375, -31.625 ], [ 148.625, -31.625 ], [ 148.625, -31.375 ], [ 148.125, -31.375 ], [ 148.125, -30.875 ], [ 147.875, -30.875 ], [ 147.875, -30.375 ], [ 147.625, -30.375 ], [ 147.625, -29.875 ], [ 147.125, -29.875 ], [ 147.125, -29.625 ], [ 146.875, -29.625 ], [ 146.875, -29.375 ], [ 146.625, -29.375 ], [ 146.625, -29.125 ], [ 145.125, -29.125 ], [ 145.125, -28.875 ], [ 144.875, -28.875 ], [ 144.875, -28.375 ], [ 144.375, -28.375 ], [ 144.375, -28.625 ], [ 143.625, -28.625 ], [ 143.625, -28.875 ], [ 143.375, -28.875 ], [ 143.375, -28.625 ], [ 143.125, -28.625 ], [ 143.125, -28.125 ], [ 142.625, -28.125 ] ] ] } },
{ "type": "Feature", "properties": { "cluster_id": 11, "cohesion": 12.003633656679064, "distances": { "1": 40.03172060769986, "2": 49.69114862631803, "3": 41.65594064489605, "4": 40.396667125933924, "5": 45.85976638414811, "6": 38.444123754492686, "7": 38.661078227251615, "8": 17.732470782304325, "9": 18.041185578502237, "10": 18.044337727248216, "12": 34.74617120188789, "13": 35.57105524249971, "14": 32.44134035130032, "15": 27.79343340463094, "16": 20.6497166833241, "17": 24.310128950296658, "18": 25.866952387945773, "19": 27.91620637486723, "20": 31.118938363213463, "21": 27.8332733761537, "22": 29.039721588660413, "23": 24.761309928034454, "24": 24.929263273477222, "25": 32.60646113106726, "26": 29.876835494618327, "27": 30.090678900756526 } }, "geometry": { "type": "Polygon", "coordinates": [ [ [ 134.625, -27.375 ], [ 134.625, -27.875 ], [ 134.375, -27.875 ], [ 134.375, -28.625 ], [ 134.625, -28.625 ], [ 134.625, -29.125 ], [ 134.875, -29.125 ], [ 134.875, -29.625 ], [ 135.125, -29.625 ], [ 135.125, -29.875 ], [ 135.625, -29.875 ], [ 135.625, -30.375 ], [ 135.875, -30.375 ], [ 135.875, -30.625 ], [ 136.125, -30.625 ], [ 136.125, -31.125 ], [ 137.125, -31.125 ], [ 137.125, -31.375 ], [ 137.375, -31.375 ], [ 137.375, -31.625 ], [ 137.625, -31.625 ], [ 137.625, -31.875 ], [ 138.125, -31.875 ], [ 138.125, -32.125 ], [ 138.375, -32.125 ], [ 138.375, -32.875 ], [ 139.875, -32.875 ], [ 139.875, -33.375 ], [ 139.625, -33.375 ], [ 139.625, -34.875 ], [ 140.125, -34.875 ], [ 140.125, -35.125 ], [ 141.125, -35.125 ], [ 141.125, -34.875 ], [ 141.375, -34.875 ], [ 141.375, -35.125 ], [ 141.625, -35.125 ], [ 141.625, -34.625 ], [ 141.875, -34.625 ], [ 141.875, -35.125 ], [ 142.375, -35.125 ], [ 142.375, -34.125 ], [ 142.875, -34.125 ], [ 142.875, -34.875 ], [ 143.375, -34.875 ], [ 143.375, -35.125 ], [ 144.375, -35.125 ], [ 144.375, -35.375 ], [ 144.875, -35.375 ], [ 144.875, -35.625 ], [ 145.375, -35.625 ], [ 145.375, -35.875 ], [ 146.125, -35.875 ], [ 146.125, -36.375 ], [ 146.375, -36.375 ], [ 146.375, -36.125 ], [ 146.625, -36.125 ], [ 146.625, -35.625 ], [ 146.375, -35.625 ], [ 146.375, -35.375 ], [ 146.125, -35.375 ], [ 146.125, -33.875 ], [ 145.625, -33.875 ], [ 145.625, -33.625 ], [ 145.375, -33.625 ], [ 145.375, -33.125 ], [ 145.125, -33.125 ], [ 145.125, -32.875 ], [ 144.875, -32.875 ], [ 144.875, -32.625 ], [ 144.625, -32.625 ], [ 144.625, -32.375 ], [ 144.125, -32.375 ], [ 144.125, -31.625 ], [ 143.625, -31.625 ], [ 143.625, -30.875 ], [ 142.625, -30.875 ], [ 142.625, -30.625 ], [ 142.375, -30.625 ], [ 142.375, -30.375 ], [ 141.875, -30.375 ], [ 141.875, -29.875 ], [ 141.375, -29.875 ], [ 141.375, -29.625 ], [ 140.375, -29.625 ], [ 140.375, -29.375 ], [ 140.125, -29.375 ], [ 140.125, -29.125 ], [ 139.375, -29.125 ], [ 139.375, -29.375 ], [ 138.625, -29.375 ], [ 138.625, -29.125 ], [ 138.375, -29.125 ], [ 138.375, -28.875 ], [ 137.875, -28.875 ], [ 137.875, -28.625 ], [ 137.625, -28.625 ], [ 137.625, -29.125 ], [ 137.875, -29.125 ], [ 137.875, -29.375 ], [ 138.125, -29.375 ], [ 138.125, -29.625 ], [ 138.375, -29.625 ], [ 138.375, -29.875 ], [ 137.625, -29.875 ], [ 137.625, -29.625 ], [ 137.375, -29.625 ], [ 137.375, -28.875 ], [ 137.125, -28.875 ], [ 137.125, -28.625 ], [ 136.875, -28.625 ], [ 136.875, -28.375 ], [ 136.625, -28.375 ], [ 136.625, -28.125 ], [ 135.875, -28.125 ], [ 135.875, -27.625 ], [ 135.375, -27.625 ], [ 135.375, -27.375 ], [ 134.625, -27.375 ] ] ] } },
{ "type": "Feature", "properties": { "cluster_id": 12, "cohesion": 8.7314838671739263, "distances": { "1": 25.43778275066344, "2": 34.06541761402389, "3": 29.34012820504651, "4": 33.88549344450621, "5": 34.685906034027056, "6": 32.55363550613273, "7": 26.65662118181518, "8": 30.52710648961616, "9": 29.689371676218794, "10": 35.00761570587451, "11": 34.74617120188788, "13": 16.76502628166962, "14": 26.73988439207172, "15": 25.64625727589591, "16": 33.93509329105079, "17": 31.805110070033876, "18": 28.678953737440384, "19": 31.75810045668941, "20": 26.453485556949396, "21": 27.480775225481544, "22": 26.40740035364306, "23": 33.2623876471764, "24": 31.571711530781105, "25": 32.19351621883849, "26": 30.240083297446986, "27": 33.58041618513199 } }, "geometry": { "type": "MultiPolygon", "coordinates": [ [ [ [ 125.375, -33.125 ], [ 124.875, -33.125 ], [ 124.875, -33.375 ], [ 124.375, -33.375 ], [ 124.375, -33.625 ], [ 124.125, -33.625 ], [ 124.125, -33.875 ], [ 123.875, -33.875 ], [ 123.875, -34.125 ], [ 123.625, -34.125 ], [ 123.625, -34.375 ], [ 122.125, -34.375 ], [ 122.125, -34.125 ], [ 120.875, -34.125 ], [ 120.875, -34.375 ], [ 119.625, -34.375 ], [ 119.625, -34.625 ], [ 119.375, -34.625 ], [ 119.375, -34.875 ], [ 118.625, -34.875 ], [ 118.625, -35.125 ], [ 118.375, -35.125 ], [ 118.375, -35.375 ], [ 116.125, -35.375 ], [ 116.125, -35.125 ], [ 115.875, -35.125 ], [ 115.875, -34.875 ], [ 115.625, -34.875 ], [ 115.625, -34.625 ], [ 115.125, -34.625 ], [ 115.125, -34.375 ], [ 114.875, -34.375 ], [ 114.875, -34.125 ], [ 115.375, -34.125 ], [ 115.375, -34.375 ], [ 115.875, -34.375 ], [ 115.875, -34.125 ], [ 118.125, -34.125 ], [ 118.125, -33.875 ], [ 118.875, -33.875 ], [ 118.875, -33.625 ], [ 119.375, -33.625 ], [ 119.375, -33.375 ], [ 119.875, -33.375 ], [ 119.875, -32.875 ], [ 121.125, -32.875 ], [ 121.125, -33.125 ], [ 121.875, -33.125 ], [ 121.875, -32.875 ], [ 122.375, -32.875 ], [ 122.375, -32.625 ], [ 125.375, -32.625 ], [ 125.375, -33.125 ] ] ], [ [ [ 125.375, -32.375 ], [ 125.625, -32.375 ], [ 125.625, -32.625 ], [ 125.375, -32.625 ], [ 125.375, -32.375 ] ] ] ] } },
{ "type": "Feature", "properties": { "cluster_id": 13, "cohesion": 10.710912279799034, "distances": { "1": 33.148225647889326, "2": 41.34367050323279, "3": 34.12051069058597, "4": 36.86182570268182, "5": 39.94043984087949, "6": 37.19787097163815, "7": 31.939427894094898, "8": 35.08698235516661, "9": 30.544284380738112, "10": 36.111836112303656, "11": 35.57105524249972, "12": 16.76502628166962, "14": 16.982773337391322, "15": 21.39042232427855, "16": 31.066218755068085, "17": 25.82298143211158, "18": 26.633972114703617, "19": 25.425268668011313, "20": 28.6789730772776, "21": 31.639711967781118, "22": 32.70340643112662, "23": 32.27057867900434, "24": 32.491773988851875, "25": 32.81932188651021, "26": 31.988864194632107, "27": 33.32502543758664 } }, "geometry": { "type": "Polygon", "coordinates": [ [ [ 118.375, -30.125 ], [ 118.375, -30.375 ], [ 118.125, -30.375 ], [ 118.125, -30.625 ], [ 117.875, -30.625 ], [ 117.875, -30.875 ], [ 116.375, -30.875 ], [ 116.375, -30.625 ], [ 115.625, -30.625 ], [ 115.625, -30.375 ], [ 115.375, -30.375 ], [ 115.375, -30.625 ], [ 115.125, -30.625 ], [ 115.125, -30.875 ], [ 114.875, -30.875 ], [ 114.875, -31.125 ], [ 115.125, -31.125 ], [ 115.125, -31.375 ], [ 115.375, -31.375 ], [ 115.375, -33.375 ], [ 115.125, -33.375 ], [ 115.125, -33.625 ], [ 114.875, -33.625 ], [ 114.875, -33.875 ], [ 114.625, -33.875 ], [ 114.625, -34.125 ], [ 115.375, -34.125 ], [ 115.375, -34.375 ], [ 115.875, -34.375 ], [ 115.875, -34.125 ], [ 118.125, -34.125 ], [ 118.125, -33.875 ], [ 118.875, -33.875 ], [ 118.875, -33.625 ], [ 119.375, -33.625 ], [ 119.375, -33.375 ], [ 119.875, -33.375 ], [ 119.875, -32.875 ], [ 121.125, -32.875 ], [ 121.125, -33.125 ], [ 121.875, -33.125 ], [ 121.875, -32.875 ], [ 122.375, -32.875 ], [ 122.375, -32.625 ], [ 125.375, -32.625 ], [ 125.375, -32.375 ], [ 125.875, -32.375 ], [ 125.875, -32.125 ], [ 126.375, -32.125 ], [ 126.375, -31.875 ], [ 126.875, -31.875 ], [ 126.875, -31.625 ], [ 125.125, -31.625 ], [ 125.125, -31.875 ], [ 123.625, -31.875 ], [ 123.625, -31.625 ], [ 123.125, -31.625 ], [ 123.125, -31.375 ], [ 121.625, -31.375 ], [ 121.625, -30.875 ], [ 121.125, -30.875 ], [ 121.125, -30.625 ], [ 120.375, -30.625 ], [ 120.375, -30.375 ], [ 119.625, -30.375 ], [ 119.625, -30.125 ], [ 118.375, -30.125 ] ] ] } },
{ "type": "Feature", "properties": { "cluster_id": 14, "cohesion": 10.125744122900564, "distances": { "1": 39.964369602637824, "2": 48.890581008321746, "3": 40.02452280014817, "4": 40.90272795577991, "5": 45.78061132326593, "6": 40.870409986271135, "7": 37.34532153293597, "8": 35.423239979309926, "9": 27.720473808884073, "10": 34.55429024208644, "11": 32.441340351300305, "12": 26.739884392071716, "13": 16.98277333739132, "15": 17.138256709724562, "16": 26.484854711813504, "17": 17.91033250289722, "18": 23.001157431412746, "19": 18.527113592059038, "20": 31.36422159164131, "21": 34.85767969063724, "22": 36.795704264500834, "23": 30.63062760958893, "24": 32.416996953963164, "25": 34.298618179853996, "26": 32.072265680242566, "27": 32.56531369206792 } }, "geometry": { "type": "MultiPolygon", "coordinates": [ [ [ [ 114.375, -29.125 ], [ 114.375, -28.875 ], [ 114.625, -28.875 ], [ 114.625, -29.125 ], [ 114.375, -29.125 ] ] ], [ [ [ 114.875, -29.125 ], [ 114.875, -29.625 ], [ 115.125, -29.625 ], [ 115.125, -30.125 ], [ 115.625, -30.125 ], [ 115.625, -29.875 ], [ 115.875, -29.875 ], [ 115.875, -29.375 ], [ 116.125, -29.375 ], [ 116.125, -29.625 ], [ 116.375, -29.625 ], [ 116.375, -29.375 ], [ 116.625, -29.375 ], [ 116.625, -28.375 ], [ 117.125, -28.375 ], [ 117.125, -28.625 ], [ 117.375, -28.625 ], [ 117.375, -28.875 ], [ 118.125, -28.875 ], [ 118.125, -28.625 ], [ 118.375, -28.625 ], [ 118.375, -28.375 ], [ 118.625, -28.375 ], [ 118.625, -28.125 ], [ 118.875, -28.125 ], [ 118.875, -27.875 ], [ 119.125, -27.875 ], [ 119.125, -27.625 ], [ 119.375, -27.625 ], [ 119.375, -27.125 ], [ 119.625, -27.125 ], [ 119.625, -26.875 ], [ 120.625, -26.875 ], [ 120.625, -26.375 ], [ 121.125, -26.375 ], [ 121.125, -26.125 ], [ 121.625, -26.125 ], [ 121.625, -26.625 ], [ 121.875, -26.625 ], [ 121.875, -26.875 ], [ 122.375, -26.875 ], [ 122.375, -27.125 ], [ 122.125, -27.125 ], [ 122.125, -27.375 ], [ 122.375, -27.375 ], [ 122.375, -27.625 ], [ 122.625, -27.625 ], [ 122.625, -27.875 ], [ 123.625, -27.875 ], [ 123.625, -28.125 ], [ 125.875, -28.125 ], [ 125.875, -28.375 ], [ 126.125, -28.375 ], [ 126.125, -28.625 ], [ 125.875, -28.625 ], [ 125.875, -29.375 ], [ 126.125, -29.375 ], [ 126.125, -29.625 ], [ 126.375, -29.625 ], [ 126.375, -30.125 ], [ 126.875, -30.125 ], [ 126.875, -30.375 ], [ 127.625, -30.375 ], [ 127.625, -30.875 ], [ 125.875, -30.875 ], [ 125.875, -31.125 ], [ 125.625, -31.125 ], [ 125.625, -31.375 ], [ 124.375, -31.375 ], [ 124.375, -31.125 ], [ 124.125, -31.125 ], [ 124.125, -30.875 ], [ 123.375, -30.875 ], [ 123.375, -31.125 ], [ 123.125, -31.125 ], [ 123.125, -31.375 ], [ 121.625, -31.375 ], [ 121.625, -30.875 ], [ 121.125, -30.875 ], [ 121.125, -30.625 ], [ 120.375, -30.625 ], [ 120.375, -30.375 ], [ 119.625, -30.375 ], [ 119.625, -30.125 ], [ 118.375, -30.125 ], [ 118.375, -30.375 ], [ 118.125, -30.375 ], [ 118.125, -30.625 ], [ 117.875, -30.625 ], [ 117.875, -30.875 ], [ 116.375, -30.875 ], [ 116.375, -30.625 ], [ 115.625, -30.625 ], [ 115.625, -30.375 ], [ 115.375, -30.375 ], [ 115.375, -30.625 ], [ 115.125, -30.625 ], [ 115.125, -30.875 ], [ 114.875, -30.875 ], [ 114.875, -30.625 ], [ 114.625, -30.625 ], [ 114.625, -29.125 ], [ 114.875, -29.125 ] ] ] ] } },
{ "type": "Feature", "properties": { "cluster_id": 15, "cohesion": 11.760136401073694, "distances": { "1": 37.53045082364646, "2": 49.194660708116714, "3": 39.66140376970689, "4": 41.80969067471327, "5": 46.62739609537111, "6": 41.52764230768314, "7": 37.44469209439789, "8": 30.848692883134568, "9": 20.146739389328612, "10": 30.814102231762586, "11": 27.793433404630942, "12": 25.64625727589591, "13": 21.39042232427855, "14": 17.13825670972457, "16": 24.317187235502704, "17": 15.602225744210008, "18": 24.164494771074047, "19": 24.01901253096604, "20": 28.781839386206563, "21": 33.74062418845787, "22": 35.26550329787748, "23": 28.43446124985201, "24": 29.3082298593153, "25": 33.967930355009585, "26": 33.08127792185213, "27": 33.92383709844424 } }, "geometry": { "type": "Polygon", "coordinates": [ [ [ 130.375, -26.625 ], [ 130.375, -26.875 ], [ 129.875, -26.875 ], [ 129.875, -27.625 ], [ 130.125, -27.625 ], [ 130.125, -27.875 ], [ 129.625, -27.875 ], [ 129.625, -28.125 ], [ 127.125, -28.125 ], [ 127.125, -28.625 ], [ 125.875, -28.625 ], [ 125.875, -29.375 ], [ 126.125, -29.375 ], [ 126.125, -29.625 ], [ 126.375, -29.625 ], [ 126.375, -30.125 ], [ 126.875, -30.125 ], [ 126.875, -30.375 ], [ 127.625, -30.375 ], [ 127.625, -30.875 ], [ 125.875, -30.875 ], [ 125.875, -31.125 ], [ 125.625, -31.125 ], [ 125.625, -31.375 ], [ 124.375, -31.375 ], [ 124.375, -31.125 ], [ 124.125, -31.125 ], [ 124.125, -30.875 ], [ 123.375, -30.875 ], [ 123.375, -31.125 ], [ 123.125, -31.125 ], [ 123.125, -31.625 ], [ 123.625, -31.625 ], [ 123.625, -31.875 ], [ 125.125, -31.875 ], [ 125.125, -31.625 ], [ 126.875, -31.625 ], [ 126.875, -31.875 ], [ 126.375, -31.875 ], [ 126.375, -32.125 ], [ 125.875, -32.125 ], [ 125.875, -32.375 ], [ 125.625, -32.375 ], [ 125.625, -32.625 ], [ 125.375, -32.625 ], [ 125.375, -32.875 ], [ 125.875, -32.875 ], [ 125.875, -32.625 ], [ 127.375, -32.625 ], [ 127.375, -32.375 ], [ 128.375, -32.375 ], [ 128.375, -32.125 ], [ 129.375, -32.125 ], [ 129.375, -31.875 ], [ 131.625, -31.875 ], [ 131.625, -32.125 ], [ 132.125, -32.125 ], [ 132.125, -31.875 ], [ 133.625, -31.875 ], [ 133.625, -31.125 ], [ 133.125, -31.125 ], [ 133.125, -30.875 ], [ 132.375, -30.875 ], [ 132.375, -30.625 ], [ 132.125, -30.625 ], [ 132.125, -30.375 ], [ 131.875, -30.375 ], [ 131.875, -30.125 ], [ 131.625, -30.125 ], [ 131.625, -29.875 ], [ 131.375, -29.875 ], [ 131.375, -29.125 ], [ 132.125, -29.125 ], [ 132.125, -28.625 ], [ 131.875, -28.625 ], [ 131.875, -28.125 ], [ 131.375, -28.125 ], [ 131.375, -27.625 ], [ 131.625, -27.625 ], [ 131.625, -26.875 ], [ 130.875, -26.875 ], [ 130.875, -26.625 ], [ 130.375, -26.625 ] ] ] } },
{ "type": "Feature", "properties": { "cluster_id": 16, "cohesion": 12.380054784223443, "distances": { "1": 40.058629316366506, "2": 47.596438715389745, "3": 37.639129954841145, "4": 34.0708106056343, "5": 41.95355953106311, "6": 36.02362983578926, "7": 36.440036733114916, "8": 29.289145268148506, "9": 23.88452525345095, "10": 21.21647009745743, "11": 20.649716683324105, "12": 33.93509329105079, "13": 31.066218755068085, "14": 26.484854711813497, "15": 24.317187235502704, "17": 18.653771400955517, "18": 22.98685155111212, "19": 21.278479879328962, "20": 29.132846050436758, "21": 29.661326609168686, "22": 34.06811904139092, "23": 16.188238058923638, "24": 24.00822509508776, "25": 24.427893974503764, "26": 27.241424042822807, "27": 22.89195442078313 } }, "geometry": { "type": "MultiPolygon", "coordinates": [ [ [ [ 137.625, -28.875 ], [ 137.625, -29.125 ], [ 137.875, -29.125 ], [ 137.875, -29.375 ], [ 138.125, -29.375 ], [ 138.125, -29.625 ], [ 138.375, -29.625 ], [ 138.375, -29.875 ], [ 137.625, -29.875 ], [ 137.625, -29.625 ], [ 137.375, -29.625 ], [ 137.375, -28.875 ], [ 137.625, -28.875 ] ] ], [ [ [ 134.625, -23.625 ], [ 134.625, -23.875 ], [ 134.375, -23.875 ], [ 134.375, -24.125 ], [ 134.125, -24.125 ], [ 134.125, -24.375 ], [ 134.375, -24.375 ], [ 134.375, -24.625 ], [ 134.625, -24.625 ], [ 134.625, -24.875 ], [ 135.625, -24.875 ], [ 135.625, -25.125 ], [ 135.875, -25.125 ], [ 135.875, -25.375 ], [ 136.125, -25.375 ], [ 136.125, -25.625 ], [ 136.625, -25.625 ], [ 136.625, -25.875 ], [ 136.875, -25.875 ], [ 136.875, -26.125 ], [ 137.125, -26.125 ], [ 137.125, -26.625 ], [ 137.375, -26.625 ], [ 137.375, -26.875 ], [ 137.625, -26.875 ], [ 137.625, -27.125 ], [ 137.875, -27.125 ], [ 137.875, -27.375 ], [ 138.375, -27.375 ], [ 138.375, -27.125 ], [ 138.625, -27.125 ], [ 138.625, -27.375 ], [ 139.375, -27.375 ], [ 139.375, -27.125 ], [ 139.875, -27.125 ], [ 139.875, -27.375 ], [ 140.125, -27.375 ], [ 140.125, -27.625 ], [ 140.375, -27.625 ], [ 140.375, -29.125 ], [ 140.625, -29.125 ], [ 140.625, -29.375 ], [ 141.125, -29.375 ], [ 141.125, -29.625 ], [ 140.375, -29.625 ], [ 140.375, -29.375 ], [ 140.125, -29.375 ], [ 140.125, -29.125 ], [ 139.375, -29.125 ], [ 139.375, -29.375 ], [ 138.625, -29.375 ], [ 138.625, -29.125 ], [ 138.375, -29.125 ], [ 138.375, -28.875 ], [ 137.875, -28.875 ], [ 137.875, -28.625 ], [ 137.375, -28.625 ], [ 137.375, -28.375 ], [ 137.125, -28.375 ], [ 137.125, -28.625 ], [ 136.875, -28.625 ], [ 136.875, -28.375 ], [ 136.625, -28.375 ], [ 136.625, -28.125 ], [ 135.875, -28.125 ], [ 135.875, -27.625 ], [ 135.375, -27.625 ], [ 135.375, -27.375 ], [ 134.125, -27.375 ], [ 134.125, -27.125 ], [ 133.875, -27.125 ], [ 133.875, -26.875 ], [ 134.375, -26.875 ], [ 134.375, -26.375 ], [ 134.125, -26.375 ], [ 134.125, -26.125 ], [ 133.875, -26.125 ], [ 133.875, -26.375 ], [ 133.125, -26.375 ], [ 133.125, -26.625 ], [ 132.625, -26.625 ], [ 132.625, -26.375 ], [ 131.375, -26.375 ], [ 131.375, -26.125 ], [ 130.375, -26.125 ], [ 130.375, -25.875 ], [ 130.625, -25.875 ], [ 130.625, -25.625 ], [ 130.125, -25.625 ], [ 130.125, -25.875 ], [ 129.875, -25.875 ], [ 129.875, -25.625 ], [ 125.875, -25.625 ], [ 125.875, -25.375 ], [ 125.625, -25.375 ], [ 125.625, -25.125 ], [ 124.625, -25.125 ], [ 124.625, -24.625 ], [ 126.875, -24.625 ], [ 126.875, -24.375 ], [ 128.875, -24.375 ], [ 128.875, -24.625 ], [ 130.125, -24.625 ], [ 130.125, -24.125 ], [ 130.375, -24.125 ], [ 130.375, -23.875 ], [ 131.375, -23.875 ], [ 131.375, -24.125 ], [ 131.875, -24.125 ], [ 131.875, -23.875 ], [ 133.875, -23.875 ], [ 133.875, -23.625 ], [ 134.625, -23.625 ] ] ] ] } },
{ "type": "Feature", "properties": { "cluster_id": 17, "cohesion": 11.128221577855857, "distances": { "1": 41.00298595067577, "2": 51.022951071196836, "3": 41.18361676561109, "4": 40.747486993586584, "5": 46.953667709486005, "6": 40.882909608398855, "7": 38.718264426783584, "8": 30.709952084997187, "9": 20.139001679827047, "10": 28.145832374216447, "11": 24.310128950296665, "12": 31.805110070033884, "13": 25.822981432111582, "14": 17.91033250289722, "15": 15.602225744210008, "16": 18.653771400955517, "18": 22.408710898939024, "19": 18.854823283659666, "20": 30.389759940264433, "21": 33.73897528683808, "22": 36.173409470511224, "23": 25.28913168951644, "24": 28.395578901948443, "25": 32.10231852517043, "26": 30.896429622166863, "27": 29.64895701143234 } }, "geometry": { "type": "Polygon", "coordinates": [ [ [ 127.375, -25.625 ], [ 127.375, -25.875 ], [ 127.625, -25.875 ], [ 127.625, -26.125 ], [ 126.875, -26.125 ], [ 126.875, -26.375 ], [ 126.375, -26.375 ], [ 126.375, -26.125 ], [ 125.875, -26.125 ], [ 125.875, -26.375 ], [ 125.375, -26.375 ], [ 125.375, -26.625 ], [ 124.375, -26.625 ], [ 124.375, -26.875 ], [ 123.875, -26.875 ], [ 123.875, -27.125 ], [ 123.125, -27.125 ], [ 123.125, -26.875 ], [ 122.375, -26.875 ], [ 122.375, -27.125 ], [ 122.125, -27.125 ], [ 122.125, -27.375 ], [ 122.375, -27.375 ], [ 122.375, -27.625 ], [ 122.625, -27.625 ], [ 122.625, -27.875 ], [ 123.625, -27.875 ], [ 123.625, -28.125 ], [ 125.875, -28.125 ], [ 125.875, -28.375 ], [ 126.125, -28.375 ], [ 126.125, -28.625 ], [ 127.125, -28.625 ], [ 127.125, -28.125 ], [ 129.625, -28.125 ], [ 129.625, -27.875 ], [ 130.125, -27.875 ], [ 130.125, -27.625 ], [ 129.875, -27.625 ], [ 129.875, -26.875 ], [ 130.375, -26.875 ], [ 130.375, -26.625 ], [ 130.875, -26.625 ], [ 130.875, -26.875 ], [ 131.625, -26.875 ], [ 131.625, -27.625 ], [ 131.375, -27.625 ], [ 131.375, -28.125 ], [ 131.875, -28.125 ], [ 131.875, -28.625 ], [ 132.125, -28.625 ], [ 132.125, -29.125 ], [ 131.375, -29.125 ], [ 131.375, -29.875 ], [ 131.625, -29.875 ], [ 131.625, -30.125 ], [ 131.875, -30.125 ], [ 131.875, -30.375 ], [ 132.125, -30.375 ], [ 132.125, -30.625 ], [ 132.375, -30.625 ], [ 132.375, -30.875 ], [ 132.875, -30.875 ], [ 132.875, -30.625 ], [ 133.125, -30.625 ], [ 133.125, -30.375 ], [ 133.375, -30.375 ], [ 133.375, -30.125 ], [ 133.875, -30.125 ], [ 133.875, -29.375 ], [ 134.125, -29.375 ], [ 134.125, -28.625 ], [ 134.375, -28.625 ], [ 134.375, -27.875 ], [ 134.625, -27.875 ], [ 134.625, -27.375 ], [ 134.125, -27.375 ], [ 134.125, -27.125 ], [ 133.875, -27.125 ], [ 133.875, -26.875 ], [ 134.375, -26.875 ], [ 134.375, -26.375 ], [ 134.125, -26.375 ], [ 134.125, -26.125 ], [ 133.875, -26.125 ], [ 133.875, -26.375 ], [ 133.125, -26.375 ], [ 133.125, -26.625 ], [ 132.625, -26.625 ], [ 132.625, -26.375 ], [ 131.375, -26.375 ], [ 131.375, -26.125 ], [ 130.375, -26.125 ], [ 130.375, -25.875 ], [ 130.625, -25.875 ], [ 130.625, -25.625 ], [ 130.125, -25.625 ], [ 130.125, -25.875 ], [ 129.875, -25.875 ], [ 129.875, -25.625 ], [ 127.375, -25.625 ] ] ] } },
{ "type": "Feature", "properties": { "cluster_id": 18, "cohesion": 10.151059675857402, "distances": { "1": 33.621391481318355, "2": 42.545109156271344, "3": 34.24295352056059, "4": 34.60185668968383, "5": 39.11705449781439, "6": 30.95199806563556, "7": 31.10208779895054, "8": 26.998668571156255, "9": 24.438911723951772, "10": 25.897153370351408, "11": 25.86695238794578, "12": 28.67895373744038, "13": 26.633972114703614, "14": 23.001157431412743, "15": 24.16449477107404, "16": 22.98685155111212, "17": 22.408710898939024, "19": 16.934143797464827, "20": 24.526577473546173, "21": 25.61531189108335, "22": 28.047497275658273, "23": 25.255614690837007, "24": 23.44167370847777, "25": 28.59718100764156, "26": 19.9113835151648, "27": 24.99950165027352 } }, "geometry": { "type": "Polygon", "coordinates": [ [ [ 115.875, -20.625 ], [ 115.875, -20.875 ], [ 115.625, -20.875 ], [ 115.625, -21.125 ], [ 115.125, -21.125 ], [ 115.125, -21.375 ], [ 114.625, -21.375 ], [ 114.625, -21.625 ], [ 114.375, -21.625 ], [ 114.375, -21.875 ], [ 113.875, -21.875 ], [ 113.875, -22.125 ], [ 113.625, -22.125 ], [ 113.625, -22.375 ], [ 113.375, -22.375 ], [ 113.375, -23.625 ], [ 113.125, -23.625 ], [ 113.125, -24.875 ], [ 113.375, -24.875 ], [ 113.375, -25.375 ], [ 113.625, -25.375 ], [ 113.625, -25.875 ], [ 113.875, -25.875 ], [ 113.875, -26.125 ], [ 113.625, -26.125 ], [ 113.625, -26.375 ], [ 113.375, -26.375 ], [ 113.375, -27.125 ], [ 113.625, -27.125 ], [ 113.625, -27.875 ], [ 113.875, -27.875 ], [ 113.875, -28.125 ], [ 115.375, -28.125 ], [ 115.375, -27.875 ], [ 116.625, -27.875 ], [ 116.625, -26.625 ], [ 116.375, -26.625 ], [ 116.375, -25.875 ], [ 116.125, -25.875 ], [ 116.125, -25.625 ], [ 116.375, -25.625 ], [ 116.375, -25.375 ], [ 116.625, -25.375 ], [ 116.625, -25.125 ], [ 116.875, -25.125 ], [ 116.875, -24.625 ], [ 117.625, -24.625 ], [ 117.625, -24.375 ], [ 117.875, -24.375 ], [ 117.875, -24.125 ], [ 118.125, -24.125 ], [ 118.125, -23.875 ], [ 117.875, -23.875 ], [ 117.875, -23.625 ], [ 117.625, -23.625 ], [ 117.625, -23.375 ], [ 117.375, -23.375 ], [ 117.375, -22.875 ], [ 117.125, -22.875 ], [ 117.125, -22.625 ], [ 116.625, -22.625 ], [ 116.625, -22.375 ], [ 116.375, -22.375 ], [ 116.375, -22.125 ], [ 116.125, -22.125 ], [ 116.125, -21.125 ], [ 116.375, -21.125 ], [ 116.375, -20.625 ], [ 115.875, -20.625 ] ] ] } },
{ "type": "Feature", "properties": { "cluster_id": 19, "cohesion": 11.396915916553262, "distances": { "1": 39.12513232274222, "2": 45.4586975553285, "3": 37.33424308342413, "4": 35.108259210138705, "5": 40.722326750586326, "6": 33.322481378086245, "7": 33.77328017911924, "8": 31.834909402675482, "9": 27.49905006962613, "10": 29.433173376899273, "11": 27.91620637486724, "12": 31.7581004566894, "13": 25.425268668011306, "14": 18.527113592059045, "15": 24.019012530966034, "16": 21.27847987932896, "17": 18.854823283659666, "18": 16.93414379746483, "20": 29.911755698589346, "21": 30.310580506213196, "22": 32.97379973944813, "23": 26.283663481386387, "24": 28.673123713013744, "25": 29.356709763280488, "26": 22.392548334144355, "27": 22.792766517433048 } }, "geometry": { "type": "Polygon", "coordinates": [ [ [ 119.125, -23.125 ], [ 119.125, -24.125 ], [ 117.875, -24.125 ], [ 117.875, -24.375 ], [ 117.625, -24.375 ], [ 117.625, -24.625 ], [ 116.875, -24.625 ], [ 116.875, -25.125 ], [ 116.625, -25.125 ], [ 116.625, -25.375 ], [ 116.375, -25.375 ], [ 116.375, -25.625 ], [ 116.125, -25.625 ], [ 116.125, -25.875 ], [ 116.375, -25.875 ], [ 116.375, -26.625 ], [ 116.625, -26.625 ], [ 116.625, -27.875 ], [ 115.375, -27.875 ], [ 115.375, -28.125 ], [ 114.125, -28.125 ], [ 114.125, -28.625 ], [ 114.375, -28.625 ], [ 114.375, -28.875 ], [ 114.625, -28.875 ], [ 114.625, -29.125 ], [ 114.875, -29.125 ], [ 114.875, -29.625 ], [ 115.125, -29.625 ], [ 115.125, -30.125 ], [ 115.625, -30.125 ], [ 115.625, -29.875 ], [ 115.875, -29.875 ], [ 115.875, -29.375 ], [ 116.125, -29.375 ], [ 116.125, -29.625 ], [ 116.375, -29.625 ], [ 116.375, -29.375 ], [ 116.625, -29.375 ], [ 116.625, -28.375 ], [ 117.125, -28.375 ], [ 117.125, -28.625 ], [ 117.375, -28.625 ], [ 117.375, -28.875 ], [ 118.125, -28.875 ], [ 118.125, -28.625 ], [ 118.375, -28.625 ], [ 118.375, -28.375 ], [ 118.625, -28.375 ], [ 118.625, -28.125 ], [ 118.875, -28.125 ], [ 118.875, -27.875 ], [ 119.125, -27.875 ], [ 119.125, -27.625 ], [ 119.375, -27.625 ], [ 119.375, -27.125 ], [ 119.625, -27.125 ], [ 119.625, -26.875 ], [ 120.625, -26.875 ], [ 120.625, -26.375 ], [ 121.125, -26.375 ], [ 121.125, -26.125 ], [ 121.625, -26.125 ], [ 121.625, -26.625 ], [ 121.875, -26.625 ], [ 121.875, -26.875 ], [ 123.125, -26.875 ], [ 123.125, -27.125 ], [ 123.875, -27.125 ], [ 123.875, -26.875 ], [ 124.375, -26.875 ], [ 124.375, -26.625 ], [ 125.375, -26.625 ], [ 125.375, -26.375 ], [ 125.875, -26.375 ], [ 125.875, -26.125 ], [ 126.375, -26.125 ], [ 126.375, -26.375 ], [ 126.875, -26.375 ], [ 126.875, -26.125 ], [ 127.625, -26.125 ], [ 127.625, -25.875 ], [ 127.375, -25.875 ], [ 127.375, -25.625 ], [ 125.875, -25.625 ], [ 125.875, -25.375 ], [ 125.625, -25.375 ], [ 125.625, -25.125 ], [ 124.625, -25.125 ], [ 124.625, -24.375 ], [ 123.125, -24.375 ], [ 123.125, -23.875 ], [ 121.875, -23.875 ], [ 121.875, -23.625 ], [ 121.625, -23.625 ], [ 121.625, -23.375 ], [ 121.125, -23.375 ], [ 121.125, -23.625 ], [ 120.125, -23.625 ], [ 120.125, -23.125 ], [ 119.125, -23.125 ] ] ] } },
{ "type": "Feature", "properties": { "cluster_id": 20, "cohesion": 12.627979004786473, "distances": { "1": 24.0913532330572, "2": 34.18929292987654, "3": 23.262121570761302, "4": 29.71371153203408, "5": 32.981728194832506, "6": 30.102427926666163, "7": 26.288464702076276, "8": 29.559059044996747, "9": 29.073346228702317, "10": 26.455642773669346, "11": 31.118938363213456, "12": 26.453485556949392, "13": 28.678973077277604, "14": 31.364221591641304, "15": 28.78183938620658, "16": 29.132846050436758, "17": 30.389759940264433, "18": 24.52657747354617, "19": 29.911755698589346, "21": 22.382412820700473, "22": 27.773696785532433, "23": 26.223829996749934, "24": 18.768238674153473, "25": 24.89865016478362, "26": 27.409709623749652, "27": 29.165775869932617 } }, "geometry": { "type": "Polygon", "coordinates": [ [ [ 145.125, -18.375 ], [ 145.125, -19.125 ], [ 145.375, -19.125 ], [ 145.375, -19.375 ], [ 145.625, -19.375 ], [ 145.625, -19.625 ], [ 145.875, -19.625 ], [ 145.875, -19.875 ], [ 144.125, -19.875 ], [ 144.125, -19.625 ], [ 143.625, -19.625 ], [ 143.625, -20.375 ], [ 143.875, -20.375 ], [ 143.875, -20.625 ], [ 144.125, -20.625 ], [ 144.125, -20.875 ], [ 144.375, -20.875 ], [ 144.375, -21.375 ], [ 143.875, -21.375 ], [ 143.875, -21.625 ], [ 143.625, -21.625 ], [ 143.625, -22.375 ], [ 143.375, -22.375 ], [ 143.375, -22.875 ], [ 143.125, -22.875 ], [ 143.125, -23.125 ], [ 142.875, -23.125 ], [ 142.875, -23.375 ], [ 143.125, -23.375 ], [ 143.125, -23.625 ], [ 143.375, -23.625 ], [ 143.375, -23.875 ], [ 143.625, -23.875 ], [ 143.625, -24.125 ], [ 143.875, -24.125 ], [ 143.875, -24.625 ], [ 144.125, -24.625 ], [ 144.125, -25.125 ], [ 146.125, -25.125 ], [ 146.125, -25.375 ], [ 146.375, -25.375 ], [ 146.375, -25.125 ], [ 148.125, -25.125 ], [ 148.125, -25.375 ], [ 148.375, -25.375 ], [ 148.375, -25.625 ], [ 149.125, -25.625 ], [ 149.125, -25.875 ], [ 148.875, -25.875 ], [ 148.875, -26.125 ], [ 149.125, -26.125 ], [ 149.125, -26.375 ], [ 151.125, -26.375 ], [ 151.125, -26.625 ], [ 151.875, -26.625 ], [ 151.875, -26.375 ], [ 152.875, -26.375 ], [ 152.875, -26.625 ], [ 153.125, -26.625 ], [ 153.125, -28.125 ], [ 153.375, -28.125 ], [ 153.375, -27.625 ], [ 153.625, -27.625 ], [ 153.625, -26.375 ], [ 153.375, -26.375 ], [ 153.375, -26.125 ], [ 153.625, -26.125 ], [ 153.625, -25.875 ], [ 153.375, -25.875 ], [ 153.375, -25.375 ], [ 153.125, -25.375 ], [ 153.125, -25.125 ], [ 152.875, -25.125 ], [ 152.875, -24.875 ], [ 152.625, -24.875 ], [ 152.625, -24.625 ], [ 152.375, -24.625 ], [ 152.375, -24.125 ], [ 152.125, -24.125 ], [ 152.125, -23.875 ], [ 151.875, -23.875 ], [ 151.875, -23.625 ], [ 151.375, -23.625 ], [ 151.375, -23.375 ], [ 151.125, -23.375 ], [ 151.125, -22.625 ], [ 150.875, -22.625 ], [ 150.875, -22.375 ], [ 150.625, -22.375 ], [ 150.625, -22.125 ], [ 149.875, -22.125 ], [ 149.875, -21.625 ], [ 149.625, -21.625 ], [ 149.625, -21.125 ], [ 149.375, -21.125 ], [ 149.375, -20.875 ], [ 148.875, -20.875 ], [ 148.875, -20.625 ], [ 148.625, -20.625 ], [ 148.625, -20.375 ], [ 148.375, -20.375 ], [ 148.375, -20.625 ], [ 148.125, -20.625 ], [ 148.125, -20.375 ], [ 147.625, -20.375 ], [ 147.625, -20.125 ], [ 147.375, -20.125 ], [ 147.375, -19.625 ], [ 147.125, -19.625 ], [ 147.125, -19.375 ], [ 146.875, -19.375 ], [ 146.875, -19.125 ], [ 146.125, -19.125 ], [ 146.125, -18.875 ], [ 145.875, -18.875 ], [ 145.875, -18.625 ], [ 145.375, -18.625 ], [ 145.375, -18.375 ], [ 145.125, -18.375 ] ] ] } },
{ "type": "Feature", "properties": { "cluster_id": 21, "cohesion": 12.029984341232435, "distances": { "1": 29.013421871104796, "2": 32.2279189102471, "3": 26.984783743424092, "4": 27.787720423841918, "5": 30.27186394890188, "6": 26.269563257624384, "7": 25.729802532272007, "8": 24.2349548568825, "9": 31.00637308312002, "10": 22.49718571098658, "11": 27.833273376153702, "12": 27.48077522548155, "13": 31.63971196778112, "14": 34.85767969063724, "15": 33.74062418845788, "16": 29.661326609168686, "17": 33.738975286838084, "18": 25.615311891083344, "19": 30.310580506213192, "20": 22.38241282070046, "22": 19.234521098403814, "23": 26.953541111072585, "24": 20.199080580230888, "25": 25.787781998599336, "26": 24.422725821733774, "27": 26.466077567701372 } }, "geometry": { "type": "MultiPolygon", "coordinates": [ [ [ [ 148.625, -36.625 ], [ 149.125, -36.625 ], [ 149.125, -36.375 ], [ 149.625, -36.375 ], [ 149.625, -36.625 ], [ 149.375, -36.625 ], [ 149.375, -36.875 ], [ 149.125, -36.875 ], [ 149.125, -37.375 ], [ 148.875, -37.375 ], [ 148.875, -37.625 ], [ 148.625, -37.625 ], [ 148.625, -36.625 ] ] ], [ [ [ 149.875, -36.125 ], [ 149.875, -35.875 ], [ 150.125, -35.875 ], [ 150.125, -35.625 ], [ 150.375, -35.625 ], [ 150.375, -35.375 ], [ 150.625, -35.375 ], [ 150.625, -36.375 ], [ 150.375, -36.375 ], [ 150.375, -37.375 ], [ 150.125, -37.375 ], [ 150.125, -37.625 ], [ 149.875, -37.625 ], [ 149.875, -37.875 ], [ 149.625, -37.875 ], [ 149.625, -38.125 ], [ 148.625, -38.125 ], [ 148.625, -37.875 ], [ 148.875, -37.875 ], [ 148.875, -37.625 ], [ 149.375, -37.625 ], [ 149.375, -37.375 ], [ 149.625, -37.375 ], [ 149.625, -36.875 ], [ 149.875, -36.875 ], [ 149.875, -36.375 ], [ 149.625, -36.375 ], [ 149.625, -36.125 ], [ 149.875, -36.125 ] ] ], [ [ [ 150.625, -35.375 ], [ 150.625, -35.125 ], [ 150.875, -35.125 ], [ 150.875, -35.375 ], [ 150.625, -35.375 ] ] ], [ [ [ 150.625, -34.125 ], [ 150.625, -33.875 ], [ 150.375, -33.875 ], [ 150.375, -33.625 ], [ 150.625, -33.625 ], [ 150.625, -33.125 ], [ 150.375, -33.125 ], [ 150.375, -33.375 ], [ 150.125, -33.375 ], [ 150.125, -33.625 ], [ 149.875, -33.625 ], [ 149.875, -34.125 ], [ 149.625, -34.125 ], [ 149.625, -34.875 ], [ 149.375, -34.875 ], [ 149.375, -35.125 ], [ 148.875, -35.125 ], [ 148.875, -35.375 ], [ 148.625, -35.375 ], [ 148.625, -35.625 ], [ 148.375, -35.625 ], [ 148.375, -35.375 ], [ 148.125, -35.375 ], [ 148.125, -35.125 ], [ 147.875, -35.125 ], [ 147.875, -34.875 ], [ 148.625, -34.875 ], [ 148.625, -34.625 ], [ 148.875, -34.625 ], [ 148.875, -34.375 ], [ 149.125, -34.375 ], [ 149.125, -33.375 ], [ 148.875, -33.375 ], [ 148.875, -33.125 ], [ 149.375, -33.125 ], [ 149.375, -32.875 ], [ 149.625, -32.875 ], [ 149.625, -32.375 ], [ 149.875, -32.375 ], [ 149.875, -31.875 ], [ 150.625, -31.875 ], [ 150.625, -31.625 ], [ 150.875, -31.625 ], [ 150.875, -31.375 ], [ 151.375, -31.375 ], [ 151.375, -30.625 ], [ 151.625, -30.625 ], [ 151.625, -30.125 ], [ 151.375, -30.125 ], [ 151.375, -29.875 ], [ 151.625, -29.875 ], [ 151.625, -29.375 ], [ 151.875, -29.375 ], [ 151.875, -26.875 ], [ 151.625, -26.875 ], [ 151.625, -26.625 ], [ 151.875, -26.625 ], [ 151.875, -26.375 ], [ 152.875, -26.375 ], [ 152.875, -26.625 ], [ 153.125, -26.625 ], [ 153.125, -28.125 ], [ 153.375, -28.125 ], [ 153.375, -27.625 ], [ 153.875, -27.625 ], [ 153.875, -29.125 ], [ 153.625, -29.125 ], [ 153.625, -30.125 ], [ 153.375, -30.125 ], [ 153.375, -31.375 ], [ 153.125, -31.375 ], [ 153.125, -31.875 ], [ 152.875, -31.875 ], [ 152.875, -32.375 ], [ 152.625, -32.375 ], [ 152.625, -32.625 ], [ 152.375, -32.625 ], [ 152.375, -32.875 ], [ 152.125, -32.875 ], [ 152.125, -33.125 ], [ 151.875, -33.125 ], [ 151.875, -33.375 ], [ 151.625, -33.375 ], [ 151.625, -34.125 ], [ 151.375, -34.125 ], [ 151.375, -34.375 ], [ 151.125, -34.375 ], [ 151.125, -35.125 ], [ 150.875, -35.125 ], [ 150.875, -34.125 ], [ 150.625, -34.125 ] ], [ [ 151.875, -32.625 ], [ 151.875, -32.125 ], [ 151.375, -32.125 ], [ 151.375, -32.625 ], [ 151.875, -32.625 ] ] ] ] } },
{ "type": "Feature", "properties": { "cluster_id": 22, "cohesion": 12.116114751964417, "distances": { "1": 26.40627896004299, "2": 33.016699881569906, "3": 30.54573105465386, "4": 32.308478726141395, "5": 32.781147858713126, "6": 27.588558806769985, "7": 26.964416117590215, "8": 20.493118004997193, "9": 29.88283176078651, "10": 29.288860848209264, "11": 29.039721588660413, "12": 26.40740035364306, "13": 32.70340643112663, "14": 36.795704264500834, "15": 35.26550329787749, "16": 34.06811904139092, "17": 36.17340947051124, "18": 28.047497275658273, "19": 32.97379973944813, "20": 27.77369678553244, "21": 19.234521098403814, "23": 33.48846907364532, "24": 28.904944554203457, "25": 32.18632507819588, "26": 25.686368300723252, "27": 30.27686510330873 } }, "geometry": { "type": "MultiPolygon", "coordinates": [ [ [ [ 145.125, -40.625 ], [ 146.125, -40.625 ], [ 146.125, -40.875 ], [ 146.625, -40.875 ], [ 146.625, -40.625 ], [ 147.875, -40.625 ], [ 147.875, -40.375 ], [ 148.125, -40.375 ], [ 148.125, -40.625 ], [ 148.375, -40.625 ], [ 148.375, -40.875 ], [ 148.625, -40.875 ], [ 148.625, -42.125 ], [ 148.375, -42.125 ], [ 148.375, -42.625 ], [ 148.125, -42.625 ], [ 148.125, -42.875 ], [ 147.875, -42.875 ], [ 147.875, -43.125 ], [ 147.375, -43.125 ], [ 147.375, -43.375 ], [ 147.125, -43.375 ], [ 147.125, -43.625 ], [ 145.875, -43.625 ], [ 145.875, -43.375 ], [ 145.625, -43.375 ], [ 145.625, -43.125 ], [ 145.375, -43.125 ], [ 145.375, -42.875 ], [ 145.125, -42.875 ], [ 145.125, -42.625 ], [ 144.875, -42.625 ], [ 144.875, -42.375 ], [ 145.125, -42.375 ], [ 145.125, -42.125 ], [ 144.875, -42.125 ], [ 144.875, -41.875 ], [ 144.625, -41.875 ], [ 144.625, -41.375 ], [ 144.375, -41.375 ], [ 144.375, -40.875 ], [ 144.625, -40.875 ], [ 144.625, -40.625 ], [ 144.875, -40.625 ], [ 144.875, -40.375 ], [ 145.125, -40.375 ], [ 145.125, -40.625 ] ] ], [ [ [ 149.875, -36.875 ], [ 149.625, -36.875 ], [ 149.625, -37.375 ], [ 149.375, -37.375 ], [ 149.375, -37.625 ], [ 148.875, -37.625 ], [ 148.875, -37.375 ], [ 149.125, -37.375 ], [ 149.125, -36.875 ], [ 149.375, -36.875 ], [ 149.375, -36.625 ], [ 149.625, -36.625 ], [ 149.625, -36.375 ], [ 149.875, -36.375 ], [ 149.875, -36.875 ] ] ], [ [ [ 150.625, -33.625 ], [ 150.375, -33.625 ], [ 150.375, -33.875 ], [ 150.625, -33.875 ], [ 150.625, -34.125 ], [ 150.875, -34.125 ], [ 150.875, -35.125 ], [ 150.625, -35.125 ], [ 150.625, -35.375 ], [ 150.375, -35.375 ], [ 150.375, -35.625 ], [ 150.125, -35.625 ], [ 150.125, -35.875 ], [ 149.875, -35.875 ], [ 149.875, -36.125 ], [ 149.625, -36.125 ], [ 149.625, -36.375 ], [ 148.875, -36.375 ], [ 148.875, -36.625 ], [ 148.625, -36.625 ], [ 148.625, -37.625 ], [ 148.875, -37.625 ], [ 148.875, -37.875 ], [ 148.625, -37.875 ], [ 148.625, -38.125 ], [ 148.125, -38.125 ], [ 148.125, -38.375 ], [ 147.375, -38.375 ], [ 147.375, -38.625 ], [ 147.125, -38.625 ], [ 147.125, -38.875 ], [ 146.625, -38.875 ], [ 146.625, -39.125 ], [ 145.875, -39.125 ], [ 145.875, -38.875 ], [ 145.375, -38.875 ], [ 145.375, -38.625 ], [ 145.125, -38.625 ], [ 145.125, -38.375 ], [ 144.375, -38.375 ], [ 144.375, -38.625 ], [ 144.125, -38.625 ], [ 144.125, -38.875 ], [ 143.875, -38.875 ], [ 143.875, -39.125 ], [ 143.125, -39.125 ], [ 143.125, -38.875 ], [ 142.625, -38.875 ], [ 142.625, -38.625 ], [ 141.125, -38.625 ], [ 141.125, -38.375 ], [ 140.625, -38.375 ], [ 140.625, -38.125 ], [ 141.625, -38.125 ], [ 141.625, -37.875 ], [ 142.125, -37.875 ], [ 142.125, -37.625 ], [ 144.125, -37.625 ], [ 144.125, -37.375 ], [ 144.875, -37.375 ], [ 144.875, -37.625 ], [ 146.125, -37.625 ], [ 146.125, -37.375 ], [ 146.375, -37.375 ], [ 146.375, -37.125 ], [ 146.875, -37.125 ], [ 146.875, -36.875 ], [ 147.625, -36.875 ], [ 147.625, -36.625 ], [ 148.125, -36.625 ], [ 148.125, -36.375 ], [ 148.375, -36.375 ], [ 148.375, -35.625 ], [ 148.625, -35.625 ], [ 148.625, -35.375 ], [ 148.875, -35.375 ], [ 148.875, -35.125 ], [ 149.375, -35.125 ], [ 149.375, -34.875 ], [ 149.625, -34.875 ], [ 149.625, -34.125 ], [ 149.875, -34.125 ], [ 149.875, -33.625 ], [ 150.125, -33.625 ], [ 150.125, -33.375 ], [ 150.375, -33.375 ], [ 150.375, -33.125 ], [ 150.625, -33.125 ], [ 150.625, -33.625 ] ] ], [ [ [ 151.875, -32.625 ], [ 151.375, -32.625 ], [ 151.375, -32.125 ], [ 151.875, -32.125 ], [ 151.875, -32.625 ] ] ] ] } },
{ "type": "Feature", "properties": { "cluster_id": 23, "cohesion": 9.5002088092882513, "distances": { "1": 37.45237689571013, "2": 43.9194861455107, "3": 32.70272419902051, "4": 29.163556330668015, "5": 37.970753541655334, "6": 34.18690740661264, "7": 34.63306892713402, "8": 31.562588091995345, "9": 29.17275972378764, "10": 18.999683675631882, "11": 24.761309928034446, "12": 33.26238764717641, "13": 32.27057867900434, "14": 30.63062760958893, "15": 28.434461249852003, "16": 16.188238058923638, "17": 25.28913168951644, "18": 25.255614690837, "19": 26.283663481386395, "20": 26.22382999674994, "21": 26.95354111107259, "22": 33.48846907364532, "24": 19.965894596828342, "25": 17.506656592839, "26": 28.213290696187098, "27": 23.53924777131491 } }, "geometry": { "type": "MultiPolygon", "coordinates": [ [ [ [ 135.875, -23.375 ], [ 135.875, -23.625 ], [ 136.375, -23.625 ], [ 136.375, -23.875 ], [ 136.625, -23.875 ], [ 136.625, -24.125 ], [ 137.125, -24.125 ], [ 137.125, -24.375 ], [ 137.375, -24.375 ], [ 137.375, -24.625 ], [ 137.875, -24.625 ], [ 137.875, -24.875 ], [ 138.625, -24.875 ], [ 138.625, -25.125 ], [ 138.875, -25.125 ], [ 138.875, -25.375 ], [ 139.625, -25.375 ], [ 139.625, -25.875 ], [ 140.125, -25.875 ], [ 140.125, -25.625 ], [ 140.375, -25.625 ], [ 140.375, -25.375 ], [ 140.125, -25.375 ], [ 140.125, -25.125 ], [ 139.875, -25.125 ], [ 139.875, -24.625 ], [ 140.625, -24.625 ], [ 140.625, -24.875 ], [ 140.875, -24.875 ], [ 140.875, -25.125 ], [ 141.375, -25.125 ], [ 141.375, -25.375 ], [ 141.625, -25.375 ], [ 141.625, -25.625 ], [ 141.875, -25.625 ], [ 141.875, -25.375 ], [ 142.125, -25.375 ], [ 142.125, -25.625 ], [ 142.375, -25.625 ], [ 142.375, -26.125 ], [ 142.625, -26.125 ], [ 142.625, -26.375 ], [ 143.125, -26.375 ], [ 143.125, -26.125 ], [ 143.625, -26.125 ], [ 143.625, -26.375 ], [ 143.875, -26.375 ], [ 143.875, -26.625 ], [ 144.375, -26.625 ], [ 144.375, -26.875 ], [ 145.125, -26.875 ], [ 145.125, -27.375 ], [ 144.625, -27.375 ], [ 144.625, -28.375 ], [ 144.375, -28.375 ], [ 144.375, -28.625 ], [ 143.625, -28.625 ], [ 143.625, -28.875 ], [ 143.375, -28.875 ], [ 143.375, -28.625 ], [ 143.125, -28.625 ], [ 143.125, -28.125 ], [ 142.625, -28.125 ], [ 142.625, -28.375 ], [ 142.125, -28.375 ], [ 142.125, -28.625 ], [ 141.625, -28.625 ], [ 141.625, -28.375 ], [ 140.375, -28.375 ], [ 140.375, -27.625 ], [ 140.125, -27.625 ], [ 140.125, -27.375 ], [ 139.875, -27.375 ], [ 139.875, -27.125 ], [ 139.375, -27.125 ], [ 139.375, -27.375 ], [ 138.625, -27.375 ], [ 138.625, -27.125 ], [ 138.375, -27.125 ], [ 138.375, -27.375 ], [ 137.875, -27.375 ], [ 137.875, -27.125 ], [ 137.625, -27.125 ], [ 137.625, -26.875 ], [ 137.375, -26.875 ], [ 137.375, -26.625 ], [ 137.125, -26.625 ], [ 137.125, -26.125 ], [ 136.875, -26.125 ], [ 136.875, -25.875 ], [ 136.625, -25.875 ], [ 136.625, -25.625 ], [ 136.125, -25.625 ], [ 136.125, -25.375 ], [ 135.875, -25.375 ], [ 135.875, -25.125 ], [ 135.625, -25.125 ], [ 135.625, -24.875 ], [ 134.625, -24.875 ], [ 134.625, -24.625 ], [ 134.375, -24.625 ], [ 134.375, -24.375 ], [ 134.125, -24.375 ], [ 134.125, -24.125 ], [ 134.375, -24.125 ], [ 134.375, -23.875 ], [ 134.625, -23.875 ], [ 134.625, -23.625 ], [ 134.375, -23.625 ], [ 134.375, -23.375 ], [ 135.875, -23.375 ] ] ], [ [ [ 133.875, -23.625 ], [ 133.875, -23.875 ], [ 133.625, -23.875 ], [ 133.625, -23.625 ], [ 133.875, -23.625 ] ] ] ] } },
{ "type": "Feature", "properties": { "cluster_id": 24, "cohesion": 10.650369281886626, "distances": { "1": 33.45800907195823, "2": 41.49195684238015, "3": 31.132751115924222, "4": 32.699732219357315, "5": 38.20800170544207, "6": 33.48652510036799, "7": 32.35632999443603, "8": 26.961806716683668, "9": 27.43000840515943, "10": 16.47722878225562, "11": 24.929263273477222, "12": 31.5717115307811, "13": 32.49177398885188, "14": 32.41699695396315, "15": 29.308229859315308, "16": 24.008225095087766, "17": 28.395578901948443, "18": 23.441673708477776, "19": 28.673123713013744, "20": 18.768238674153476, "21": 20.199080580230884, "22": 28.90494455420346, "23": 19.965894596828345, "25": 24.019395573202715, "26": 28.05860561524685, "27": 28.31513501030959 } }, "geometry": { "type": "Polygon", "coordinates": [ [ [ 146.375, -25.125 ], [ 146.375, -25.375 ], [ 145.875, -25.375 ], [ 145.875, -25.625 ], [ 145.625, -25.625 ], [ 145.625, -25.875 ], [ 145.125, -25.875 ], [ 145.125, -26.625 ], [ 144.875, -26.625 ], [ 144.875, -26.875 ], [ 145.125, -26.875 ], [ 145.125, -27.375 ], [ 144.625, -27.375 ], [ 144.625, -28.375 ], [ 144.875, -28.375 ], [ 144.875, -28.875 ], [ 145.125, -28.875 ], [ 145.125, -29.125 ], [ 146.625, -29.125 ], [ 146.625, -29.375 ], [ 146.875, -29.375 ], [ 146.875, -29.625 ], [ 147.125, -29.625 ], [ 147.125, -29.875 ], [ 147.625, -29.875 ], [ 147.625, -30.375 ], [ 147.875, -30.375 ], [ 147.875, -30.875 ], [ 148.125, -30.875 ], [ 148.125, -31.375 ], [ 148.625, -31.375 ], [ 148.625, -31.625 ], [ 148.375, -31.625 ], [ 148.375, -32.875 ], [ 148.625, -32.875 ], [ 148.625, -33.125 ], [ 149.375, -33.125 ], [ 149.375, -32.875 ], [ 149.625, -32.875 ], [ 149.625, -32.375 ], [ 149.875, -32.375 ], [ 149.875, -31.875 ], [ 150.625, -31.875 ], [ 150.625, -31.625 ], [ 150.875, -31.625 ], [ 150.875, -31.375 ], [ 151.375, -31.375 ], [ 151.375, -30.625 ], [ 151.625, -30.625 ], [ 151.625, -30.125 ], [ 151.375, -30.125 ], [ 151.375, -29.875 ], [ 151.625, -29.875 ], [ 151.625, -29.375 ], [ 151.875, -29.375 ], [ 151.875, -26.875 ], [ 151.625, -26.875 ], [ 151.625, -26.625 ], [ 151.125, -26.625 ], [ 151.125, -26.375 ], [ 149.125, -26.375 ], [ 149.125, -26.125 ], [ 148.875, -26.125 ], [ 148.875, -25.875 ], [ 149.125, -25.875 ], [ 149.125, -25.625 ], [ 148.375, -25.625 ], [ 148.375, -25.375 ], [ 148.125, -25.375 ], [ 148.125, -25.125 ], [ 146.375, -25.125 ] ] ] } },
{ "type": "Feature", "properties": { "cluster_id": 25, "cohesion": 12.448249369774194, "distances": { "1": 32.95327473316365, "2": 34.319073569358984, "3": 23.34318112878925, "4": 18.388861132333528, "5": 27.58206850111569, "6": 27.137029234914998, "7": 28.62714512329145, "8": 35.459560398856716, "9": 35.77699305833271, "10": 26.582339746958368, "11": 32.606461131067256, "12": 32.19351621883848, "13": 32.8193218865102, "14": 34.298618179853996, "15": 33.96793035500958, "16": 24.427893974503768, "17": 32.102318525170446, "18": 28.59718100764156, "19": 29.356709763280485, "20": 24.898650164783618, "21": 25.787781998599343, "22": 32.186325078195885, "23": 17.506656592839, "24": 24.01939557320271, "26": 26.344359946968908, "27": 20.205852858612015 } }, "geometry": { "type": "Polygon", "coordinates": [ [ [ 132.875, -21.875 ], [ 132.875, -22.125 ], [ 131.625, -22.125 ], [ 131.625, -22.375 ], [ 130.625, -22.375 ], [ 130.625, -22.625 ], [ 130.375, -22.625 ], [ 130.375, -22.875 ], [ 130.625, -22.875 ], [ 130.625, -23.125 ], [ 130.875, -23.125 ], [ 130.875, -23.625 ], [ 130.375, -23.625 ], [ 130.375, -23.875 ], [ 131.375, -23.875 ], [ 131.375, -24.125 ], [ 131.875, -24.125 ], [ 131.875, -23.875 ], [ 133.625, -23.875 ], [ 133.625, -23.625 ], [ 134.375, -23.625 ], [ 134.375, -23.375 ], [ 135.875, -23.375 ], [ 135.875, -23.625 ], [ 136.375, -23.625 ], [ 136.375, -23.875 ], [ 136.625, -23.875 ], [ 136.625, -24.125 ], [ 137.125, -24.125 ], [ 137.125, -24.375 ], [ 137.375, -24.375 ], [ 137.375, -24.625 ], [ 137.875, -24.625 ], [ 137.875, -24.875 ], [ 138.625, -24.875 ], [ 138.625, -25.125 ], [ 138.875, -25.125 ], [ 138.875, -25.375 ], [ 139.625, -25.375 ], [ 139.625, -25.875 ], [ 140.125, -25.875 ], [ 140.125, -25.625 ], [ 140.375, -25.625 ], [ 140.375, -25.375 ], [ 140.125, -25.375 ], [ 140.125, -25.125 ], [ 139.875, -25.125 ], [ 139.875, -24.625 ], [ 140.625, -24.625 ], [ 140.625, -24.875 ], [ 140.875, -24.875 ], [ 140.875, -25.125 ], [ 141.375, -25.125 ], [ 141.375, -25.375 ], [ 141.625, -25.375 ], [ 141.625, -25.625 ], [ 141.875, -25.625 ], [ 141.875, -25.375 ], [ 142.125, -25.375 ], [ 142.125, -25.625 ], [ 142.375, -25.625 ], [ 142.375, -26.125 ], [ 142.625, -26.125 ], [ 142.625, -26.375 ], [ 143.125, -26.375 ], [ 143.125, -26.125 ], [ 143.625, -26.125 ], [ 143.625, -26.375 ], [ 143.875, -26.375 ], [ 143.875, -26.625 ], [ 144.375, -26.625 ], [ 144.375, -26.875 ], [ 144.875, -26.875 ], [ 144.875, -26.625 ], [ 145.125, -26.625 ], [ 145.125, -25.875 ], [ 145.625, -25.875 ], [ 145.625, -25.625 ], [ 145.875, -25.625 ], [ 145.875, -25.375 ], [ 146.125, -25.375 ], [ 146.125, -25.125 ], [ 144.125, -25.125 ], [ 144.125, -24.625 ], [ 143.875, -24.625 ], [ 143.875, -24.125 ], [ 143.625, -24.125 ], [ 143.625, -23.875 ], [ 143.375, -23.875 ], [ 143.375, -23.625 ], [ 143.125, -23.625 ], [ 143.125, -23.375 ], [ 142.125, -23.375 ], [ 142.125, -23.125 ], [ 141.875, -23.125 ], [ 141.875, -22.625 ], [ 141.625, -22.625 ], [ 141.625, -22.375 ], [ 141.125, -22.375 ], [ 141.125, -22.625 ], [ 140.625, -22.625 ], [ 140.625, -22.375 ], [ 140.125, -22.375 ], [ 140.125, -22.625 ], [ 138.375, -22.625 ], [ 138.375, -22.375 ], [ 138.125, -22.375 ], [ 138.125, -22.125 ], [ 137.625, -22.125 ], [ 137.625, -21.875 ], [ 136.625, -21.875 ], [ 136.625, -22.125 ], [ 136.125, -22.125 ], [ 136.125, -21.875 ], [ 132.875, -21.875 ] ] ] } },
{ "type": "Feature", "properties": { "cluster_id": 26, "cohesion": 10.509140132943633, "distances": { "1": 30.880573824077022, "2": 33.41684504033476, "3": 29.366347432792406, "4": 26.19922975472816, "5": 28.831335896575204, "6": 17.95427098915288, "7": 24.112274488714142, "8": 28.919014041120448, "9": 30.825476657302424, "10": 29.334833480197965, "11": 29.876835494618334, "12": 30.240083297446983, "13": 31.98886419463211, "14": 32.072265680242566, "15": 33.08127792185212, "16": 27.241424042822807, "17": 30.896429622166863, "18": 19.911383515164804, "19": 22.392548334144355, "20": 27.40970962374966, "21": 24.422725821733767, "22": 25.686368300723245, "23": 28.213290696187105, "24": 28.05860561524685, "25": 26.344359946968915, "27": 17.63437006656142 } }, "geometry": { "type": "MultiPolygon", "coordinates": [ [ [ [ 120.375, -19.875 ], [ 119.625, -19.875 ], [ 119.625, -20.125 ], [ 119.125, -20.125 ], [ 119.125, -20.375 ], [ 118.625, -20.375 ], [ 118.625, -21.375 ], [ 119.125, -21.375 ], [ 119.125, -21.125 ], [ 119.625, -21.125 ], [ 119.625, -21.375 ], [ 120.375, -21.375 ], [ 120.375, -21.125 ], [ 120.625, -21.125 ], [ 120.625, -20.875 ], [ 121.125, -20.875 ], [ 121.125, -20.625 ], [ 122.375, -20.625 ], [ 122.375, -20.875 ], [ 122.625, -20.875 ], [ 122.625, -21.125 ], [ 123.125, -21.125 ], [ 123.125, -21.375 ], [ 124.125, -21.375 ], [ 124.125, -22.125 ], [ 124.375, -22.125 ], [ 124.375, -22.375 ], [ 123.125, -22.375 ], [ 123.125, -22.875 ], [ 122.125, -22.875 ], [ 122.125, -23.125 ], [ 121.875, -23.125 ], [ 121.875, -23.375 ], [ 121.125, -23.375 ], [ 121.125, -23.625 ], [ 120.125, -23.625 ], [ 120.125, -23.125 ], [ 119.125, -23.125 ], [ 119.125, -24.125 ], [ 118.125, -24.125 ], [ 118.125, -23.875 ], [ 117.875, -23.875 ], [ 117.875, -23.625 ], [ 117.625, -23.625 ], [ 117.625, -23.375 ], [ 117.375, -23.375 ], [ 117.375, -22.875 ], [ 117.125, -22.875 ], [ 117.125, -22.625 ], [ 116.625, -22.625 ], [ 116.625, -22.375 ], [ 116.375, -22.375 ], [ 116.375, -22.125 ], [ 116.125, -22.125 ], [ 116.125, -21.125 ], [ 116.375, -21.125 ], [ 116.375, -20.375 ], [ 117.875, -20.375 ], [ 117.875, -20.125 ], [ 118.625, -20.125 ], [ 118.625, -19.875 ], [ 119.125, -19.875 ], [ 119.125, -19.625 ], [ 120.375, -19.625 ], [ 120.375, -19.875 ] ] ], [ [ [ 120.375, -19.375 ], [ 120.625, -19.375 ], [ 120.625, -19.625 ], [ 120.375, -19.625 ], [ 120.375, -19.375 ] ] ] ] } },
{ "type": "Feature", "properties": { "cluster_id": 27, "cohesion": 11.237356485271251, "distances": { "1": 35.15718899262281, "2": 34.892669783203495, "3": 28.854403437293428, "4": 20.635705949279505, "5": 27.5655586718953, "6": 21.132024955125797, "7": 26.945578317587902, "8": 32.68753629594488, "9": 33.431346724919344, "10": 28.442809373882636, "11": 30.090678900756526, "12": 33.58041618513199, "13": 33.32502543758664, "14": 32.56531369206793, "15": 33.92383709844423, "16": 22.891954420783136, "17": 29.648957011432344, "18": 24.99950165027352, "19": 22.792766517433044, "20": 29.16577586993262, "21": 26.46607756770137, "22": 30.276865103308737, "23": 23.539247771314912, "24": 28.31513501030959, "25": 20.205852858612015, "26": 17.63437006656142 } }, "geometry": { "type": "Polygon", "coordinates": [ [ [ 128.375, -20.875 ], [ 128.375, -21.125 ], [ 128.125, -21.125 ], [ 128.125, -21.375 ], [ 127.875, -21.375 ], [ 127.875, -21.625 ], [ 127.625, -21.625 ], [ 127.625, -21.375 ], [ 126.875, -21.375 ], [ 126.875, -21.625 ], [ 126.375, -21.625 ], [ 126.375, -21.375 ], [ 125.375, -21.375 ], [ 125.375, -21.125 ], [ 124.125, -21.125 ], [ 124.125, -22.125 ], [ 124.375, -22.125 ], [ 124.375, -22.375 ], [ 123.125, -22.375 ], [ 123.125, -22.875 ], [ 122.125, -22.875 ], [ 122.125, -23.125 ], [ 121.875, -23.125 ], [ 121.875, -23.375 ], [ 121.625, -23.375 ], [ 121.625, -23.625 ], [ 121.875, -23.625 ], [ 121.875, -23.875 ], [ 123.125, -23.875 ], [ 123.125, -24.375 ], [ 124.625, -24.375 ], [ 124.625, -24.625 ], [ 126.875, -24.625 ], [ 126.875, -24.375 ], [ 128.875, -24.375 ], [ 128.875, -24.625 ], [ 130.125, -24.625 ], [ 130.125, -24.125 ], [ 130.375, -24.125 ], [ 130.375, -23.625 ], [ 130.875, -23.625 ], [ 130.875, -23.125 ], [ 130.625, -23.125 ], [ 130.625, -22.875 ], [ 130.375, -22.875 ], [ 130.375, -22.625 ], [ 130.625, -22.625 ], [ 130.625, -22.375 ], [ 130.875, -22.375 ], [ 130.875, -22.125 ], [ 130.125, -22.125 ], [ 130.125, -21.875 ], [ 129.875, -21.875 ], [ 129.875, -21.625 ], [ 128.875, -21.625 ], [ 128.875, -20.875 ], [ 128.375, -20.875 ] ] ] } }
]
}
