{
"type": "FeatureCollection",
"name": "6_clusters",
"crs": { "type": "name", "properties": { "name": "urn:ogc:def:crs:OGC:1.3:CRS84" } },
"features": [
{ "type": "Feature", "properties": { "cluster_id": 1, "cohesion": 20.036008785443393, "distances": { "2": 41.841840312904104, "3": 35.41445437254389, "4": 41.7421750519906, "5": 29.93459318659957, "6": 32.969413771556965 } }, "geometry": { "type": "Polygon", "coordinates": [ [ [ 142.125, -10.625 ], [ 142.125, -10.875 ], [ 141.875, -10.875 ], [ 141.875, -11.125 ], [ 141.625, -11.125 ], [ 141.625, -12.125 ], [ 141.375, -12.125 ], [ 141.375, -12.875 ], [ 141.125, -12.875 ], [ 141.125, -15.875 ], [ 140.875, -15.875 ], [ 140.875, -16.875 ], [ 140.625, -16.875 ], [ 140.625, -17.375 ], [ 139.625, -17.375 ], [ 139.625, -17.125 ], [ 139.375, -17.125 ], [ 139.375, -16.875 ], [ 139.125, -16.875 ], [ 139.125, -16.625 ], [ 138.875, -16.625 ], [ 138.875, -16.375 ], [ 138.125, -16.375 ], [ 138.125, -16.125 ], [ 137.875, -16.125 ], [ 137.875, -15.875 ], [ 137.375, -15.875 ], [ 137.375, -15.625 ], [ 136.625, -15.625 ], [ 136.625, -15.375 ], [ 136.375, -15.375 ], [ 136.375, -15.125 ], [ 136.125, -15.125 ], [ 136.125, -14.875 ], [ 135.875, -14.875 ], [ 135.875, -14.375 ], [ 136.125, -14.375 ], [ 136.125, -14.125 ], [ 136.375, -14.125 ], [ 136.375, -13.875 ], [ 136.125, -13.875 ], [ 136.125, -13.625 ], [ 136.375, -13.625 ], [ 136.375, -13.375 ], [ 136.625, -13.375 ], [ 136.625, -13.125 ], [ 136.875, -13.125 ], [ 136.875, -12.625 ], [ 137.125, -12.625 ], [ 137.125, -12.375 ], [ 136.875, -12.375 ], [ 136.875, -12.125 ], [ 136.625, -12.125 ], [ 136.625, -11.875 ], [ 135.625, -11.875 ], [ 135.625, -11.625 ], [ 135.375, -11.625 ], [ 135.375, -11.875 ], [ 134.875, -11.875 ], [ 134.875, -11.625 ], [ 133.875, -11.625 ], [ 133.875, -11.375 ], [ 133.125, -11.375 ], [ 133.125, -11.125 ], [ 132.625, -11.125 ], [ 132.625, -11.375 ], [ 132.375, -11.375 ], [ 132.375, -11.625 ], [ 132.125, -11.625 ], [ 132.125, -11.875 ], [ 131.625, -11.875 ], [ 131.625, -11.625 ], [ 131.875, -11.625 ], [ 131.875, -11.375 ], [ 131.625, -11.375 ], [ 131.625, -11.125 ], [ 131.375, -11.125 ], [ 131.375, -10.875 ], [ 131.125, -10.875 ], [ 131.125, -11.125 ], [ 130.625, -11.125 ], [ 130.625, -10.875 ], [ 130.375, -10.875 ], [ 130.375, -11.125 ], [ 130.125, -11.125 ], [ 130.125, -11.375 ], [ 129.875, -11.375 ], [ 129.875, -11.625 ], [ 130.125, -11.625 ], [ 130.125, -11.875 ], [ 130.375, -11.875 ], [ 130.375, -12.375 ], [ 130.125, -12.375 ], [ 130.125, -12.625 ], [ 129.875, -12.625 ], [ 129.875, -13.375 ], [ 129.625, -13.375 ], [ 129.625, -13.625 ], [ 129.375, -13.625 ], [ 129.375, -14.125 ], [ 129.125, -14.125 ], [ 129.125, -14.375 ], [ 129.375, -14.375 ], [ 129.375, -14.625 ], [ 128.375, -14.625 ], [ 128.375, -14.375 ], [ 128.125, -14.375 ], [ 128.125, -14.125 ], [ 127.875, -14.125 ], [ 127.875, -13.875 ], [ 127.625, -13.875 ], [ 127.625, -13.625 ], [ 126.625, -13.625 ], [ 126.625, -13.875 ], [ 126.125, -13.875 ], [ 126.125, -14.125 ], [ 125.375, -14.125 ], [ 125.375, -14.375 ], [ 125.125, -14.375 ], [ 125.125, -14.625 ], [ 124.875, -14.625 ], [ 124.875, -15.125 ], [ 124.625, -15.125 ], [ 124.625, -15.375 ], [ 124.375, -15.375 ], [ 124.375, -15.625 ], [ 124.125, -15.625 ], [ 124.125, -15.875 ], [ 123.625, -15.875 ], [ 123.625, -16.125 ], [ 123.375, -16.125 ], [ 123.375, -16.375 ], [ 122.625, -16.375 ], [ 122.625, -16.625 ], [ 122.375, -16.625 ], [ 122.375, -16.875 ], [ 122.125, -16.875 ], [ 122.125, -17.125 ], [ 121.875, -17.125 ], [ 121.875, -17.875 ], [ 122.125, -17.875 ], [ 122.125, -18.125 ], [ 121.875, -18.125 ], [ 121.875, -18.375 ], [ 121.625, -18.375 ], [ 121.625, -18.625 ], [ 121.375, -18.625 ], [ 121.375, -18.875 ], [ 121.125, -18.875 ], [ 121.125, -19.125 ], [ 120.875, -19.125 ], [ 120.875, -19.375 ], [ 120.625, -19.375 ], [ 120.625, -19.625 ], [ 120.375, -19.625 ], [ 120.375, -19.875 ], [ 119.625, -19.875 ], [ 119.625, -20.125 ], [ 119.125, -20.125 ], [ 119.125, -20.375 ], [ 118.625, -20.375 ], [ 118.625, -21.375 ], [ 119.125, -21.375 ], [ 119.125, -21.125 ], [ 119.625, -21.125 ], [ 119.625, -21.375 ], [ 120.375, -21.375 ], [ 120.375, -21.125 ], [ 120.625, -21.125 ], [ 120.625, -20.875 ], [ 121.125, -20.875 ], [ 121.125, -20.625 ], [ 122.375, -20.625 ], [ 122.375, -20.875 ], [ 122.625, -20.875 ], [ 122.625, -21.125 ], [ 123.125, -21.125 ], [ 123.125, -21.375 ], [ 124.125, -21.375 ], [ 124.125, -21.125 ], [ 125.375, -21.125 ], [ 125.375, -21.375 ], [ 126.375, -21.375 ], [ 126.375, -21.625 ], [ 126.875, -21.625 ], [ 126.875, -21.375 ], [ 127.625, -21.375 ], [ 127.625, -21.625 ], [ 127.875, -21.625 ], [ 127.875, -21.375 ], [ 128.125, -21.375 ], [ 128.125, -21.125 ], [ 128.375, -21.125 ], [ 128.375, -20.875 ], [ 128.875, -20.875 ], [ 128.875, -21.625 ], [ 129.875, -21.625 ], [ 129.875, -21.875 ], [ 130.125, -21.875 ], [ 130.125, -22.125 ], [ 130.875, -22.125 ], [ 130.875, -22.375 ], [ 131.625, -22.375 ], [ 131.625, -22.125 ], [ 132.875, -22.125 ], [ 132.875, -21.875 ], [ 136.125, -21.875 ], [ 136.125, -22.125 ], [ 136.625, -22.125 ], [ 136.625, -21.875 ], [ 137.625, -21.875 ], [ 137.625, -22.125 ], [ 138.125, -22.125 ], [ 138.125, -22.375 ], [ 138.375, -22.375 ], [ 138.375, -22.625 ], [ 140.125, -22.625 ], [ 140.125, -22.375 ], [ 140.625, -22.375 ], [ 140.625, -22.625 ], [ 141.125, -22.625 ], [ 141.125, -22.375 ], [ 141.625, -22.375 ], [ 141.625, -22.625 ], [ 141.875, -22.625 ], [ 141.875, -23.125 ], [ 142.125, -23.125 ], [ 142.125, -23.375 ], [ 142.875, -23.375 ], [ 142.875, -23.125 ], [ 143.125, -23.125 ], [ 143.125, -22.875 ], [ 143.375, -22.875 ], [ 143.375, -22.375 ], [ 143.625, -22.375 ], [ 143.625, -21.625 ], [ 143.875, -21.625 ], [ 143.875, -21.375 ], [ 144.375, -21.375 ], [ 144.375, -20.875 ], [ 144.125, -20.875 ], [ 144.125, -20.625 ], [ 143.875, -20.625 ], [ 143.875, -20.375 ], [ 143.625, -20.375 ], [ 143.625, -19.625 ], [ 144.125, -19.625 ], [ 144.125, -19.875 ], [ 145.875, -19.875 ], [ 145.875, -19.625 ], [ 145.625, -19.625 ], [ 145.625, -19.375 ], [ 145.375, -19.375 ], [ 145.375, -19.125 ], [ 145.125, -19.125 ], [ 145.125, -18.375 ], [ 145.375, -18.375 ], [ 145.375, -18.625 ], [ 145.875, -18.625 ], [ 145.875, -18.875 ], [ 146.125, -18.875 ], [ 146.125, -19.125 ], [ 146.875, -19.125 ], [ 146.875, -19.375 ], [ 147.125, -19.375 ], [ 147.125, -19.625 ], [ 147.375, -19.625 ], [ 147.375, -20.125 ], [ 147.625, -20.125 ], [ 147.625, -20.375 ], [ 148.125, -20.375 ], [ 148.125, -20.625 ], [ 148.375, -20.625 ], [ 148.375, -20.375 ], [ 148.625, -20.375 ], [ 148.625, -20.625 ], [ 148.875, -20.625 ], [ 148.875, -20.875 ], [ 149.125, -20.875 ], [ 149.125, -20.375 ], [ 148.875, -20.375 ], [ 148.875, -20.125 ], [ 148.625, -20.125 ], [ 148.625, -19.875 ], [ 148.375, -19.875 ], [ 148.375, -19.625 ], [ 147.875, -19.625 ], [ 147.875, -19.375 ], [ 147.625, -19.375 ], [ 147.625, -19.125 ], [ 147.375, -19.125 ], [ 147.375, -18.875 ], [ 146.625, -18.875 ], [ 146.625, -18.125 ], [ 146.375, -18.125 ], [ 146.375, -17.875 ], [ 146.625, -17.875 ], [ 146.625, -17.375 ], [ 146.375, -17.375 ], [ 146.375, -17.125 ], [ 146.125, -17.125 ], [ 146.125, -16.875 ], [ 145.875, -16.875 ], [ 145.875, -16.125 ], [ 145.625, -16.125 ], [ 145.625, -14.875 ], [ 145.375, -14.875 ], [ 145.375, -14.625 ], [ 145.125, -14.625 ], [ 145.125, -14.375 ], [ 144.875, -14.375 ], [ 144.875, -14.125 ], [ 144.625, -14.125 ], [ 144.625, -13.875 ], [ 143.875, -13.875 ], [ 143.875, -12.875 ], [ 143.625, -12.875 ], [ 143.625, -12.375 ], [ 143.375, -12.375 ], [ 143.375, -11.875 ], [ 143.125, -11.875 ], [ 143.125, -11.125 ], [ 142.875, -11.125 ], [ 142.875, -10.875 ], [ 142.625, -10.875 ], [ 142.625, -10.625 ], [ 142.125, -10.625 ] ], [ [ 130.625, -11.875 ], [ 130.875, -11.875 ], [ 130.875, -12.125 ], [ 130.625, -12.125 ], [ 130.625, -11.875 ] ] ] } },
{ "type": "Feature", "properties": { "cluster_id": 2, "cohesion": 17.439571397780551, "distances": { "1": 41.841840312904104, "3": 34.27454350043679, "4": 27.862924820144887, "5": 27.978981794515448, "6": 28.12922488131363 } }, "geometry": { "type": "MultiPolygon", "coordinates": [ [ [ [ 149.125, -36.375 ], [ 149.125, -36.625 ], [ 148.875, -36.625 ], [ 148.875, -36.375 ], [ 149.125, -36.375 ] ] ], [ [ [ 135.375, -27.375 ], [ 135.375, -27.625 ], [ 135.875, -27.625 ], [ 135.875, -28.125 ], [ 136.625, -28.125 ], [ 136.625, -28.375 ], [ 136.875, -28.375 ], [ 136.875, -28.625 ], [ 137.125, -28.625 ], [ 137.125, -28.875 ], [ 137.375, -28.875 ], [ 137.375, -29.625 ], [ 137.625, -29.625 ], [ 137.625, -29.875 ], [ 138.375, -29.875 ], [ 138.375, -29.625 ], [ 138.125, -29.625 ], [ 138.125, -29.375 ], [ 137.875, -29.375 ], [ 137.875, -29.125 ], [ 137.625, -29.125 ], [ 137.625, -28.625 ], [ 137.875, -28.625 ], [ 137.875, -28.875 ], [ 138.375, -28.875 ], [ 138.375, -29.125 ], [ 138.625, -29.125 ], [ 138.625, -29.375 ], [ 139.375, -29.375 ], [ 139.375, -29.125 ], [ 140.125, -29.125 ], [ 140.125, -29.375 ], [ 140.375, -29.375 ], [ 140.375, -29.625 ], [ 141.125, -29.625 ], [ 141.125, -29.375 ], [ 140.625, -29.375 ], [ 140.625, -29.125 ], [ 140.375, -29.125 ], [ 140.375, -28.375 ], [ 141.625, -28.375 ], [ 141.625, -28.625 ], [ 142.125, -28.625 ], [ 142.125, -28.375 ], [ 142.625, -28.375 ], [ 142.625, -28.125 ], [ 143.125, -28.125 ], [ 143.125, -28.625 ], [ 143.375, -28.625 ], [ 143.375, -28.875 ], [ 143.625, -28.875 ], [ 143.625, -28.625 ], [ 144.375, -28.625 ], [ 144.375, -28.375 ], [ 144.875, -28.375 ], [ 144.875, -28.875 ], [ 145.125, -28.875 ], [ 145.125, -29.125 ], [ 146.625, -29.125 ], [ 146.625, -29.375 ], [ 146.875, -29.375 ], [ 146.875, -29.625 ], [ 147.125, -29.625 ], [ 147.125, -29.875 ], [ 147.625, -29.875 ], [ 147.625, -30.375 ], [ 147.875, -30.375 ], [ 147.875, -30.875 ], [ 148.125, -30.875 ], [ 148.125, -31.375 ], [ 148.625, -31.375 ], [ 148.625, -31.625 ], [ 148.375, -31.625 ], [ 148.375, -32.875 ], [ 148.625, -32.875 ], [ 148.625, -33.125 ], [ 148.875, -33.125 ], [ 148.875, -33.375 ], [ 149.125, -33.375 ], [ 149.125, -34.375 ], [ 148.875, -34.375 ], [ 148.875, -34.625 ], [ 148.625, -34.625 ], [ 148.625, -34.875 ], [ 147.875, -34.875 ], [ 147.875, -35.125 ], [ 148.125, -35.125 ], [ 148.125, -35.375 ], [ 148.375, -35.375 ], [ 148.375, -36.375 ], [ 148.125, -36.375 ], [ 148.125, -36.625 ], [ 147.625, -36.625 ], [ 147.625, -36.875 ], [ 146.875, -36.875 ], [ 146.875, -37.125 ], [ 146.375, -37.125 ], [ 146.375, -37.375 ], [ 146.125, -37.375 ], [ 146.125, -37.625 ], [ 144.875, -37.625 ], [ 144.875, -37.375 ], [ 144.125, -37.375 ], [ 144.125, -37.625 ], [ 142.125, -37.625 ], [ 142.125, -37.875 ], [ 141.625, -37.875 ], [ 141.625, -38.125 ], [ 140.125, -38.125 ], [ 140.125, -37.875 ], [ 139.875, -37.875 ], [ 139.875, -37.625 ], [ 139.625, -37.625 ], [ 139.625, -37.375 ], [ 139.375, -37.375 ], [ 139.375, -36.125 ], [ 139.125, -36.125 ], [ 139.125, -35.875 ], [ 138.625, -35.875 ], [ 138.625, -35.625 ], [ 138.375, -35.625 ], [ 138.375, -35.375 ], [ 138.125, -35.375 ], [ 138.125, -34.625 ], [ 137.875, -34.625 ], [ 137.875, -34.875 ], [ 137.625, -34.875 ], [ 137.625, -34.625 ], [ 137.375, -34.625 ], [ 137.375, -34.375 ], [ 137.125, -34.375 ], [ 137.125, -34.125 ], [ 136.625, -34.125 ], [ 136.625, -34.375 ], [ 136.375, -34.375 ], [ 136.375, -34.625 ], [ 136.125, -34.625 ], [ 136.125, -34.875 ], [ 135.375, -34.875 ], [ 135.375, -34.625 ], [ 135.125, -34.625 ], [ 135.125, -34.375 ], [ 134.875, -34.375 ], [ 134.875, -33.875 ], [ 134.625, -33.875 ], [ 134.625, -33.625 ], [ 134.375, -33.625 ], [ 134.375, -33.375 ], [ 134.125, -33.375 ], [ 134.125, -33.125 ], [ 133.875, -33.125 ], [ 133.875, -32.625 ], [ 133.625, -32.625 ], [ 133.625, -32.375 ], [ 132.125, -32.375 ], [ 132.125, -31.875 ], [ 133.625, -31.875 ], [ 133.625, -31.125 ], [ 133.125, -31.125 ], [ 133.125, -30.875 ], [ 132.875, -30.875 ], [ 132.875, -30.625 ], [ 133.125, -30.625 ], [ 133.125, -30.375 ], [ 133.375, -30.375 ], [ 133.375, -30.125 ], [ 133.875, -30.125 ], [ 133.875, -29.375 ], [ 134.125, -29.375 ], [ 134.125, -28.625 ], [ 134.375, -28.625 ], [ 134.375, -27.875 ], [ 134.625, -27.875 ], [ 134.625, -27.375 ], [ 135.375, -27.375 ] ] ] ] } },
{ "type": "Feature", "properties": { "cluster_id": 3, "cohesion": 13.173986602218351, "distances": { "1": 35.41445437254389, "2": 34.27454350043679, "4": 26.155063787792994, "5": 29.199068424516657, "6": 32.46266691189007 } }, "geometry": { "type": "Polygon", "coordinates": [ [ [ 118.375, -30.125 ], [ 118.375, -30.375 ], [ 118.125, -30.375 ], [ 118.125, -30.625 ], [ 117.875, -30.625 ], [ 117.875, -30.875 ], [ 116.375, -30.875 ], [ 116.375, -30.625 ], [ 115.625, -30.625 ], [ 115.625, -30.375 ], [ 115.375, -30.375 ], [ 115.375, -30.625 ], [ 115.125, -30.625 ], [ 115.125, -30.875 ], [ 114.875, -30.875 ], [ 114.875, -31.125 ], [ 115.125, -31.125 ], [ 115.125, -31.375 ], [ 115.375, -31.375 ], [ 115.375, -33.375 ], [ 115.125, -33.375 ], [ 115.125, -33.625 ], [ 114.875, -33.625 ], [ 114.875, -33.875 ], [ 114.625, -33.875 ], [ 114.625, -34.125 ], [ 114.875, -34.125 ], [ 114.875, -34.375 ], [ 115.125, -34.375 ], [ 115.125, -34.625 ], [ 115.625, -34.625 ], [ 115.625, -34.875 ], [ 115.875, -34.875 ], [ 115.875, -35.125 ], [ 116.125, -35.125 ], [ 116.125, -35.375 ], [ 118.375, -35.375 ], [ 118.375, -35.125 ], [ 118.625, -35.125 ], [ 118.625, -34.875 ], [ 119.375, -34.875 ], [ 119.375, -34.625 ], [ 119.625, -34.625 ], [ 119.625, -34.375 ], [ 120.875, -34.375 ], [ 120.875, -34.125 ], [ 122.125, -34.125 ], [ 122.125, -34.375 ], [ 123.625, -34.375 ], [ 123.625, -34.125 ], [ 123.875, -34.125 ], [ 123.875, -33.875 ], [ 124.125, -33.875 ], [ 124.125, -33.625 ], [ 124.375, -33.625 ], [ 124.375, -33.375 ], [ 124.875, -33.375 ], [ 124.875, -33.125 ], [ 125.375, -33.125 ], [ 125.375, -32.625 ], [ 125.625, -32.625 ], [ 125.625, -32.375 ], [ 125.875, -32.375 ], [ 125.875, -32.125 ], [ 126.375, -32.125 ], [ 126.375, -31.875 ], [ 126.875, -31.875 ], [ 126.875, -31.625 ], [ 125.125, -31.625 ], [ 125.125, -31.875 ], [ 123.625, -31.875 ], [ 123.625, -31.625 ], [ 123.125, -31.625 ], [ 123.125, -31.375 ], [ 121.625, -31.375 ], [ 121.625, -30.875 ], [ 121.125, -30.875 ], [ 121.125, -30.625 ], [ 120.375, -30.625 ], [ 120.375, -30.375 ], [ 119.625, -30.375 ], [ 119.625, -30.125 ], [ 118.375, -30.125 ] ] ] } },
{ "type": "Feature", "properties": { "cluster_id": 4, "cohesion": 19.151744428067687, "distances": { "1": 41.74217505199064, "2": 27.862924820144865, "3": 26.155063787792976, "5": 31.088563052011132, "6": 28.062860813755112 } }, "geometry": { "type": "MultiPolygon", "coordinates": [ [ [ [ 137.625, -28.875 ], [ 137.625, -29.125 ], [ 137.875, -29.125 ], [ 137.875, -29.375 ], [ 138.125, -29.375 ], [ 138.125, -29.625 ], [ 138.375, -29.625 ], [ 138.375, -29.875 ], [ 137.625, -29.875 ], [ 137.625, -29.625 ], [ 137.375, -29.625 ], [ 137.375, -28.875 ], [ 137.625, -28.875 ] ] ], [ [ [ 116.375, -20.625 ], [ 116.375, -21.125 ], [ 116.125, -21.125 ], [ 116.125, -22.125 ], [ 116.375, -22.125 ], [ 116.375, -22.375 ], [ 116.625, -22.375 ], [ 116.625, -22.625 ], [ 117.125, -22.625 ], [ 117.125, -22.875 ], [ 117.375, -22.875 ], [ 117.375, -23.375 ], [ 117.625, -23.375 ], [ 117.625, -23.625 ], [ 117.875, -23.625 ], [ 117.875, -23.875 ], [ 118.125, -23.875 ], [ 118.125, -24.125 ], [ 119.125, -24.125 ], [ 119.125, -23.125 ], [ 120.125, -23.125 ], [ 120.125, -23.625 ], [ 121.125, -23.625 ], [ 121.125, -23.375 ], [ 121.625, -23.375 ], [ 121.625, -23.625 ], [ 121.875, -23.625 ], [ 121.875, -23.875 ], [ 123.125, -23.875 ], [ 123.125, -24.375 ], [ 124.625, -24.375 ], [ 124.625, -24.625 ], [ 126.875, -24.625 ], [ 126.875, -24.375 ], [ 128.875, -24.375 ], [ 128.875, -24.625 ], [ 130.125, -24.625 ], [ 130.125, -24.125 ], [ 130.375, -24.125 ], [ 130.375, -23.875 ], [ 131.375, -23.875 ], [ 131.375, -24.125 ], [ 131.875, -24.125 ], [ 131.875, -23.875 ], [ 133.875, -23.875 ], [ 133.875, -23.625 ], [ 134.625, -23.625 ], [ 134.625, -23.875 ], [ 134.375, -23.875 ], [ 134.375, -24.125 ], [ 134.125, -24.125 ], [ 134.125, -24.375 ], [ 134.375, -24.375 ], [ 134.375, -24.625 ], [ 134.625, -24.625 ], [ 134.625, -24.875 ], [ 135.625, -24.875 ], [ 135.625, -25.125 ], [ 135.875, -25.125 ], [ 135.875, -25.375 ], [ 136.125, -25.375 ], [ 136.125, -25.625 ], [ 136.625, -25.625 ], [ 136.625, -25.875 ], [ 136.875, -25.875 ], [ 136.875, -26.125 ], [ 137.125, -26.125 ], [ 137.125, -26.625 ], [ 137.375, -26.625 ], [ 137.375, -26.875 ], [ 137.625, -26.875 ], [ 137.625, -27.125 ], [ 137.875, -27.125 ], [ 137.875, -27.375 ], [ 138.375, -27.375 ], [ 138.375, -27.125 ], [ 138.625, -27.125 ], [ 138.625, -27.375 ], [ 139.375, -27.375 ], [ 139.375, -27.125 ], [ 139.875, -27.125 ], [ 139.875, -27.375 ], [ 140.125, -27.375 ], [ 140.125, -27.625 ], [ 140.375, -27.625 ], [ 140.375, -29.125 ], [ 140.625, -29.125 ], [ 140.625, -29.375 ], [ 141.125, -29.375 ], [ 141.125, -29.625 ], [ 140.375, -29.625 ], [ 140.375, -29.375 ], [ 140.125, -29.375 ], [ 140.125, -29.125 ], [ 139.375, -29.125 ], [ 139.375, -29.375 ], [ 138.625, -29.375 ], [ 138.625, -29.125 ], [ 138.375, -29.125 ], [ 138.375, -28.875 ], [ 137.875, -28.875 ], [ 137.875, -28.625 ], [ 137.375, -28.625 ], [ 137.375, -28.375 ], [ 137.125, -28.375 ], [ 137.125, -28.625 ], [ 136.875, -28.625 ], [ 136.875, -28.375 ], [ 136.625, -28.375 ], [ 136.625, -28.125 ], [ 135.875, -28.125 ], [ 135.875, -27.625 ], [ 135.375, -27.625 ], [ 135.375, -27.375 ], [ 134.625, -27.375 ], [ 134.625, -27.875 ], [ 134.375, -27.875 ], [ 134.375, -28.625 ], [ 134.125, -28.625 ], [ 134.125, -29.375 ], [ 133.875, -29.375 ], [ 133.875, -30.125 ], [ 133.375, -30.125 ], [ 133.375, -30.375 ], [ 133.125, -30.375 ], [ 133.125, -30.625 ], [ 132.875, -30.625 ], [ 132.875, -30.875 ], [ 133.125, -30.875 ], [ 133.125, -31.125 ], [ 133.625, -31.125 ], [ 133.625, -31.875 ], [ 132.125, -31.875 ], [ 132.125, -32.125 ], [ 131.625, -32.125 ], [ 131.625, -31.875 ], [ 129.375, -31.875 ], [ 129.375, -32.125 ], [ 128.375, -32.125 ], [ 128.375, -32.375 ], [ 127.375, -32.375 ], [ 127.375, -32.625 ], [ 125.875, -32.625 ], [ 125.875, -32.875 ], [ 125.375, -32.875 ], [ 125.375, -32.625 ], [ 125.625, -32.625 ], [ 125.625, -32.375 ], [ 125.875, -32.375 ], [ 125.875, -32.125 ], [ 126.375, -32.125 ], [ 126.375, -31.875 ], [ 126.875, -31.875 ], [ 126.875, -31.625 ], [ 125.125, -31.625 ], [ 125.125, -31.875 ], [ 123.625, -31.875 ], [ 123.625, -31.625 ], [ 123.125, -31.625 ], [ 123.125, -31.375 ], [ 121.625, -31.375 ], [ 121.625, -30.875 ], [ 121.125, -30.875 ], [ 121.125, -30.625 ], [ 120.375, -30.625 ], [ 120.375, -30.375 ], [ 119.625, -30.375 ], [ 119.625, -30.125 ], [ 118.375, -30.125 ], [ 118.375, -30.375 ], [ 118.125, -30.375 ], [ 118.125, -30.625 ], [ 117.875, -30.625 ], [ 117.875, -30.875 ], [ 116.375, -30.875 ], [ 116.375, -30.625 ], [ 115.625, -30.625 ], [ 115.625, -30.375 ], [ 115.375, -30.375 ], [ 115.375, -30.625 ], [ 115.125, -30.625 ], [ 115.125, -30.875 ], [ 114.875, -30.875 ], [ 114.875, -30.625 ], [ 114.625, -30.625 ], [ 114.625, -29.125 ], [ 114.375, -29.125 ], [ 114.375, -28.625 ], [ 114.125, -28.625 ], [ 114.125, -28.125 ], [ 113.875, -28.125 ], [ 113.875, -27.875 ], [ 113.625, -27.875 ], [ 113.625, -27.125 ], [ 113.375, -27.125 ], [ 113.375, -26.375 ], [ 113.625, -26.375 ], [ 113.625, -26.125 ], [ 113.875, -26.125 ], [ 113.875, -25.875 ], [ 113.625, -25.875 ], [ 113.625, -25.375 ], [ 113.375, -25.375 ], [ 113.375, -24.875 ], [ 113.125, -24.875 ], [ 113.125, -23.625 ], [ 113.375, -23.625 ], [ 113.375, -22.375 ], [ 113.625, -22.375 ], [ 113.625, -22.125 ], [ 113.875, -22.125 ], [ 113.875, -21.875 ], [ 114.375, -21.875 ], [ 114.375, -21.625 ], [ 114.625, -21.625 ], [ 114.625, -21.375 ], [ 115.125, -21.375 ], [ 115.125, -21.125 ], [ 115.625, -21.125 ], [ 115.625, -20.875 ], [ 115.875, -20.875 ], [ 115.875, -20.625 ], [ 116.375, -20.625 ] ] ] ] } },
{ "type": "Feature", "properties": { "cluster_id": 5, "cohesion": 19.744769140684109, "distances": { "1": 29.934593186599564, "2": 27.978981794515473, "3": 29.19906842451666, "4": 31.08856305201112, "6": 26.153559208549833 } }, "geometry": { "type": "MultiPolygon", "coordinates": [ [ [ [ 145.125, -40.375 ], [ 145.125, -40.625 ], [ 146.125, -40.625 ], [ 146.125, -40.875 ], [ 146.625, -40.875 ], [ 146.625, -40.625 ], [ 147.875, -40.625 ], [ 147.875, -40.375 ], [ 148.125, -40.375 ], [ 148.125, -40.625 ], [ 148.375, -40.625 ], [ 148.375, -40.875 ], [ 148.625, -40.875 ], [ 148.625, -42.125 ], [ 148.375, -42.125 ], [ 148.375, -42.625 ], [ 148.125, -42.625 ], [ 148.125, -42.875 ], [ 147.875, -42.875 ], [ 147.875, -43.125 ], [ 147.375, -43.125 ], [ 147.375, -43.375 ], [ 147.125, -43.375 ], [ 147.125, -43.625 ], [ 145.875, -43.625 ], [ 145.875, -43.375 ], [ 145.625, -43.375 ], [ 145.625, -43.125 ], [ 145.375, -43.125 ], [ 145.375, -42.875 ], [ 145.125, -42.875 ], [ 145.125, -42.625 ], [ 144.875, -42.625 ], [ 144.875, -42.375 ], [ 145.125, -42.375 ], [ 145.125, -42.125 ], [ 144.875, -42.125 ], [ 144.875, -41.875 ], [ 144.625, -41.875 ], [ 144.625, -41.375 ], [ 144.375, -41.375 ], [ 144.375, -40.875 ], [ 144.625, -40.875 ], [ 144.625, -40.625 ], [ 144.875, -40.625 ], [ 144.875, -40.375 ], [ 145.125, -40.375 ] ] ], [ [ [ 145.375, -18.375 ], [ 145.375, -18.625 ], [ 145.875, -18.625 ], [ 145.875, -18.875 ], [ 146.125, -18.875 ], [ 146.125, -19.125 ], [ 146.875, -19.125 ], [ 146.875, -19.375 ], [ 147.125, -19.375 ], [ 147.125, -19.625 ], [ 147.375, -19.625 ], [ 147.375, -20.125 ], [ 147.625, -20.125 ], [ 147.625, -20.375 ], [ 148.125, -20.375 ], [ 148.125, -20.625 ], [ 148.375, -20.625 ], [ 148.375, -20.375 ], [ 148.625, -20.375 ], [ 148.625, -20.625 ], [ 148.875, -20.625 ], [ 148.875, -20.875 ], [ 149.375, -20.875 ], [ 149.375, -21.125 ], [ 149.625, -21.125 ], [ 149.625, -21.625 ], [ 149.875, -21.625 ], [ 149.875, -22.125 ], [ 150.625, -22.125 ], [ 150.625, -22.375 ], [ 150.875, -22.375 ], [ 150.875, -22.625 ], [ 151.125, -22.625 ], [ 151.125, -23.375 ], [ 151.375, -23.375 ], [ 151.375, -23.625 ], [ 151.875, -23.625 ], [ 151.875, -23.875 ], [ 152.125, -23.875 ], [ 152.125, -24.125 ], [ 152.375, -24.125 ], [ 152.375, -24.625 ], [ 152.625, -24.625 ], [ 152.625, -24.875 ], [ 152.875, -24.875 ], [ 152.875, -25.125 ], [ 153.125, -25.125 ], [ 153.125, -25.375 ], [ 153.375, -25.375 ], [ 153.375, -25.875 ], [ 153.625, -25.875 ], [ 153.625, -26.125 ], [ 153.375, -26.125 ], [ 153.375, -26.375 ], [ 153.625, -26.375 ], [ 153.625, -27.625 ], [ 153.875, -27.625 ], [ 153.875, -29.125 ], [ 153.625, -29.125 ], [ 153.625, -30.125 ], [ 153.375, -30.125 ], [ 153.375, -31.375 ], [ 153.125, -31.375 ], [ 153.125, -31.875 ], [ 152.875, -31.875 ], [ 152.875, -32.375 ], [ 152.625, -32.375 ], [ 152.625, -32.625 ], [ 152.375, -32.625 ], [ 152.375, -32.875 ], [ 152.125, -32.875 ], [ 152.125, -33.125 ], [ 151.875, -33.125 ], [ 151.875, -33.375 ], [ 151.625, -33.375 ], [ 151.625, -34.125 ], [ 151.375, -34.125 ], [ 151.375, -34.375 ], [ 151.125, -34.375 ], [ 151.125, -35.125 ], [ 150.875, -35.125 ], [ 150.875, -35.375 ], [ 150.625, -35.375 ], [ 150.625, -36.375 ], [ 150.375, -36.375 ], [ 150.375, -37.375 ], [ 150.125, -37.375 ], [ 150.125, -37.625 ], [ 149.875, -37.625 ], [ 149.875, -37.875 ], [ 149.625, -37.875 ], [ 149.625, -38.125 ], [ 148.125, -38.125 ], [ 148.125, -38.375 ], [ 147.375, -38.375 ], [ 147.375, -38.625 ], [ 147.125, -38.625 ], [ 147.125, -38.875 ], [ 146.625, -38.875 ], [ 146.625, -39.125 ], [ 145.875, -39.125 ], [ 145.875, -38.875 ], [ 145.375, -38.875 ], [ 145.375, -38.625 ], [ 145.125, -38.625 ], [ 145.125, -38.375 ], [ 144.375, -38.375 ], [ 144.375, -38.625 ], [ 144.125, -38.625 ], [ 144.125, -38.875 ], [ 143.875, -38.875 ], [ 143.875, -39.125 ], [ 143.125, -39.125 ], [ 143.125, -38.875 ], [ 142.625, -38.875 ], [ 142.625, -38.625 ], [ 141.125, -38.625 ], [ 141.125, -38.375 ], [ 140.625, -38.375 ], [ 140.625, -38.125 ], [ 141.625, -38.125 ], [ 141.625, -37.875 ], [ 142.125, -37.875 ], [ 142.125, -37.625 ], [ 144.125, -37.625 ], [ 144.125, -37.375 ], [ 144.875, -37.375 ], [ 144.875, -37.625 ], [ 146.125, -37.625 ], [ 146.125, -37.375 ], [ 146.375, -37.375 ], [ 146.375, -37.125 ], [ 146.875, -37.125 ], [ 146.875, -36.875 ], [ 147.625, -36.875 ], [ 147.625, -36.625 ], [ 148.125, -36.625 ], [ 148.125, -36.375 ], [ 148.375, -36.375 ], [ 148.375, -35.375 ], [ 148.125, -35.375 ], [ 148.125, -35.125 ], [ 147.875, -35.125 ], [ 147.875, -34.875 ], [ 148.625, -34.875 ], [ 148.625, -34.625 ], [ 148.875, -34.625 ], [ 148.875, -34.375 ], [ 149.125, -34.375 ], [ 149.125, -33.375 ], [ 148.875, -33.375 ], [ 148.875, -33.125 ], [ 149.375, -33.125 ], [ 149.375, -32.875 ], [ 149.625, -32.875 ], [ 149.625, -32.375 ], [ 149.875, -32.375 ], [ 149.875, -31.875 ], [ 150.625, -31.875 ], [ 150.625, -31.625 ], [ 150.875, -31.625 ], [ 150.875, -31.375 ], [ 151.375, -31.375 ], [ 151.375, -30.625 ], [ 151.625, -30.625 ], [ 151.625, -30.125 ], [ 151.375, -30.125 ], [ 151.375, -29.875 ], [ 151.625, -29.875 ], [ 151.625, -29.375 ], [ 151.875, -29.375 ], [ 151.875, -26.875 ], [ 151.625, -26.875 ], [ 151.625, -26.625 ], [ 151.125, -26.625 ], [ 151.125, -26.375 ], [ 149.125, -26.375 ], [ 149.125, -26.125 ], [ 148.875, -26.125 ], [ 148.875, -25.875 ], [ 149.125, -25.875 ], [ 149.125, -25.625 ], [ 148.375, -25.625 ], [ 148.375, -25.375 ], [ 148.125, -25.375 ], [ 148.125, -25.125 ], [ 146.375, -25.125 ], [ 146.375, -25.375 ], [ 146.125, -25.375 ], [ 146.125, -25.125 ], [ 144.125, -25.125 ], [ 144.125, -24.625 ], [ 143.875, -24.625 ], [ 143.875, -24.125 ], [ 143.625, -24.125 ], [ 143.625, -23.875 ], [ 143.375, -23.875 ], [ 143.375, -23.625 ], [ 143.125, -23.625 ], [ 143.125, -23.375 ], [ 142.875, -23.375 ], [ 142.875, -23.125 ], [ 143.125, -23.125 ], [ 143.125, -22.875 ], [ 143.375, -22.875 ], [ 143.375, -22.375 ], [ 143.625, -22.375 ], [ 143.625, -21.625 ], [ 143.875, -21.625 ], [ 143.875, -21.375 ], [ 144.375, -21.375 ], [ 144.375, -20.875 ], [ 144.125, -20.875 ], [ 144.125, -20.625 ], [ 143.875, -20.625 ], [ 143.875, -20.375 ], [ 143.625, -20.375 ], [ 143.625, -19.625 ], [ 144.125, -19.625 ], [ 144.125, -19.875 ], [ 145.875, -19.875 ], [ 145.875, -19.625 ], [ 145.625, -19.625 ], [ 145.625, -19.375 ], [ 145.375, -19.375 ], [ 145.375, -19.125 ], [ 145.125, -19.125 ], [ 145.125, -18.375 ], [ 145.375, -18.375 ] ], [ [ 148.875, -36.625 ], [ 149.125, -36.625 ], [ 149.125, -36.375 ], [ 148.875, -36.375 ], [ 148.875, -36.625 ] ] ] ] } },
{ "type": "Feature", "properties": { "cluster_id": 6, "cohesion": 20.785294425654076, "distances": { "1": 32.96941377155699, "2": 28.129224881313668, "3": 32.462666911890075, "4": 28.062860813755172, "5": 26.153559208549847 } }, "geometry": { "type": "MultiPolygon", "coordinates": [ [ [ [ 120.375, -19.875 ], [ 119.625, -19.875 ], [ 119.625, -20.125 ], [ 119.125, -20.125 ], [ 119.125, -20.375 ], [ 118.625, -20.375 ], [ 118.625, -21.375 ], [ 119.125, -21.375 ], [ 119.125, -21.125 ], [ 119.625, -21.125 ], [ 119.625, -21.375 ], [ 120.375, -21.375 ], [ 120.375, -21.125 ], [ 120.625, -21.125 ], [ 120.625, -20.875 ], [ 121.125, -20.875 ], [ 121.125, -20.625 ], [ 122.375, -20.625 ], [ 122.375, -20.875 ], [ 122.625, -20.875 ], [ 122.625, -21.125 ], [ 123.125, -21.125 ], [ 123.125, -21.375 ], [ 124.125, -21.375 ], [ 124.125, -21.125 ], [ 125.375, -21.125 ], [ 125.375, -21.375 ], [ 126.375, -21.375 ], [ 126.375, -21.625 ], [ 126.875, -21.625 ], [ 126.875, -21.375 ], [ 127.625, -21.375 ], [ 127.625, -21.625 ], [ 127.875, -21.625 ], [ 127.875, -21.375 ], [ 128.125, -21.375 ], [ 128.125, -21.125 ], [ 128.375, -21.125 ], [ 128.375, -20.875 ], [ 128.875, -20.875 ], [ 128.875, -21.625 ], [ 129.875, -21.625 ], [ 129.875, -21.875 ], [ 130.125, -21.875 ], [ 130.125, -22.125 ], [ 130.875, -22.125 ], [ 130.875, -22.375 ], [ 131.625, -22.375 ], [ 131.625, -22.125 ], [ 132.875, -22.125 ], [ 132.875, -21.875 ], [ 136.125, -21.875 ], [ 136.125, -22.125 ], [ 136.625, -22.125 ], [ 136.625, -21.875 ], [ 137.625, -21.875 ], [ 137.625, -22.125 ], [ 138.125, -22.125 ], [ 138.125, -22.375 ], [ 138.375, -22.375 ], [ 138.375, -22.625 ], [ 140.125, -22.625 ], [ 140.125, -22.375 ], [ 140.625, -22.375 ], [ 140.625, -22.625 ], [ 141.125, -22.625 ], [ 141.125, -22.375 ], [ 141.625, -22.375 ], [ 141.625, -22.625 ], [ 141.875, -22.625 ], [ 141.875, -23.125 ], [ 142.125, -23.125 ], [ 142.125, -23.375 ], [ 143.125, -23.375 ], [ 143.125, -23.625 ], [ 143.375, -23.625 ], [ 143.375, -23.875 ], [ 143.625, -23.875 ], [ 143.625, -24.125 ], [ 143.875, -24.125 ], [ 143.875, -24.625 ], [ 144.125, -24.625 ], [ 144.125, -25.125 ], [ 146.125, -25.125 ], [ 146.125, -25.375 ], [ 146.375, -25.375 ], [ 146.375, -25.125 ], [ 148.125, -25.125 ], [ 148.125, -25.375 ], [ 148.375, -25.375 ], [ 148.375, -25.625 ], [ 149.125, -25.625 ], [ 149.125, -25.875 ], [ 148.875, -25.875 ], [ 148.875, -26.125 ], [ 149.125, -26.125 ], [ 149.125, -26.375 ], [ 151.125, -26.375 ], [ 151.125, -26.625 ], [ 151.625, -26.625 ], [ 151.625, -26.875 ], [ 151.875, -26.875 ], [ 151.875, -29.375 ], [ 151.625, -29.375 ], [ 151.625, -29.875 ], [ 151.375, -29.875 ], [ 151.375, -30.125 ], [ 151.625, -30.125 ], [ 151.625, -30.625 ], [ 151.375, -30.625 ], [ 151.375, -31.375 ], [ 150.875, -31.375 ], [ 150.875, -31.625 ], [ 150.625, -31.625 ], [ 150.625, -31.875 ], [ 149.875, -31.875 ], [ 149.875, -32.375 ], [ 149.625, -32.375 ], [ 149.625, -32.875 ], [ 149.375, -32.875 ], [ 149.375, -33.125 ], [ 148.625, -33.125 ], [ 148.625, -32.875 ], [ 148.375, -32.875 ], [ 148.375, -31.625 ], [ 148.625, -31.625 ], [ 148.625, -31.375 ], [ 148.125, -31.375 ], [ 148.125, -30.875 ], [ 147.875, -30.875 ], [ 147.875, -30.375 ], [ 147.625, -30.375 ], [ 147.625, -29.875 ], [ 147.125, -29.875 ], [ 147.125, -29.625 ], [ 146.875, -29.625 ], [ 146.875, -29.375 ], [ 146.625, -29.375 ], [ 146.625, -29.125 ], [ 145.125, -29.125 ], [ 145.125, -28.875 ], [ 144.875, -28.875 ], [ 144.875, -28.375 ], [ 144.375, -28.375 ], [ 144.375, -28.625 ], [ 143.625, -28.625 ], [ 143.625, -28.875 ], [ 143.375, -28.875 ], [ 143.375, -28.625 ], [ 143.125, -28.625 ], [ 143.125, -28.125 ], [ 142.625, -28.125 ], [ 142.625, -28.375 ], [ 142.125, -28.375 ], [ 142.125, -28.625 ], [ 141.625, -28.625 ], [ 141.625, -28.375 ], [ 140.375, -28.375 ], [ 140.375, -27.625 ], [ 140.125, -27.625 ], [ 140.125, -27.375 ], [ 139.875, -27.375 ], [ 139.875, -27.125 ], [ 139.375, -27.125 ], [ 139.375, -27.375 ], [ 138.625, -27.375 ], [ 138.625, -27.125 ], [ 138.375, -27.125 ], [ 138.375, -27.375 ], [ 137.875, -27.375 ], [ 137.875, -27.125 ], [ 137.625, -27.125 ], [ 137.625, -26.875 ], [ 137.375, -26.875 ], [ 137.375, -26.625 ], [ 137.125, -26.625 ], [ 137.125, -26.125 ], [ 136.875, -26.125 ], [ 136.875, -25.875 ], [ 136.625, -25.875 ], [ 136.625, -25.625 ], [ 136.125, -25.625 ], [ 136.125, -25.375 ], [ 135.875, -25.375 ], [ 135.875, -25.125 ], [ 135.625, -25.125 ], [ 135.625, -24.875 ], [ 134.625, -24.875 ], [ 134.625, -24.625 ], [ 134.375, -24.625 ], [ 134.375, -24.375 ], [ 134.125, -24.375 ], [ 134.125, -24.125 ], [ 134.375, -24.125 ], [ 134.375, -23.875 ], [ 134.625, -23.875 ], [ 134.625, -23.625 ], [ 133.875, -23.625 ], [ 133.875, -23.875 ], [ 131.875, -23.875 ], [ 131.875, -24.125 ], [ 131.375, -24.125 ], [ 131.375, -23.875 ], [ 130.375, -23.875 ], [ 130.375, -24.125 ], [ 130.125, -24.125 ], [ 130.125, -24.625 ], [ 128.875, -24.625 ], [ 128.875, -24.375 ], [ 126.875, -24.375 ], [ 126.875, -24.625 ], [ 124.625, -24.625 ], [ 124.625, -24.375 ], [ 123.125, -24.375 ], [ 123.125, -23.875 ], [ 121.875, -23.875 ], [ 121.875, -23.625 ], [ 121.625, -23.625 ], [ 121.625, -23.375 ], [ 121.125, -23.375 ], [ 121.125, -23.625 ], [ 120.125, -23.625 ], [ 120.125, -23.125 ], [ 119.125, -23.125 ], [ 119.125, -24.125 ], [ 118.125, -24.125 ], [ 118.125, -23.875 ], [ 117.875, -23.875 ], [ 117.875, -23.625 ], [ 117.625, -23.625 ], [ 117.625, -23.375 ], [ 117.375, -23.375 ], [ 117.375, -22.875 ], [ 117.125, -22.875 ], [ 117.125, -22.625 ], [ 116.625, -22.625 ], [ 116.625, -22.375 ], [ 116.375, -22.375 ], [ 116.375, -22.125 ], [ 116.125, -22.125 ], [ 116.125, -21.125 ], [ 116.375, -21.125 ], [ 116.375, -20.375 ], [ 117.875, -20.375 ], [ 117.875, -20.125 ], [ 118.625, -20.125 ], [ 118.625, -19.875 ], [ 119.125, -19.875 ], [ 119.125, -19.625 ], [ 120.375, -19.625 ], [ 120.375, -19.875 ] ] ], [ [ [ 120.375, -19.375 ], [ 120.625, -19.375 ], [ 120.625, -19.625 ], [ 120.375, -19.625 ], [ 120.375, -19.375 ] ] ] ] } }
]
}
