{
"type": "FeatureCollection",
"name": "cohesion_clusters",
"crs": { "type": "name", "properties": { "name": "urn:ogc:def:crs:OGC:1.3:CRS84" } },
"features": [
{ "type": "Feature", "properties": { "cohesion": 14.258835792541504 }, "geometry": { "type": "Polygon", "coordinates": [ [ [ 120.375, -1.625 ], [ 120.375, -1.375 ], [ 120.625, -1.375 ], [ 120.625, -1.625 ], [ 120.375, -1.625 ] ] ] } },
{ "type": "Feature", "properties": { "cohesion": 10.822279930114746 }, "geometry": { "type": "Polygon", "coordinates": [ [ [ 133.125, -9.125 ], [ 133.125, -8.625 ], [ 132.625, -8.625 ], [ 132.625, -8.375 ], [ 132.125, -8.375 ], [ 132.125, -8.125 ], [ 131.125, -8.125 ], [ 131.125, -7.875 ], [ 130.625, -7.875 ], [ 130.625, -7.625 ], [ 130.375, -7.625 ], [ 130.375, -7.375 ], [ 130.125, -7.375 ], [ 130.125, -7.125 ], [ 129.875, -7.125 ], [ 129.875, -6.875 ], [ 129.625, -6.875 ], [ 129.625, -6.125 ], [ 128.625, -6.125 ], [ 128.625, -5.875 ], [ 128.375, -5.875 ], [ 128.375, -5.125 ], [ 128.875, -5.125 ], [ 128.875, -4.375 ], [ 128.625, -4.375 ], [ 128.625, -3.375 ], [ 128.375, -3.375 ], [ 128.375, -2.375 ], [ 128.625, -2.375 ], [ 128.625, -1.875 ], [ 130.125, -1.875 ], [ 130.125, -2.125 ], [ 130.875, -2.125 ], [ 130.875, -1.875 ], [ 132.875, -1.875 ], [ 132.875, -1.625 ], [ 134.875, -1.625 ], [ 134.875, -1.875 ], [ 135.875, -1.875 ], [ 135.875, -1.625 ], [ 137.125, -1.625 ], [ 137.125, -1.125 ], [ 137.625, -1.125 ], [ 137.625, -0.875 ], [ 138.125, -0.875 ], [ 138.125, -1.125 ], [ 138.375, -1.125 ], [ 138.375, -0.875 ], [ 138.625, -0.875 ], [ 138.625, -0.625 ], [ 138.875, -0.625 ], [ 138.875, -0.375 ], [ 139.125, -0.375 ], [ 139.125, -0.125 ], [ 140.375, -0.125 ], [ 140.375, 0.125 ], [ 141.375, 0.125 ], [ 141.375, -0.375 ], [ 141.625, -0.375 ], [ 141.625, -0.875 ], [ 142.875, -0.875 ], [ 142.875, -1.375 ], [ 142.625, -1.375 ], [ 142.625, -2.125 ], [ 142.375, -2.125 ], [ 142.375, -2.625 ], [ 142.125, -2.625 ], [ 142.125, -3.375 ], [ 141.875, -3.375 ], [ 141.875, -4.875 ], [ 141.625, -4.875 ], [ 141.625, -5.375 ], [ 141.375, -5.375 ], [ 141.375, -5.875 ], [ 141.125, -5.875 ], [ 141.125, -5.125 ], [ 140.875, -5.125 ], [ 140.875, -4.125 ], [ 140.625, -4.125 ], [ 140.625, -3.625 ], [ 139.625, -3.625 ], [ 139.625, -3.875 ], [ 139.375, -3.875 ], [ 139.375, -4.125 ], [ 139.125, -4.125 ], [ 139.125, -4.375 ], [ 138.875, -4.375 ], [ 138.875, -4.625 ], [ 138.125, -4.625 ], [ 138.125, -4.875 ], [ 137.875, -4.875 ], [ 137.875, -5.125 ], [ 137.375, -5.125 ], [ 137.375, -5.375 ], [ 136.625, -5.375 ], [ 136.625, -5.625 ], [ 136.375, -5.625 ], [ 136.375, -5.875 ], [ 135.375, -5.875 ], [ 135.375, -6.125 ], [ 134.625, -6.125 ], [ 134.625, -5.875 ], [ 134.375, -5.875 ], [ 134.375, -5.625 ], [ 134.125, -5.625 ], [ 134.125, -5.375 ], [ 133.875, -5.375 ], [ 133.875, -5.625 ], [ 132.875, -5.625 ], [ 132.875, -5.875 ], [ 132.625, -5.875 ], [ 132.625, -6.375 ], [ 132.875, -6.375 ], [ 132.875, -6.625 ], [ 133.125, -6.625 ], [ 133.125, -6.875 ], [ 133.375, -6.875 ], [ 133.375, -7.375 ], [ 133.625, -7.375 ], [ 133.625, -7.625 ], [ 133.875, -7.625 ], [ 133.875, -7.875 ], [ 134.375, -7.875 ], [ 134.375, -6.875 ], [ 134.875, -6.875 ], [ 134.875, -7.125 ], [ 135.125, -7.125 ], [ 135.125, -7.375 ], [ 135.375, -7.375 ], [ 135.375, -7.875 ], [ 135.625, -7.875 ], [ 135.625, -8.125 ], [ 135.875, -8.125 ], [ 135.875, -8.625 ], [ 135.625, -8.625 ], [ 135.625, -8.875 ], [ 133.875, -8.875 ], [ 133.875, -9.125 ], [ 133.125, -9.125 ] ] ] } },
{ "type": "Feature", "properties": { "cohesion": 15.09284782409668 }, "geometry": { "type": "Polygon", "coordinates": [ [ [ 130.375, -10.125 ], [ 130.375, -9.875 ], [ 130.125, -9.875 ], [ 130.125, -9.625 ], [ 129.875, -9.625 ], [ 129.875, -9.375 ], [ 130.125, -9.375 ], [ 130.125, -9.125 ], [ 130.375, -9.125 ], [ 130.375, -8.625 ], [ 130.125, -8.625 ], [ 130.125, -8.375 ], [ 129.875, -8.375 ], [ 129.875, -7.625 ], [ 129.625, -7.625 ], [ 129.625, -7.375 ], [ 129.375, -7.375 ], [ 129.375, -6.875 ], [ 129.125, -6.875 ], [ 129.125, -6.625 ], [ 129.375, -6.625 ], [ 129.375, -6.375 ], [ 128.375, -6.375 ], [ 128.375, -6.625 ], [ 128.125, -6.625 ], [ 128.125, -6.875 ], [ 127.875, -6.875 ], [ 127.875, -7.125 ], [ 127.625, -7.125 ], [ 127.625, -7.375 ], [ 126.625, -7.375 ], [ 126.625, -7.125 ], [ 126.125, -7.125 ], [ 126.125, -6.875 ], [ 125.375, -6.875 ], [ 125.375, -6.625 ], [ 125.125, -6.625 ], [ 125.125, -6.375 ], [ 124.875, -6.375 ], [ 124.875, -5.875 ], [ 124.625, -5.875 ], [ 124.625, -5.625 ], [ 124.375, -5.625 ], [ 124.375, -5.375 ], [ 124.125, -5.375 ], [ 124.125, -5.125 ], [ 123.625, -5.125 ], [ 123.625, -4.875 ], [ 123.375, -4.875 ], [ 123.375, -4.625 ], [ 122.625, -4.625 ], [ 122.625, -4.375 ], [ 122.375, -4.375 ], [ 122.375, -4.125 ], [ 122.125, -4.125 ], [ 122.125, -3.875 ], [ 121.875, -3.875 ], [ 121.875, -3.125 ], [ 122.125, -3.125 ], [ 122.125, -2.875 ], [ 121.875, -2.875 ], [ 121.875, -2.625 ], [ 121.625, -2.625 ], [ 121.625, -2.375 ], [ 121.375, -2.375 ], [ 121.375, -2.125 ], [ 121.125, -2.125 ], [ 121.125, -1.875 ], [ 120.875, -1.875 ], [ 120.875, -1.625 ], [ 120.625, -1.625 ], [ 120.625, -1.375 ], [ 120.375, -1.375 ], [ 120.375, -1.125 ], [ 119.625, -1.125 ], [ 119.625, -0.875 ], [ 119.125, -0.875 ], [ 119.125, -0.625 ], [ 118.625, -0.625 ], [ 118.625, 0.375 ], [ 119.125, 0.375 ], [ 119.125, 0.125 ], [ 119.625, 0.125 ], [ 119.625, 0.375 ], [ 120.375, 0.375 ], [ 120.375, 0.125 ], [ 120.625, 0.125 ], [ 120.625, -0.125 ], [ 121.125, -0.125 ], [ 121.125, -0.375 ], [ 122.375, -0.375 ], [ 122.375, -0.125 ], [ 122.625, -0.125 ], [ 122.625, 0.125 ], [ 123.125, 0.125 ], [ 123.125, 0.375 ], [ 124.125, 0.375 ], [ 124.125, 0.125 ], [ 125.375, 0.125 ], [ 125.375, 0.375 ], [ 126.375, 0.375 ], [ 126.375, 0.625 ], [ 126.875, 0.625 ], [ 126.875, 0.375 ], [ 127.625, 0.375 ], [ 127.625, 0.625 ], [ 127.875, 0.625 ], [ 127.875, 0.375 ], [ 128.125, 0.375 ], [ 128.125, 0.125 ], [ 128.375, 0.125 ], [ 128.375, -0.125 ], [ 128.625, -0.125 ], [ 128.625, -0.625 ], [ 128.125, -0.625 ], [ 128.125, -0.875 ], [ 128.875, -0.875 ], [ 128.875, -1.125 ], [ 129.125, -1.125 ], [ 129.125, -1.375 ], [ 128.375, -1.375 ], [ 128.375, -1.625 ], [ 128.125, -1.625 ], [ 128.125, -2.125 ], [ 127.625, -2.125 ], [ 127.625, -1.875 ], [ 127.375, -1.875 ], [ 127.375, -1.625 ], [ 127.125, -1.625 ], [ 127.125, -1.375 ], [ 125.875, -1.375 ], [ 125.875, -1.875 ], [ 125.625, -1.875 ], [ 125.625, -2.625 ], [ 124.875, -2.625 ], [ 124.875, -2.875 ], [ 124.625, -2.875 ], [ 124.625, -3.625 ], [ 124.875, -3.625 ], [ 124.875, -4.125 ], [ 124.625, -4.125 ], [ 124.625, -4.625 ], [ 125.125, -4.625 ], [ 125.125, -4.875 ], [ 125.375, -4.875 ], [ 125.375, -5.125 ], [ 125.625, -5.125 ], [ 125.625, -4.875 ], [ 125.875, -4.875 ], [ 125.875, -4.375 ], [ 125.625, -4.375 ], [ 125.625, -3.375 ], [ 125.375, -3.375 ], [ 125.375, -3.125 ], [ 125.875, -3.125 ], [ 125.875, -3.375 ], [ 126.125, -3.375 ], [ 126.125, -3.875 ], [ 126.375, -3.875 ], [ 126.375, -4.125 ], [ 126.625, -4.125 ], [ 126.625, -4.375 ], [ 126.875, -4.375 ], [ 126.875, -4.625 ], [ 127.125, -4.625 ], [ 127.125, -4.875 ], [ 127.625, -4.875 ], [ 127.625, -4.375 ], [ 127.875, -4.375 ], [ 127.875, -4.625 ], [ 128.125, -4.625 ], [ 128.125, -4.875 ], [ 127.875, -4.875 ], [ 127.875, -5.375 ], [ 128.125, -5.375 ], [ 128.125, -5.625 ], [ 128.375, -5.625 ], [ 128.375, -5.875 ], [ 128.625, -5.875 ], [ 128.625, -6.125 ], [ 129.625, -6.125 ], [ 129.625, -6.875 ], [ 129.875, -6.875 ], [ 129.875, -7.125 ], [ 130.125, -7.125 ], [ 130.125, -7.375 ], [ 130.375, -7.375 ], [ 130.375, -7.625 ], [ 130.625, -7.625 ], [ 130.625, -7.875 ], [ 131.125, -7.875 ], [ 131.125, -8.125 ], [ 132.125, -8.125 ], [ 132.125, -8.375 ], [ 132.625, -8.375 ], [ 132.625, -8.625 ], [ 133.125, -8.625 ], [ 133.125, -9.125 ], [ 133.875, -9.125 ], [ 133.875, -8.875 ], [ 135.625, -8.875 ], [ 135.625, -8.625 ], [ 135.875, -8.625 ], [ 135.875, -8.125 ], [ 135.625, -8.125 ], [ 135.625, -7.875 ], [ 135.375, -7.875 ], [ 135.375, -7.375 ], [ 135.125, -7.375 ], [ 135.125, -7.125 ], [ 134.875, -7.125 ], [ 134.875, -6.875 ], [ 134.375, -6.875 ], [ 134.375, -7.875 ], [ 133.875, -7.875 ], [ 133.875, -7.625 ], [ 133.625, -7.625 ], [ 133.625, -7.375 ], [ 133.375, -7.375 ], [ 133.375, -6.875 ], [ 133.125, -6.875 ], [ 133.125, -6.625 ], [ 132.875, -6.625 ], [ 132.875, -6.375 ], [ 132.625, -6.375 ], [ 132.625, -5.875 ], [ 132.875, -5.875 ], [ 132.875, -5.625 ], [ 133.875, -5.625 ], [ 133.875, -5.375 ], [ 134.125, -5.375 ], [ 134.125, -5.625 ], [ 134.375, -5.625 ], [ 134.375, -5.875 ], [ 134.625, -5.875 ], [ 134.625, -6.125 ], [ 135.375, -6.125 ], [ 135.375, -5.875 ], [ 136.125, -5.875 ], [ 136.125, -6.125 ], [ 135.875, -6.125 ], [ 135.875, -6.625 ], [ 136.125, -6.625 ], [ 136.125, -6.875 ], [ 136.375, -6.875 ], [ 136.375, -7.125 ], [ 136.125, -7.125 ], [ 136.125, -7.375 ], [ 136.375, -7.375 ], [ 136.375, -7.625 ], [ 136.625, -7.625 ], [ 136.625, -7.875 ], [ 136.875, -7.875 ], [ 136.875, -8.375 ], [ 137.125, -8.375 ], [ 137.125, -8.625 ], [ 136.875, -8.625 ], [ 136.875, -8.875 ], [ 136.625, -8.875 ], [ 136.625, -9.125 ], [ 135.625, -9.125 ], [ 135.625, -9.375 ], [ 135.375, -9.375 ], [ 135.375, -9.125 ], [ 134.875, -9.125 ], [ 134.875, -9.375 ], [ 133.875, -9.375 ], [ 133.875, -9.625 ], [ 133.125, -9.625 ], [ 133.125, -9.875 ], [ 132.625, -9.875 ], [ 132.625, -9.625 ], [ 132.375, -9.625 ], [ 132.375, -9.375 ], [ 132.125, -9.375 ], [ 132.125, -9.125 ], [ 131.625, -9.125 ], [ 131.625, -9.375 ], [ 131.875, -9.375 ], [ 131.875, -9.625 ], [ 131.625, -9.625 ], [ 131.625, -9.875 ], [ 131.375, -9.875 ], [ 131.375, -10.125 ], [ 131.125, -10.125 ], [ 131.125, -9.875 ], [ 130.625, -9.875 ], [ 130.625, -10.125 ], [ 130.375, -10.125 ] ], [ [ 130.625, -9.125 ], [ 130.875, -9.125 ], [ 130.875, -8.875 ], [ 130.625, -8.875 ], [ 130.625, -9.125 ] ] ] } },
{ "type": "Feature", "properties": { "cohesion": 11.471786499023438 }, "geometry": { "type": "Polygon", "coordinates": [ [ [ 142.125, -10.375 ], [ 142.125, -10.125 ], [ 141.875, -10.125 ], [ 141.875, -9.875 ], [ 141.625, -9.875 ], [ 141.625, -8.875 ], [ 141.375, -8.875 ], [ 141.375, -8.125 ], [ 141.125, -8.125 ], [ 141.125, -5.875 ], [ 141.375, -5.875 ], [ 141.375, -5.375 ], [ 141.625, -5.375 ], [ 141.625, -4.875 ], [ 141.875, -4.875 ], [ 141.875, -3.375 ], [ 142.125, -3.375 ], [ 142.125, -2.625 ], [ 142.375, -2.625 ], [ 142.375, -2.125 ], [ 142.625, -2.125 ], [ 142.625, -1.375 ], [ 142.875, -1.375 ], [ 142.875, -1.125 ], [ 143.125, -1.125 ], [ 143.125, -0.875 ], [ 143.375, -0.875 ], [ 143.375, -0.375 ], [ 143.625, -0.375 ], [ 143.625, 0.375 ], [ 143.375, 0.375 ], [ 143.375, 0.625 ], [ 143.125, 0.625 ], [ 143.125, 1.125 ], [ 143.375, 1.125 ], [ 143.375, 1.375 ], [ 143.625, 1.375 ], [ 143.625, 0.625 ], [ 143.875, 0.625 ], [ 143.875, 0.375 ], [ 144.375, 0.375 ], [ 144.375, -0.125 ], [ 144.125, -0.125 ], [ 144.125, -0.375 ], [ 143.875, -0.375 ], [ 143.875, -0.625 ], [ 143.625, -0.625 ], [ 143.625, -1.375 ], [ 144.125, -1.375 ], [ 144.125, -1.125 ], [ 145.875, -1.125 ], [ 145.875, -1.375 ], [ 145.625, -1.375 ], [ 145.625, -1.625 ], [ 145.375, -1.625 ], [ 145.375, -1.875 ], [ 145.125, -1.875 ], [ 145.125, -2.625 ], [ 145.375, -2.625 ], [ 145.375, -2.375 ], [ 145.875, -2.375 ], [ 145.875, -2.125 ], [ 146.125, -2.125 ], [ 146.125, -1.875 ], [ 146.875, -1.875 ], [ 146.875, -1.625 ], [ 147.125, -1.625 ], [ 147.125, -1.375 ], [ 147.375, -1.375 ], [ 147.375, -0.875 ], [ 147.625, -0.875 ], [ 147.625, -0.625 ], [ 148.125, -0.625 ], [ 148.125, -0.375 ], [ 148.375, -0.375 ], [ 148.375, -0.625 ], [ 148.625, -0.625 ], [ 148.625, -0.375 ], [ 148.875, -0.375 ], [ 148.875, -0.125 ], [ 149.125, -0.125 ], [ 149.125, -0.625 ], [ 148.875, -0.625 ], [ 148.875, -0.875 ], [ 148.625, -0.875 ], [ 148.625, -1.125 ], [ 148.375, -1.125 ], [ 148.375, -1.375 ], [ 147.875, -1.375 ], [ 147.875, -1.625 ], [ 147.625, -1.625 ], [ 147.625, -1.875 ], [ 147.375, -1.875 ], [ 147.375, -2.125 ], [ 146.625, -2.125 ], [ 146.625, -2.875 ], [ 146.375, -2.875 ], [ 146.375, -3.125 ], [ 146.625, -3.125 ], [ 146.625, -3.625 ], [ 146.375, -3.625 ], [ 146.375, -3.875 ], [ 146.125, -3.875 ], [ 146.125, -4.125 ], [ 145.875, -4.125 ], [ 145.875, -4.875 ], [ 145.625, -4.875 ], [ 145.625, -6.125 ], [ 145.375, -6.125 ], [ 145.375, -6.375 ], [ 145.125, -6.375 ], [ 145.125, -6.625 ], [ 144.875, -6.625 ], [ 144.875, -6.875 ], [ 144.625, -6.875 ], [ 144.625, -7.125 ], [ 143.875, -7.125 ], [ 143.875, -8.125 ], [ 143.625, -8.125 ], [ 143.625, -8.625 ], [ 143.375, -8.625 ], [ 143.375, -9.125 ], [ 143.125, -9.125 ], [ 143.125, -9.875 ], [ 142.875, -9.875 ], [ 142.875, -10.125 ], [ 142.625, -10.125 ], [ 142.625, -10.375 ], [ 142.125, -10.375 ] ] ] } },
{ "type": "Feature", "properties": { "cohesion": 15.214546203613281 }, "geometry": { "type": "Polygon", "coordinates": [ [ [ 128.125, -5.625 ], [ 128.125, -5.375 ], [ 127.875, -5.375 ], [ 127.875, -4.875 ], [ 128.125, -4.875 ], [ 128.125, -4.625 ], [ 127.875, -4.625 ], [ 127.875, -4.375 ], [ 127.625, -4.375 ], [ 127.625, -4.875 ], [ 127.125, -4.875 ], [ 127.125, -4.625 ], [ 126.875, -4.625 ], [ 126.875, -4.375 ], [ 126.625, -4.375 ], [ 126.625, -4.125 ], [ 126.375, -4.125 ], [ 126.375, -3.875 ], [ 126.125, -3.875 ], [ 126.125, -3.375 ], [ 125.875, -3.375 ], [ 125.875, -3.125 ], [ 125.375, -3.125 ], [ 125.375, -3.375 ], [ 125.625, -3.375 ], [ 125.625, -4.375 ], [ 125.875, -4.375 ], [ 125.875, -4.875 ], [ 125.625, -4.875 ], [ 125.625, -5.125 ], [ 125.375, -5.125 ], [ 125.375, -4.875 ], [ 125.125, -4.875 ], [ 125.125, -4.625 ], [ 124.625, -4.625 ], [ 124.625, -4.125 ], [ 124.875, -4.125 ], [ 124.875, -3.625 ], [ 124.625, -3.625 ], [ 124.625, -2.875 ], [ 124.875, -2.875 ], [ 124.875, -2.625 ], [ 125.625, -2.625 ], [ 125.625, -1.875 ], [ 125.875, -1.875 ], [ 125.875, -1.375 ], [ 127.125, -1.375 ], [ 127.125, -1.625 ], [ 127.375, -1.625 ], [ 127.375, -1.875 ], [ 127.625, -1.875 ], [ 127.625, -2.125 ], [ 128.125, -2.125 ], [ 128.125, -1.625 ], [ 128.375, -1.625 ], [ 128.375, -1.375 ], [ 129.125, -1.375 ], [ 129.125, -1.125 ], [ 128.875, -1.125 ], [ 128.875, -0.875 ], [ 128.125, -0.875 ], [ 128.125, -0.625 ], [ 128.625, -0.625 ], [ 128.625, -0.125 ], [ 128.875, -0.125 ], [ 128.875, 0.625 ], [ 129.875, 0.625 ], [ 129.875, 0.875 ], [ 130.125, 0.875 ], [ 130.125, 1.125 ], [ 130.875, 1.125 ], [ 130.875, 1.375 ], [ 131.625, 1.375 ], [ 131.625, 1.125 ], [ 132.875, 1.125 ], [ 132.875, 0.875 ], [ 136.125, 0.875 ], [ 136.125, 1.125 ], [ 136.625, 1.125 ], [ 136.625, 0.875 ], [ 137.625, 0.875 ], [ 137.625, 1.125 ], [ 138.125, 1.125 ], [ 138.125, 1.375 ], [ 138.375, 1.375 ], [ 138.375, 1.625 ], [ 140.125, 1.625 ], [ 140.125, 1.375 ], [ 140.625, 1.375 ], [ 140.625, 1.625 ], [ 141.125, 1.625 ], [ 141.125, 1.375 ], [ 141.625, 1.375 ], [ 141.625, 1.625 ], [ 141.875, 1.625 ], [ 141.875, 2.125 ], [ 142.125, 2.125 ], [ 142.125, 2.375 ], [ 142.875, 2.375 ], [ 142.875, 2.125 ], [ 143.125, 2.125 ], [ 143.125, 1.875 ], [ 143.375, 1.875 ], [ 143.375, 1.125 ], [ 143.125, 1.125 ], [ 143.125, 0.625 ], [ 143.375, 0.625 ], [ 143.375, 0.375 ], [ 143.625, 0.375 ], [ 143.625, -0.375 ], [ 143.375, -0.375 ], [ 143.375, -0.875 ], [ 143.125, -0.875 ], [ 143.125, -1.125 ], [ 142.875, -1.125 ], [ 142.875, -0.875 ], [ 141.625, -0.875 ], [ 141.625, -0.375 ], [ 141.375, -0.375 ], [ 141.375, 0.125 ], [ 140.375, 0.125 ], [ 140.375, -0.125 ], [ 139.125, -0.125 ], [ 139.125, -0.375 ], [ 138.875, -0.375 ], [ 138.875, -0.625 ], [ 138.625, -0.625 ], [ 138.625, -0.875 ], [ 138.375, -0.875 ], [ 138.375, -1.125 ], [ 138.125, -1.125 ], [ 138.125, -0.875 ], [ 137.625, -0.875 ], [ 137.625, -1.125 ], [ 137.125, -1.125 ], [ 137.125, -1.625 ], [ 135.875, -1.625 ], [ 135.875, -1.875 ], [ 134.875, -1.875 ], [ 134.875, -1.625 ], [ 132.875, -1.625 ], [ 132.875, -1.875 ], [ 130.875, -1.875 ], [ 130.875, -2.125 ], [ 130.125, -2.125 ], [ 130.125, -1.875 ], [ 128.625, -1.875 ], [ 128.625, -2.375 ], [ 128.375, -2.375 ], [ 128.375, -3.375 ], [ 128.625, -3.375 ], [ 128.625, -4.375 ], [ 128.875, -4.375 ], [ 128.875, -5.125 ], [ 128.375, -5.125 ], [ 128.375, -5.625 ], [ 128.125, -5.625 ] ] ] } },
{ "type": "Feature", "properties": { "cohesion": 14.938403129577637 }, "geometry": { "type": "Polygon", "coordinates": [ [ [ 133.625, 2.625 ], [ 133.625, 2.875 ], [ 133.875, 2.875 ], [ 133.875, 2.625 ], [ 133.625, 2.625 ] ] ] } },
{ "type": "Feature", "properties": { "cohesion": 14.258835792541504 }, "geometry": { "type": "Polygon", "coordinates": [ [ [ 119.125, -1.375 ], [ 119.125, -1.125 ], [ 118.625, -1.125 ], [ 118.625, -0.875 ], [ 117.875, -0.875 ], [ 117.875, -0.625 ], [ 116.375, -0.625 ], [ 116.375, 0.125 ], [ 116.125, 0.125 ], [ 116.125, 1.125 ], [ 116.375, 1.125 ], [ 116.375, 1.375 ], [ 116.625, 1.375 ], [ 116.625, 1.625 ], [ 117.125, 1.625 ], [ 117.125, 1.875 ], [ 117.375, 1.875 ], [ 117.375, 2.375 ], [ 117.625, 2.375 ], [ 117.625, 2.625 ], [ 117.875, 2.625 ], [ 117.875, 2.875 ], [ 118.125, 2.875 ], [ 118.125, 3.125 ], [ 119.125, 3.125 ], [ 119.125, 2.125 ], [ 120.125, 2.125 ], [ 120.125, 2.625 ], [ 121.125, 2.625 ], [ 121.125, 2.375 ], [ 121.625, 2.375 ], [ 121.625, 2.625 ], [ 121.875, 2.625 ], [ 121.875, 2.875 ], [ 123.125, 2.875 ], [ 123.125, 3.375 ], [ 124.625, 3.375 ], [ 124.625, 3.625 ], [ 126.875, 3.625 ], [ 126.875, 3.375 ], [ 128.875, 3.375 ], [ 128.875, 3.625 ], [ 130.125, 3.625 ], [ 130.125, 3.125 ], [ 130.375, 3.125 ], [ 130.375, 2.625 ], [ 130.875, 2.625 ], [ 130.875, 2.125 ], [ 130.625, 2.125 ], [ 130.625, 1.875 ], [ 130.375, 1.875 ], [ 130.375, 1.625 ], [ 130.625, 1.625 ], [ 130.625, 1.375 ], [ 130.875, 1.375 ], [ 130.875, 1.125 ], [ 130.125, 1.125 ], [ 130.125, 0.875 ], [ 129.875, 0.875 ], [ 129.875, 0.625 ], [ 128.875, 0.625 ], [ 128.875, -0.125 ], [ 128.375, -0.125 ], [ 128.375, 0.125 ], [ 128.125, 0.125 ], [ 128.125, 0.375 ], [ 127.875, 0.375 ], [ 127.875, 0.625 ], [ 127.625, 0.625 ], [ 127.625, 0.375 ], [ 126.875, 0.375 ], [ 126.875, 0.625 ], [ 126.375, 0.625 ], [ 126.375, 0.375 ], [ 125.375, 0.375 ], [ 125.375, 0.125 ], [ 124.125, 0.125 ], [ 124.125, 0.375 ], [ 123.125, 0.375 ], [ 123.125, 0.125 ], [ 122.625, 0.125 ], [ 122.625, -0.125 ], [ 122.375, -0.125 ], [ 122.375, -0.375 ], [ 121.125, -0.375 ], [ 121.125, -0.125 ], [ 120.625, -0.125 ], [ 120.625, 0.125 ], [ 120.375, 0.125 ], [ 120.375, 0.375 ], [ 119.625, 0.375 ], [ 119.625, 0.125 ], [ 119.125, 0.125 ], [ 119.125, 0.375 ], [ 118.625, 0.375 ], [ 118.625, -0.625 ], [ 119.125, -0.625 ], [ 119.125, -0.875 ], [ 119.625, -0.875 ], [ 119.625, -1.125 ], [ 120.375, -1.125 ], [ 120.375, -1.375 ], [ 119.125, -1.375 ] ] ] } },
{ "type": "Feature", "properties": { "cohesion": 12.448249816894531 }, "geometry": { "type": "Polygon", "coordinates": [ [ [ 132.875, 0.875 ], [ 132.875, 1.125 ], [ 131.625, 1.125 ], [ 131.625, 1.375 ], [ 130.625, 1.375 ], [ 130.625, 1.625 ], [ 130.375, 1.625 ], [ 130.375, 1.875 ], [ 130.625, 1.875 ], [ 130.625, 2.125 ], [ 130.875, 2.125 ], [ 130.875, 2.625 ], [ 130.375, 2.625 ], [ 130.375, 2.875 ], [ 131.375, 2.875 ], [ 131.375, 3.125 ], [ 131.875, 3.125 ], [ 131.875, 2.875 ], [ 133.625, 2.875 ], [ 133.625, 2.625 ], [ 134.375, 2.625 ], [ 134.375, 2.375 ], [ 135.875, 2.375 ], [ 135.875, 2.625 ], [ 136.375, 2.625 ], [ 136.375, 2.875 ], [ 136.625, 2.875 ], [ 136.625, 3.125 ], [ 137.125, 3.125 ], [ 137.125, 3.375 ], [ 137.375, 3.375 ], [ 137.375, 3.625 ], [ 137.875, 3.625 ], [ 137.875, 3.875 ], [ 138.625, 3.875 ], [ 138.625, 4.125 ], [ 138.875, 4.125 ], [ 138.875, 4.375 ], [ 139.625, 4.375 ], [ 139.625, 4.875 ], [ 140.125, 4.875 ], [ 140.125, 4.625 ], [ 140.375, 4.625 ], [ 140.375, 4.375 ], [ 140.125, 4.375 ], [ 140.125, 4.125 ], [ 139.875, 4.125 ], [ 139.875, 3.625 ], [ 140.625, 3.625 ], [ 140.625, 3.875 ], [ 140.875, 3.875 ], [ 140.875, 4.125 ], [ 141.375, 4.125 ], [ 141.375, 4.375 ], [ 141.625, 4.375 ], [ 141.625, 4.625 ], [ 141.875, 4.625 ], [ 141.875, 4.375 ], [ 142.125, 4.375 ], [ 142.125, 4.625 ], [ 142.375, 4.625 ], [ 142.375, 5.125 ], [ 142.625, 5.125 ], [ 142.625, 5.375 ], [ 143.125, 5.375 ], [ 143.125, 5.125 ], [ 143.625, 5.125 ], [ 143.625, 5.375 ], [ 143.875, 5.375 ], [ 143.875, 5.625 ], [ 144.375, 5.625 ], [ 144.375, 5.875 ], [ 144.875, 5.875 ], [ 144.875, 5.625 ], [ 145.125, 5.625 ], [ 145.125, 4.875 ], [ 145.625, 4.875 ], [ 145.625, 4.625 ], [ 145.875, 4.625 ], [ 145.875, 4.375 ], [ 146.125, 4.375 ], [ 146.125, 4.125 ], [ 144.125, 4.125 ], [ 144.125, 3.625 ], [ 143.875, 3.625 ], [ 143.875, 3.125 ], [ 143.625, 3.125 ], [ 143.625, 2.875 ], [ 143.375, 2.875 ], [ 143.375, 2.625 ], [ 143.125, 2.625 ], [ 143.125, 2.375 ], [ 142.125, 2.375 ], [ 142.125, 2.125 ], [ 141.875, 2.125 ], [ 141.875, 1.625 ], [ 141.625, 1.625 ], [ 141.625, 1.375 ], [ 141.125, 1.375 ], [ 141.125, 1.625 ], [ 140.625, 1.625 ], [ 140.625, 1.375 ], [ 140.125, 1.375 ], [ 140.125, 1.625 ], [ 138.375, 1.625 ], [ 138.375, 1.375 ], [ 138.125, 1.375 ], [ 138.125, 1.125 ], [ 137.625, 1.125 ], [ 137.625, 0.875 ], [ 136.625, 0.875 ], [ 136.625, 1.125 ], [ 136.125, 1.125 ], [ 136.125, 0.875 ], [ 132.875, 0.875 ] ] ] } },
{ "type": "Feature", "properties": { "cohesion": 12.627979278564453 }, "geometry": { "type": "Polygon", "coordinates": [ [ [ 145.125, -2.625 ], [ 145.125, -1.875 ], [ 145.375, -1.875 ], [ 145.375, -1.625 ], [ 145.625, -1.625 ], [ 145.625, -1.375 ], [ 145.875, -1.375 ], [ 145.875, -1.125 ], [ 144.125, -1.125 ], [ 144.125, -1.375 ], [ 143.625, -1.375 ], [ 143.625, -0.625 ], [ 143.875, -0.625 ], [ 143.875, -0.375 ], [ 144.125, -0.375 ], [ 144.125, -0.125 ], [ 144.375, -0.125 ], [ 144.375, 0.375 ], [ 143.875, 0.375 ], [ 143.875, 0.625 ], [ 143.625, 0.625 ], [ 143.625, 1.375 ], [ 143.375, 1.375 ], [ 143.375, 1.875 ], [ 143.125, 1.875 ], [ 143.125, 2.125 ], [ 142.875, 2.125 ], [ 142.875, 2.375 ], [ 143.125, 2.375 ], [ 143.125, 2.625 ], [ 143.375, 2.625 ], [ 143.375, 2.875 ], [ 143.625, 2.875 ], [ 143.625, 3.125 ], [ 143.875, 3.125 ], [ 143.875, 3.625 ], [ 144.125, 3.625 ], [ 144.125, 4.125 ], [ 146.125, 4.125 ], [ 146.125, 4.375 ], [ 146.375, 4.375 ], [ 146.375, 4.125 ], [ 148.125, 4.125 ], [ 148.125, 4.375 ], [ 148.375, 4.375 ], [ 148.375, 4.625 ], [ 149.125, 4.625 ], [ 149.125, 4.875 ], [ 148.875, 4.875 ], [ 148.875, 5.125 ], [ 149.125, 5.125 ], [ 149.125, 5.375 ], [ 151.125, 5.375 ], [ 151.125, 5.625 ], [ 151.875, 5.625 ], [ 151.875, 5.375 ], [ 152.875, 5.375 ], [ 152.875, 5.625 ], [ 153.125, 5.625 ], [ 153.125, 7.125 ], [ 153.375, 7.125 ], [ 153.375, 6.625 ], [ 153.625, 6.625 ], [ 153.625, 5.375 ], [ 153.375, 5.375 ], [ 153.375, 5.125 ], [ 153.625, 5.125 ], [ 153.625, 4.875 ], [ 153.375, 4.875 ], [ 153.375, 4.375 ], [ 153.125, 4.375 ], [ 153.125, 4.125 ], [ 152.875, 4.125 ], [ 152.875, 3.875 ], [ 152.625, 3.875 ], [ 152.625, 3.625 ], [ 152.375, 3.625 ], [ 152.375, 3.125 ], [ 152.125, 3.125 ], [ 152.125, 2.875 ], [ 151.875, 2.875 ], [ 151.875, 2.625 ], [ 151.375, 2.625 ], [ 151.375, 2.375 ], [ 151.125, 2.375 ], [ 151.125, 1.625 ], [ 150.875, 1.625 ], [ 150.875, 1.375 ], [ 150.625, 1.375 ], [ 150.625, 1.125 ], [ 149.875, 1.125 ], [ 149.875, 0.625 ], [ 149.625, 0.625 ], [ 149.625, 0.125 ], [ 149.375, 0.125 ], [ 149.375, -0.125 ], [ 148.875, -0.125 ], [ 148.875, -0.375 ], [ 148.625, -0.375 ], [ 148.625, -0.625 ], [ 148.375, -0.625 ], [ 148.375, -0.375 ], [ 148.125, -0.375 ], [ 148.125, -0.625 ], [ 147.625, -0.625 ], [ 147.625, -0.875 ], [ 147.375, -0.875 ], [ 147.375, -1.375 ], [ 147.125, -1.375 ], [ 147.125, -1.625 ], [ 146.875, -1.625 ], [ 146.875, -1.875 ], [ 146.125, -1.875 ], [ 146.125, -2.125 ], [ 145.875, -2.125 ], [ 145.875, -2.375 ], [ 145.375, -2.375 ], [ 145.375, -2.625 ], [ 145.125, -2.625 ] ] ] } },
{ "type": "Feature", "properties": { "cohesion": 13.947395324707031 }, "geometry": { "type": "Polygon", "coordinates": [ [ [ 114.375, 7.875 ], [ 114.375, 8.125 ], [ 114.625, 8.125 ], [ 114.625, 7.875 ], [ 114.375, 7.875 ] ] ] } },
{ "type": "Feature", "properties": { "cohesion": 12.380054473876953 }, "geometry": { "type": "Polygon", "coordinates": [ [ [ 133.875, 2.625 ], [ 133.875, 2.875 ], [ 131.875, 2.875 ], [ 131.875, 3.125 ], [ 131.375, 3.125 ], [ 131.375, 2.875 ], [ 130.375, 2.875 ], [ 130.375, 3.125 ], [ 130.125, 3.125 ], [ 130.125, 3.625 ], [ 128.875, 3.625 ], [ 128.875, 3.375 ], [ 126.875, 3.375 ], [ 126.875, 3.625 ], [ 124.625, 3.625 ], [ 124.625, 4.125 ], [ 125.625, 4.125 ], [ 125.625, 4.375 ], [ 125.875, 4.375 ], [ 125.875, 4.625 ], [ 129.875, 4.625 ], [ 129.875, 4.875 ], [ 130.125, 4.875 ], [ 130.125, 4.625 ], [ 130.625, 4.625 ], [ 130.625, 4.875 ], [ 130.375, 4.875 ], [ 130.375, 5.125 ], [ 131.375, 5.125 ], [ 131.375, 5.375 ], [ 132.625, 5.375 ], [ 132.625, 5.625 ], [ 133.125, 5.625 ], [ 133.125, 5.375 ], [ 133.875, 5.375 ], [ 133.875, 5.125 ], [ 134.125, 5.125 ], [ 134.125, 5.375 ], [ 134.375, 5.375 ], [ 134.375, 5.875 ], [ 133.875, 5.875 ], [ 133.875, 6.125 ], [ 134.125, 6.125 ], [ 134.125, 6.375 ], [ 135.375, 6.375 ], [ 135.375, 6.625 ], [ 135.875, 6.625 ], [ 135.875, 7.125 ], [ 136.625, 7.125 ], [ 136.625, 7.375 ], [ 136.875, 7.375 ], [ 136.875, 7.625 ], [ 137.125, 7.625 ], [ 137.125, 7.375 ], [ 137.375, 7.375 ], [ 137.375, 7.625 ], [ 137.875, 7.625 ], [ 137.875, 7.875 ], [ 138.375, 7.875 ], [ 138.375, 8.125 ], [ 138.625, 8.125 ], [ 138.625, 8.375 ], [ 139.375, 8.375 ], [ 139.375, 8.125 ], [ 140.125, 8.125 ], [ 140.125, 8.375 ], [ 140.375, 8.375 ], [ 140.375, 8.625 ], [ 141.125, 8.625 ], [ 141.125, 8.375 ], [ 140.625, 8.375 ], [ 140.625, 8.125 ], [ 140.375, 8.125 ], [ 140.375, 6.625 ], [ 140.125, 6.625 ], [ 140.125, 6.375 ], [ 139.875, 6.375 ], [ 139.875, 6.125 ], [ 139.375, 6.125 ], [ 139.375, 6.375 ], [ 138.625, 6.375 ], [ 138.625, 6.125 ], [ 138.375, 6.125 ], [ 138.375, 6.375 ], [ 137.875, 6.375 ], [ 137.875, 6.125 ], [ 137.625, 6.125 ], [ 137.625, 5.875 ], [ 137.375, 5.875 ], [ 137.375, 5.625 ], [ 137.125, 5.625 ], [ 137.125, 5.125 ], [ 136.875, 5.125 ], [ 136.875, 4.875 ], [ 136.625, 4.875 ], [ 136.625, 4.625 ], [ 136.125, 4.625 ], [ 136.125, 4.375 ], [ 135.875, 4.375 ], [ 135.875, 4.125 ], [ 135.625, 4.125 ], [ 135.625, 3.875 ], [ 134.625, 3.875 ], [ 134.625, 3.625 ], [ 134.375, 3.625 ], [ 134.375, 3.375 ], [ 134.125, 3.375 ], [ 134.125, 3.125 ], [ 134.375, 3.125 ], [ 134.375, 2.875 ], [ 134.625, 2.875 ], [ 134.625, 2.625 ], [ 133.875, 2.625 ] ] ] } },
{ "type": "Feature", "properties": { "cohesion": 12.380054473876953 }, "geometry": { "type": "Polygon", "coordinates": [ [ [ 137.375, 7.875 ], [ 137.375, 8.625 ], [ 137.625, 8.625 ], [ 137.625, 8.875 ], [ 138.375, 8.875 ], [ 138.375, 8.625 ], [ 138.125, 8.625 ], [ 138.125, 8.375 ], [ 137.875, 8.375 ], [ 137.875, 8.125 ], [ 137.625, 8.125 ], [ 137.625, 7.875 ], [ 137.375, 7.875 ] ] ] } },
{ "type": "Feature", "properties": { "cohesion": 16.352212905883789 }, "geometry": { "type": "Polygon", "coordinates": [ [ [ 115.875, -0.375 ], [ 115.875, -0.125 ], [ 115.625, -0.125 ], [ 115.625, 0.125 ], [ 115.125, 0.125 ], [ 115.125, 0.375 ], [ 114.625, 0.375 ], [ 114.625, 0.625 ], [ 114.375, 0.625 ], [ 114.375, 0.875 ], [ 113.875, 0.875 ], [ 113.875, 1.125 ], [ 113.625, 1.125 ], [ 113.625, 1.375 ], [ 113.375, 1.375 ], [ 113.375, 2.625 ], [ 113.125, 2.625 ], [ 113.125, 3.875 ], [ 113.375, 3.875 ], [ 113.375, 4.375 ], [ 113.625, 4.375 ], [ 113.625, 4.875 ], [ 113.875, 4.875 ], [ 113.875, 5.125 ], [ 113.625, 5.125 ], [ 113.625, 5.375 ], [ 113.375, 5.375 ], [ 113.375, 6.125 ], [ 113.625, 6.125 ], [ 113.625, 6.875 ], [ 113.875, 6.875 ], [ 113.875, 7.125 ], [ 114.125, 7.125 ], [ 114.125, 7.625 ], [ 114.375, 7.625 ], [ 114.375, 7.875 ], [ 114.625, 7.875 ], [ 114.625, 8.125 ], [ 114.875, 8.125 ], [ 114.875, 8.625 ], [ 115.125, 8.625 ], [ 115.125, 9.125 ], [ 115.625, 9.125 ], [ 115.625, 8.875 ], [ 115.875, 8.875 ], [ 115.875, 8.375 ], [ 116.125, 8.375 ], [ 116.125, 8.625 ], [ 116.375, 8.625 ], [ 116.375, 8.375 ], [ 116.625, 8.375 ], [ 116.625, 7.375 ], [ 117.125, 7.375 ], [ 117.125, 7.625 ], [ 117.375, 7.625 ], [ 117.375, 7.875 ], [ 118.125, 7.875 ], [ 118.125, 7.625 ], [ 118.375, 7.625 ], [ 118.375, 7.375 ], [ 118.625, 7.375 ], [ 118.625, 7.125 ], [ 118.875, 7.125 ], [ 118.875, 6.875 ], [ 119.125, 6.875 ], [ 119.125, 6.625 ], [ 119.375, 6.625 ], [ 119.375, 6.125 ], [ 119.625, 6.125 ], [ 119.625, 5.875 ], [ 120.625, 5.875 ], [ 120.625, 5.375 ], [ 121.125, 5.375 ], [ 121.125, 5.125 ], [ 121.625, 5.125 ], [ 121.625, 5.625 ], [ 121.875, 5.625 ], [ 121.875, 5.875 ], [ 122.375, 5.875 ], [ 122.375, 6.125 ], [ 122.125, 6.125 ], [ 122.125, 6.375 ], [ 122.375, 6.375 ], [ 122.375, 6.625 ], [ 122.625, 6.625 ], [ 122.625, 6.875 ], [ 123.625, 6.875 ], [ 123.625, 7.125 ], [ 125.875, 7.125 ], [ 125.875, 7.375 ], [ 126.125, 7.375 ], [ 126.125, 7.625 ], [ 127.125, 7.625 ], [ 127.125, 7.125 ], [ 129.625, 7.125 ], [ 129.625, 6.875 ], [ 130.125, 6.875 ], [ 130.125, 6.625 ], [ 129.875, 6.625 ], [ 129.875, 5.875 ], [ 130.375, 5.875 ], [ 130.375, 5.625 ], [ 130.875, 5.625 ], [ 130.875, 5.875 ], [ 131.625, 5.875 ], [ 131.625, 6.625 ], [ 131.375, 6.625 ], [ 131.375, 7.125 ], [ 131.875, 7.125 ], [ 131.875, 7.625 ], [ 132.125, 7.625 ], [ 132.125, 8.125 ], [ 131.375, 8.125 ], [ 131.375, 8.875 ], [ 131.625, 8.875 ], [ 131.625, 9.125 ], [ 131.875, 9.125 ], [ 131.875, 9.375 ], [ 132.125, 9.375 ], [ 132.125, 9.625 ], [ 132.375, 9.625 ], [ 132.375, 9.875 ], [ 132.875, 9.875 ], [ 132.875, 9.625 ], [ 133.125, 9.625 ], [ 133.125, 9.375 ], [ 133.375, 9.375 ], [ 133.375, 9.125 ], [ 133.875, 9.125 ], [ 133.875, 8.375 ], [ 134.125, 8.375 ], [ 134.125, 7.625 ], [ 134.375, 7.625 ], [ 134.375, 6.875 ], [ 134.625, 6.875 ], [ 134.625, 6.375 ], [ 134.125, 6.375 ], [ 134.125, 6.125 ], [ 133.875, 6.125 ], [ 133.875, 5.875 ], [ 134.375, 5.875 ], [ 134.375, 5.375 ], [ 134.125, 5.375 ], [ 134.125, 5.125 ], [ 133.875, 5.125 ], [ 133.875, 5.375 ], [ 133.125, 5.375 ], [ 133.125, 5.625 ], [ 132.625, 5.625 ], [ 132.625, 5.375 ], [ 131.375, 5.375 ], [ 131.375, 5.125 ], [ 130.375, 5.125 ], [ 130.375, 4.875 ], [ 130.625, 4.875 ], [ 130.625, 4.625 ], [ 130.125, 4.625 ], [ 130.125, 4.875 ], [ 129.875, 4.875 ], [ 129.875, 4.625 ], [ 125.875, 4.625 ], [ 125.875, 4.375 ], [ 125.625, 4.375 ], [ 125.625, 4.125 ], [ 124.625, 4.125 ], [ 124.625, 3.375 ], [ 123.125, 3.375 ], [ 123.125, 2.875 ], [ 121.875, 2.875 ], [ 121.875, 2.625 ], [ 121.625, 2.625 ], [ 121.625, 2.375 ], [ 121.125, 2.375 ], [ 121.125, 2.625 ], [ 120.125, 2.625 ], [ 120.125, 2.125 ], [ 119.125, 2.125 ], [ 119.125, 3.125 ], [ 118.125, 3.125 ], [ 118.125, 2.875 ], [ 117.875, 2.875 ], [ 117.875, 2.625 ], [ 117.625, 2.625 ], [ 117.625, 2.375 ], [ 117.375, 2.375 ], [ 117.375, 1.875 ], [ 117.125, 1.875 ], [ 117.125, 1.625 ], [ 116.625, 1.625 ], [ 116.625, 1.375 ], [ 116.375, 1.375 ], [ 116.375, 1.125 ], [ 116.125, 1.125 ], [ 116.125, 0.125 ], [ 116.375, 0.125 ], [ 116.375, -0.375 ], [ 115.875, -0.375 ] ] ] } },
{ "type": "Feature", "properties": { "cohesion": 13.947395324707031 }, "geometry": { "type": "Polygon", "coordinates": [ [ [ 121.125, 5.125 ], [ 121.125, 5.375 ], [ 120.625, 5.375 ], [ 120.625, 5.875 ], [ 119.625, 5.875 ], [ 119.625, 6.125 ], [ 119.375, 6.125 ], [ 119.375, 6.625 ], [ 119.125, 6.625 ], [ 119.125, 6.875 ], [ 118.875, 6.875 ], [ 118.875, 7.125 ], [ 118.625, 7.125 ], [ 118.625, 7.375 ], [ 118.375, 7.375 ], [ 118.375, 7.625 ], [ 118.125, 7.625 ], [ 118.125, 7.875 ], [ 117.375, 7.875 ], [ 117.375, 7.625 ], [ 117.125, 7.625 ], [ 117.125, 7.375 ], [ 116.625, 7.375 ], [ 116.625, 8.375 ], [ 116.375, 8.375 ], [ 116.375, 8.625 ], [ 116.125, 8.625 ], [ 116.125, 8.375 ], [ 115.875, 8.375 ], [ 115.875, 8.875 ], [ 115.625, 8.875 ], [ 115.625, 9.125 ], [ 115.125, 9.125 ], [ 115.125, 8.625 ], [ 114.875, 8.625 ], [ 114.875, 8.125 ], [ 114.625, 8.125 ], [ 114.625, 9.625 ], [ 114.875, 9.625 ], [ 114.875, 9.875 ], [ 115.125, 9.875 ], [ 115.125, 9.625 ], [ 115.375, 9.625 ], [ 115.375, 9.375 ], [ 115.625, 9.375 ], [ 115.625, 9.625 ], [ 116.375, 9.625 ], [ 116.375, 9.875 ], [ 117.875, 9.875 ], [ 117.875, 9.625 ], [ 118.125, 9.625 ], [ 118.125, 9.375 ], [ 118.375, 9.375 ], [ 118.375, 9.125 ], [ 119.625, 9.125 ], [ 119.625, 9.375 ], [ 120.375, 9.375 ], [ 120.375, 9.625 ], [ 121.125, 9.625 ], [ 121.125, 9.875 ], [ 121.625, 9.875 ], [ 121.625, 10.375 ], [ 123.125, 10.375 ], [ 123.125, 10.625 ], [ 123.625, 10.625 ], [ 123.625, 10.875 ], [ 125.125, 10.875 ], [ 125.125, 10.625 ], [ 126.875, 10.625 ], [ 126.875, 10.875 ], [ 126.375, 10.875 ], [ 126.375, 11.125 ], [ 125.875, 11.125 ], [ 125.875, 11.375 ], [ 125.625, 11.375 ], [ 125.625, 11.625 ], [ 125.375, 11.625 ], [ 125.375, 11.875 ], [ 125.875, 11.875 ], [ 125.875, 11.625 ], [ 127.375, 11.625 ], [ 127.375, 11.375 ], [ 128.375, 11.375 ], [ 128.375, 11.125 ], [ 129.375, 11.125 ], [ 129.375, 10.875 ], [ 131.625, 10.875 ], [ 131.625, 11.125 ], [ 132.125, 11.125 ], [ 132.125, 10.875 ], [ 133.625, 10.875 ], [ 133.625, 10.125 ], [ 133.125, 10.125 ], [ 133.125, 9.875 ], [ 132.375, 9.875 ], [ 132.375, 9.625 ], [ 132.125, 9.625 ], [ 132.125, 9.375 ], [ 131.875, 9.375 ], [ 131.875, 9.125 ], [ 131.625, 9.125 ], [ 131.625, 8.875 ], [ 131.375, 8.875 ], [ 131.375, 8.125 ], [ 132.125, 8.125 ], [ 132.125, 7.625 ], [ 131.875, 7.625 ], [ 131.875, 7.125 ], [ 131.375, 7.125 ], [ 131.375, 6.625 ], [ 131.625, 6.625 ], [ 131.625, 5.875 ], [ 130.875, 5.875 ], [ 130.875, 5.625 ], [ 130.375, 5.625 ], [ 130.375, 5.875 ], [ 129.875, 5.875 ], [ 129.875, 6.625 ], [ 130.125, 6.625 ], [ 130.125, 6.875 ], [ 129.625, 6.875 ], [ 129.625, 7.125 ], [ 127.125, 7.125 ], [ 127.125, 7.625 ], [ 126.125, 7.625 ], [ 126.125, 7.375 ], [ 125.875, 7.375 ], [ 125.875, 7.125 ], [ 123.625, 7.125 ], [ 123.625, 6.875 ], [ 122.625, 6.875 ], [ 122.625, 6.625 ], [ 122.375, 6.625 ], [ 122.375, 6.375 ], [ 122.125, 6.375 ], [ 122.125, 6.125 ], [ 122.375, 6.125 ], [ 122.375, 5.875 ], [ 121.875, 5.875 ], [ 121.875, 5.625 ], [ 121.625, 5.625 ], [ 121.625, 5.125 ], [ 121.125, 5.125 ] ] ] } },
{ "type": "Feature", "properties": { "cohesion": 14.938403129577637 }, "geometry": { "type": "Polygon", "coordinates": [ [ [ 134.375, 2.375 ], [ 134.375, 2.625 ], [ 134.625, 2.625 ], [ 134.625, 2.875 ], [ 134.375, 2.875 ], [ 134.375, 3.125 ], [ 134.125, 3.125 ], [ 134.125, 3.375 ], [ 134.375, 3.375 ], [ 134.375, 3.625 ], [ 134.625, 3.625 ], [ 134.625, 3.875 ], [ 135.625, 3.875 ], [ 135.625, 4.125 ], [ 135.875, 4.125 ], [ 135.875, 4.375 ], [ 136.125, 4.375 ], [ 136.125, 4.625 ], [ 136.625, 4.625 ], [ 136.625, 4.875 ], [ 136.875, 4.875 ], [ 136.875, 5.125 ], [ 137.125, 5.125 ], [ 137.125, 5.625 ], [ 137.375, 5.625 ], [ 137.375, 5.875 ], [ 137.625, 5.875 ], [ 137.625, 6.125 ], [ 137.875, 6.125 ], [ 137.875, 6.375 ], [ 138.375, 6.375 ], [ 138.375, 6.125 ], [ 138.625, 6.125 ], [ 138.625, 6.375 ], [ 139.375, 6.375 ], [ 139.375, 6.125 ], [ 139.875, 6.125 ], [ 139.875, 6.375 ], [ 140.125, 6.375 ], [ 140.125, 6.625 ], [ 140.375, 6.625 ], [ 140.375, 7.375 ], [ 141.625, 7.375 ], [ 141.625, 7.625 ], [ 142.125, 7.625 ], [ 142.125, 7.375 ], [ 142.625, 7.375 ], [ 142.625, 7.125 ], [ 143.125, 7.125 ], [ 143.125, 7.625 ], [ 143.375, 7.625 ], [ 143.375, 7.875 ], [ 143.625, 7.875 ], [ 143.625, 7.625 ], [ 144.375, 7.625 ], [ 144.375, 7.375 ], [ 144.875, 7.375 ], [ 144.875, 7.875 ], [ 145.125, 7.875 ], [ 145.125, 8.125 ], [ 146.625, 8.125 ], [ 146.625, 8.375 ], [ 146.875, 8.375 ], [ 146.875, 8.625 ], [ 147.125, 8.625 ], [ 147.125, 8.875 ], [ 147.625, 8.875 ], [ 147.625, 9.375 ], [ 147.875, 9.375 ], [ 147.875, 9.875 ], [ 148.125, 9.875 ], [ 148.125, 10.375 ], [ 148.625, 10.375 ], [ 148.625, 10.625 ], [ 148.375, 10.625 ], [ 148.375, 11.875 ], [ 148.625, 11.875 ], [ 148.625, 12.125 ], [ 149.375, 12.125 ], [ 149.375, 11.875 ], [ 149.625, 11.875 ], [ 149.625, 11.375 ], [ 149.875, 11.375 ], [ 149.875, 10.875 ], [ 150.625, 10.875 ], [ 150.625, 10.625 ], [ 150.875, 10.625 ], [ 150.875, 10.375 ], [ 151.375, 10.375 ], [ 151.375, 9.625 ], [ 151.625, 9.625 ], [ 151.625, 9.125 ], [ 151.375, 9.125 ], [ 151.375, 8.875 ], [ 151.625, 8.875 ], [ 151.625, 8.375 ], [ 151.875, 8.375 ], [ 151.875, 5.875 ], [ 151.625, 5.875 ], [ 151.625, 5.625 ], [ 151.125, 5.625 ], [ 151.125, 5.375 ], [ 149.125, 5.375 ], [ 149.125, 5.125 ], [ 148.875, 5.125 ], [ 148.875, 4.875 ], [ 149.125, 4.875 ], [ 149.125, 4.625 ], [ 148.375, 4.625 ], [ 148.375, 4.375 ], [ 148.125, 4.375 ], [ 148.125, 4.125 ], [ 146.375, 4.125 ], [ 146.375, 4.375 ], [ 145.875, 4.375 ], [ 145.875, 4.625 ], [ 145.625, 4.625 ], [ 145.625, 4.875 ], [ 145.125, 4.875 ], [ 145.125, 5.625 ], [ 144.875, 5.625 ], [ 144.875, 5.875 ], [ 144.375, 5.875 ], [ 144.375, 5.625 ], [ 143.875, 5.625 ], [ 143.875, 5.375 ], [ 143.625, 5.375 ], [ 143.625, 5.125 ], [ 143.125, 5.125 ], [ 143.125, 5.375 ], [ 142.625, 5.375 ], [ 142.625, 5.125 ], [ 142.375, 5.125 ], [ 142.375, 4.625 ], [ 142.125, 4.625 ], [ 142.125, 4.375 ], [ 141.875, 4.375 ], [ 141.875, 4.625 ], [ 141.625, 4.625 ], [ 141.625, 4.375 ], [ 141.375, 4.375 ], [ 141.375, 4.125 ], [ 140.875, 4.125 ], [ 140.875, 3.875 ], [ 140.625, 3.875 ], [ 140.625, 3.625 ], [ 139.875, 3.625 ], [ 139.875, 4.125 ], [ 140.125, 4.125 ], [ 140.125, 4.375 ], [ 140.375, 4.375 ], [ 140.375, 4.625 ], [ 140.125, 4.625 ], [ 140.125, 4.875 ], [ 139.625, 4.875 ], [ 139.625, 4.375 ], [ 138.875, 4.375 ], [ 138.875, 4.125 ], [ 138.625, 4.125 ], [ 138.625, 3.875 ], [ 137.875, 3.875 ], [ 137.875, 3.625 ], [ 137.375, 3.625 ], [ 137.375, 3.375 ], [ 137.125, 3.375 ], [ 137.125, 3.125 ], [ 136.625, 3.125 ], [ 136.625, 2.875 ], [ 136.375, 2.875 ], [ 136.375, 2.625 ], [ 135.875, 2.625 ], [ 135.875, 2.375 ], [ 134.375, 2.375 ] ] ] } },
{ "type": "Feature", "properties": { "cohesion": 13.173986434936523 }, "geometry": { "type": "Polygon", "coordinates": [ [ [ 118.375, 9.125 ], [ 118.375, 9.375 ], [ 118.125, 9.375 ], [ 118.125, 9.625 ], [ 117.875, 9.625 ], [ 117.875, 9.875 ], [ 116.375, 9.875 ], [ 116.375, 9.625 ], [ 115.625, 9.625 ], [ 115.625, 9.375 ], [ 115.375, 9.375 ], [ 115.375, 9.625 ], [ 115.125, 9.625 ], [ 115.125, 9.875 ], [ 114.875, 9.875 ], [ 114.875, 10.125 ], [ 115.125, 10.125 ], [ 115.125, 10.375 ], [ 115.375, 10.375 ], [ 115.375, 12.375 ], [ 115.125, 12.375 ], [ 115.125, 12.625 ], [ 114.875, 12.625 ], [ 114.875, 12.875 ], [ 114.625, 12.875 ], [ 114.625, 13.125 ], [ 114.875, 13.125 ], [ 114.875, 13.375 ], [ 115.125, 13.375 ], [ 115.125, 13.625 ], [ 115.625, 13.625 ], [ 115.625, 13.875 ], [ 115.875, 13.875 ], [ 115.875, 14.125 ], [ 116.125, 14.125 ], [ 116.125, 14.375 ], [ 118.375, 14.375 ], [ 118.375, 14.125 ], [ 118.625, 14.125 ], [ 118.625, 13.875 ], [ 119.375, 13.875 ], [ 119.375, 13.625 ], [ 119.625, 13.625 ], [ 119.625, 13.375 ], [ 120.875, 13.375 ], [ 120.875, 13.125 ], [ 122.125, 13.125 ], [ 122.125, 13.375 ], [ 123.625, 13.375 ], [ 123.625, 13.125 ], [ 123.875, 13.125 ], [ 123.875, 12.875 ], [ 124.125, 12.875 ], [ 124.125, 12.625 ], [ 124.375, 12.625 ], [ 124.375, 12.375 ], [ 124.875, 12.375 ], [ 124.875, 12.125 ], [ 125.375, 12.125 ], [ 125.375, 11.625 ], [ 125.625, 11.625 ], [ 125.625, 11.375 ], [ 125.875, 11.375 ], [ 125.875, 11.125 ], [ 126.375, 11.125 ], [ 126.375, 10.875 ], [ 126.875, 10.875 ], [ 126.875, 10.625 ], [ 125.125, 10.625 ], [ 125.125, 10.875 ], [ 123.625, 10.875 ], [ 123.625, 10.625 ], [ 123.125, 10.625 ], [ 123.125, 10.375 ], [ 121.625, 10.375 ], [ 121.625, 9.875 ], [ 121.125, 9.875 ], [ 121.125, 9.625 ], [ 120.375, 9.625 ], [ 120.375, 9.375 ], [ 119.625, 9.375 ], [ 119.625, 9.125 ], [ 118.375, 9.125 ] ] ] } },
{ "type": "Feature", "properties": { "cohesion": 16.557056427001953 }, "geometry": { "type": "Polygon", "coordinates": [ [ [ 134.625, 6.375 ], [ 134.625, 6.875 ], [ 134.375, 6.875 ], [ 134.375, 7.625 ], [ 134.125, 7.625 ], [ 134.125, 8.375 ], [ 133.875, 8.375 ], [ 133.875, 9.125 ], [ 133.375, 9.125 ], [ 133.375, 9.375 ], [ 133.125, 9.375 ], [ 133.125, 9.625 ], [ 132.875, 9.625 ], [ 132.875, 9.875 ], [ 133.125, 9.875 ], [ 133.125, 10.125 ], [ 133.625, 10.125 ], [ 133.625, 10.875 ], [ 132.125, 10.875 ], [ 132.125, 11.375 ], [ 133.625, 11.375 ], [ 133.625, 11.625 ], [ 133.875, 11.625 ], [ 133.875, 12.125 ], [ 134.125, 12.125 ], [ 134.125, 12.375 ], [ 134.375, 12.375 ], [ 134.375, 12.625 ], [ 134.625, 12.625 ], [ 134.625, 12.875 ], [ 134.875, 12.875 ], [ 134.875, 13.375 ], [ 135.125, 13.375 ], [ 135.125, 13.625 ], [ 135.375, 13.625 ], [ 135.375, 13.875 ], [ 135.875, 13.875 ], [ 135.875, 13.375 ], [ 136.125, 13.375 ], [ 136.125, 13.125 ], [ 136.375, 13.125 ], [ 136.375, 12.875 ], [ 136.625, 12.875 ], [ 136.625, 12.125 ], [ 137.125, 12.125 ], [ 137.125, 12.625 ], [ 137.375, 12.625 ], [ 137.375, 12.875 ], [ 137.625, 12.875 ], [ 137.625, 12.625 ], [ 137.875, 12.625 ], [ 137.875, 12.125 ], [ 138.125, 12.125 ], [ 138.125, 11.375 ], [ 138.375, 11.375 ], [ 138.375, 11.875 ], [ 139.875, 11.875 ], [ 139.875, 12.375 ], [ 139.625, 12.375 ], [ 139.625, 13.875 ], [ 140.125, 13.875 ], [ 140.125, 14.125 ], [ 141.125, 14.125 ], [ 141.125, 13.875 ], [ 141.375, 13.875 ], [ 141.375, 14.125 ], [ 141.625, 14.125 ], [ 141.625, 13.625 ], [ 141.875, 13.625 ], [ 141.875, 14.125 ], [ 142.375, 14.125 ], [ 142.375, 13.125 ], [ 142.875, 13.125 ], [ 142.875, 13.875 ], [ 143.375, 13.875 ], [ 143.375, 14.125 ], [ 144.375, 14.125 ], [ 144.375, 14.375 ], [ 144.875, 14.375 ], [ 144.875, 14.625 ], [ 145.375, 14.625 ], [ 145.375, 14.875 ], [ 146.125, 14.875 ], [ 146.125, 15.375 ], [ 146.375, 15.375 ], [ 146.375, 15.125 ], [ 146.625, 15.125 ], [ 146.625, 14.875 ], [ 147.375, 14.875 ], [ 147.375, 14.625 ], [ 147.625, 14.625 ], [ 147.625, 14.375 ], [ 148.125, 14.375 ], [ 148.125, 14.125 ], [ 147.875, 14.125 ], [ 147.875, 13.875 ], [ 148.625, 13.875 ], [ 148.625, 13.625 ], [ 148.875, 13.625 ], [ 148.875, 13.375 ], [ 149.125, 13.375 ], [ 149.125, 12.375 ], [ 148.875, 12.375 ], [ 148.875, 12.125 ], [ 148.625, 12.125 ], [ 148.625, 11.875 ], [ 148.375, 11.875 ], [ 148.375, 10.625 ], [ 148.625, 10.625 ], [ 148.625, 10.375 ], [ 148.125, 10.375 ], [ 148.125, 9.875 ], [ 147.875, 9.875 ], [ 147.875, 9.375 ], [ 147.625, 9.375 ], [ 147.625, 8.875 ], [ 147.125, 8.875 ], [ 147.125, 8.625 ], [ 146.875, 8.625 ], [ 146.875, 8.375 ], [ 146.625, 8.375 ], [ 146.625, 8.125 ], [ 145.125, 8.125 ], [ 145.125, 7.875 ], [ 144.875, 7.875 ], [ 144.875, 7.375 ], [ 144.375, 7.375 ], [ 144.375, 7.625 ], [ 143.625, 7.625 ], [ 143.625, 7.875 ], [ 143.375, 7.875 ], [ 143.375, 7.625 ], [ 143.125, 7.625 ], [ 143.125, 7.125 ], [ 142.625, 7.125 ], [ 142.625, 7.375 ], [ 142.125, 7.375 ], [ 142.125, 7.625 ], [ 141.625, 7.625 ], [ 141.625, 7.375 ], [ 140.375, 7.375 ], [ 140.375, 8.125 ], [ 140.625, 8.125 ], [ 140.625, 8.375 ], [ 141.125, 8.375 ], [ 141.125, 8.625 ], [ 140.375, 8.625 ], [ 140.375, 8.375 ], [ 140.125, 8.375 ], [ 140.125, 8.125 ], [ 139.375, 8.125 ], [ 139.375, 8.375 ], [ 138.625, 8.375 ], [ 138.625, 8.125 ], [ 138.375, 8.125 ], [ 138.375, 7.875 ], [ 137.875, 7.875 ], [ 137.875, 7.625 ], [ 137.625, 7.625 ], [ 137.625, 8.125 ], [ 137.875, 8.125 ], [ 137.875, 8.375 ], [ 138.125, 8.375 ], [ 138.125, 8.625 ], [ 138.375, 8.625 ], [ 138.375, 8.875 ], [ 137.625, 8.875 ], [ 137.625, 8.625 ], [ 137.375, 8.625 ], [ 137.375, 7.875 ], [ 137.125, 7.875 ], [ 137.125, 7.625 ], [ 136.875, 7.625 ], [ 136.875, 7.375 ], [ 136.625, 7.375 ], [ 136.625, 7.125 ], [ 135.875, 7.125 ], [ 135.875, 6.625 ], [ 135.375, 6.625 ], [ 135.375, 6.375 ], [ 134.625, 6.375 ] ] ] } },
{ "type": "Feature", "properties": { "cohesion": 10.942475318908691 }, "geometry": { "type": "Polygon", "coordinates": [ [ [ 148.875, 15.375 ], [ 148.875, 15.625 ], [ 149.125, 15.625 ], [ 149.125, 15.375 ], [ 148.875, 15.375 ] ] ] } },
{ "type": "Feature", "properties": { "cohesion": 10.942475318908691 }, "geometry": { "type": "Polygon", "coordinates": [ [ [ 138.125, 11.375 ], [ 138.125, 12.125 ], [ 137.875, 12.125 ], [ 137.875, 12.625 ], [ 137.625, 12.625 ], [ 137.625, 12.875 ], [ 137.375, 12.875 ], [ 137.375, 12.625 ], [ 137.125, 12.625 ], [ 137.125, 12.125 ], [ 136.625, 12.125 ], [ 136.625, 12.875 ], [ 136.375, 12.875 ], [ 136.375, 13.125 ], [ 136.125, 13.125 ], [ 136.125, 13.375 ], [ 135.875, 13.375 ], [ 135.875, 13.875 ], [ 136.125, 13.875 ], [ 136.125, 13.625 ], [ 136.375, 13.625 ], [ 136.375, 13.375 ], [ 136.625, 13.375 ], [ 136.625, 13.125 ], [ 137.125, 13.125 ], [ 137.125, 13.375 ], [ 137.375, 13.375 ], [ 137.375, 13.625 ], [ 137.625, 13.625 ], [ 137.625, 13.875 ], [ 137.875, 13.875 ], [ 137.875, 13.625 ], [ 138.125, 13.625 ], [ 138.125, 14.375 ], [ 138.375, 14.375 ], [ 138.375, 14.625 ], [ 138.625, 14.625 ], [ 138.625, 14.875 ], [ 139.125, 14.875 ], [ 139.125, 15.125 ], [ 139.375, 15.125 ], [ 139.375, 16.375 ], [ 139.625, 16.375 ], [ 139.625, 16.625 ], [ 139.875, 16.625 ], [ 139.875, 16.875 ], [ 140.125, 16.875 ], [ 140.125, 17.125 ], [ 141.625, 17.125 ], [ 141.625, 16.875 ], [ 142.125, 16.875 ], [ 142.125, 16.625 ], [ 144.125, 16.625 ], [ 144.125, 16.375 ], [ 144.875, 16.375 ], [ 144.875, 16.625 ], [ 146.125, 16.625 ], [ 146.125, 16.375 ], [ 146.375, 16.375 ], [ 146.375, 16.125 ], [ 146.875, 16.125 ], [ 146.875, 15.875 ], [ 147.625, 15.875 ], [ 147.625, 15.625 ], [ 148.125, 15.625 ], [ 148.125, 15.375 ], [ 148.375, 15.375 ], [ 148.375, 14.375 ], [ 147.625, 14.375 ], [ 147.625, 14.625 ], [ 147.375, 14.625 ], [ 147.375, 14.875 ], [ 146.625, 14.875 ], [ 146.625, 15.125 ], [ 146.375, 15.125 ], [ 146.375, 15.375 ], [ 146.125, 15.375 ], [ 146.125, 14.875 ], [ 145.375, 14.875 ], [ 145.375, 14.625 ], [ 144.875, 14.625 ], [ 144.875, 14.375 ], [ 144.375, 14.375 ], [ 144.375, 14.125 ], [ 143.375, 14.125 ], [ 143.375, 13.875 ], [ 142.875, 13.875 ], [ 142.875, 13.125 ], [ 142.375, 13.125 ], [ 142.375, 14.125 ], [ 141.875, 14.125 ], [ 141.875, 13.625 ], [ 141.625, 13.625 ], [ 141.625, 14.125 ], [ 141.375, 14.125 ], [ 141.375, 13.875 ], [ 141.125, 13.875 ], [ 141.125, 14.125 ], [ 140.125, 14.125 ], [ 140.125, 13.875 ], [ 139.625, 13.875 ], [ 139.625, 12.375 ], [ 139.875, 12.375 ], [ 139.875, 11.875 ], [ 138.375, 11.875 ], [ 138.375, 11.375 ], [ 138.125, 11.375 ] ] ] } },
{ "type": "Feature", "properties": { "cohesion": 15.613888740539551 }, "geometry": { "type": "Polygon", "coordinates": [ [ [ 151.875, 5.375 ], [ 151.875, 5.625 ], [ 151.625, 5.625 ], [ 151.625, 5.875 ], [ 151.875, 5.875 ], [ 151.875, 8.375 ], [ 151.625, 8.375 ], [ 151.625, 8.875 ], [ 151.375, 8.875 ], [ 151.375, 9.125 ], [ 151.625, 9.125 ], [ 151.625, 9.625 ], [ 151.375, 9.625 ], [ 151.375, 10.375 ], [ 150.875, 10.375 ], [ 150.875, 10.625 ], [ 150.625, 10.625 ], [ 150.625, 10.875 ], [ 149.875, 10.875 ], [ 149.875, 11.375 ], [ 149.625, 11.375 ], [ 149.625, 11.875 ], [ 149.375, 11.875 ], [ 149.375, 12.125 ], [ 148.875, 12.125 ], [ 148.875, 12.375 ], [ 149.125, 12.375 ], [ 149.125, 13.375 ], [ 148.875, 13.375 ], [ 148.875, 13.625 ], [ 148.625, 13.625 ], [ 148.625, 13.875 ], [ 147.875, 13.875 ], [ 147.875, 14.125 ], [ 148.125, 14.125 ], [ 148.125, 14.375 ], [ 148.375, 14.375 ], [ 148.375, 15.375 ], [ 148.125, 15.375 ], [ 148.125, 15.625 ], [ 147.625, 15.625 ], [ 147.625, 15.875 ], [ 146.875, 15.875 ], [ 146.875, 16.125 ], [ 146.375, 16.125 ], [ 146.375, 16.375 ], [ 146.125, 16.375 ], [ 146.125, 16.625 ], [ 144.875, 16.625 ], [ 144.875, 16.375 ], [ 144.125, 16.375 ], [ 144.125, 16.625 ], [ 142.125, 16.625 ], [ 142.125, 16.875 ], [ 141.625, 16.875 ], [ 141.625, 17.125 ], [ 140.625, 17.125 ], [ 140.625, 17.375 ], [ 141.125, 17.375 ], [ 141.125, 17.625 ], [ 142.625, 17.625 ], [ 142.625, 17.875 ], [ 143.125, 17.875 ], [ 143.125, 18.125 ], [ 143.875, 18.125 ], [ 143.875, 17.875 ], [ 144.125, 17.875 ], [ 144.125, 17.625 ], [ 144.375, 17.625 ], [ 144.375, 17.375 ], [ 145.125, 17.375 ], [ 145.125, 17.625 ], [ 145.375, 17.625 ], [ 145.375, 17.875 ], [ 145.875, 17.875 ], [ 145.875, 18.125 ], [ 146.625, 18.125 ], [ 146.625, 17.875 ], [ 147.125, 17.875 ], [ 147.125, 17.625 ], [ 147.375, 17.625 ], [ 147.375, 17.375 ], [ 148.125, 17.375 ], [ 148.125, 17.125 ], [ 149.625, 17.125 ], [ 149.625, 16.875 ], [ 149.875, 16.875 ], [ 149.875, 16.625 ], [ 150.125, 16.625 ], [ 150.125, 16.375 ], [ 150.375, 16.375 ], [ 150.375, 15.375 ], [ 150.625, 15.375 ], [ 150.625, 14.375 ], [ 150.875, 14.375 ], [ 150.875, 14.125 ], [ 151.125, 14.125 ], [ 151.125, 13.375 ], [ 151.375, 13.375 ], [ 151.375, 13.125 ], [ 151.625, 13.125 ], [ 151.625, 12.375 ], [ 151.875, 12.375 ], [ 151.875, 12.125 ], [ 152.125, 12.125 ], [ 152.125, 11.875 ], [ 152.375, 11.875 ], [ 152.375, 11.625 ], [ 152.625, 11.625 ], [ 152.625, 11.375 ], [ 152.875, 11.375 ], [ 152.875, 10.875 ], [ 153.125, 10.875 ], [ 153.125, 10.375 ], [ 153.375, 10.375 ], [ 153.375, 9.125 ], [ 153.625, 9.125 ], [ 153.625, 8.125 ], [ 153.875, 8.125 ], [ 153.875, 6.625 ], [ 153.375, 6.625 ], [ 153.375, 7.125 ], [ 153.125, 7.125 ], [ 153.125, 5.625 ], [ 152.875, 5.625 ], [ 152.875, 5.375 ], [ 151.875, 5.375 ] ], [ [ 148.875, 15.375 ], [ 149.125, 15.375 ], [ 149.125, 15.625 ], [ 148.875, 15.625 ], [ 148.875, 15.375 ] ] ] } },
{ "type": "Feature", "properties": { "cohesion": 15.613888740539551 }, "geometry": { "type": "Polygon", "coordinates": [ [ [ 144.875, 19.375 ], [ 144.875, 19.625 ], [ 144.625, 19.625 ], [ 144.625, 19.875 ], [ 144.375, 19.875 ], [ 144.375, 20.375 ], [ 144.625, 20.375 ], [ 144.625, 20.875 ], [ 144.875, 20.875 ], [ 144.875, 21.125 ], [ 145.125, 21.125 ], [ 145.125, 21.375 ], [ 144.875, 21.375 ], [ 144.875, 21.625 ], [ 145.125, 21.625 ], [ 145.125, 21.875 ], [ 145.375, 21.875 ], [ 145.375, 22.125 ], [ 145.625, 22.125 ], [ 145.625, 22.375 ], [ 145.875, 22.375 ], [ 145.875, 22.625 ], [ 147.125, 22.625 ], [ 147.125, 22.375 ], [ 147.375, 22.375 ], [ 147.375, 22.125 ], [ 147.875, 22.125 ], [ 147.875, 21.875 ], [ 148.125, 21.875 ], [ 148.125, 21.625 ], [ 148.375, 21.625 ], [ 148.375, 21.125 ], [ 148.625, 21.125 ], [ 148.625, 19.875 ], [ 148.375, 19.875 ], [ 148.375, 19.625 ], [ 148.125, 19.625 ], [ 148.125, 19.375 ], [ 147.875, 19.375 ], [ 147.875, 19.625 ], [ 146.625, 19.625 ], [ 146.625, 19.875 ], [ 146.125, 19.875 ], [ 146.125, 19.625 ], [ 145.125, 19.625 ], [ 145.125, 19.375 ], [ 144.875, 19.375 ] ] ] } }
]
}
